{"type": "FeatureCollection", "features": [{"type": "Feature", "geometry": {"type": "Point", "coordinates": [10.51965, 36.02347]}, "properties": {"record_id": "oai:u-bordeaux-montaigne.fr:340469", "symbol_class": "building", "pixel_x": 1233.4, "pixel_y": 2791.5, "easting": 555782.0, "northing": 302613.2, "epsg_source": 22391}}, {"type": "Feature", "geometry": {"type": "Point", "coordinates": [10.51857, 36.02345]}, "properties": {"record_id": "oai:u-bordeaux-montaigne.fr:340469", "symbol_class": "building", "pixel_x": 1210.5, "pixel_y": 2794.1, "easting": 555685.1, "northing": 302610.0, "epsg_source": 22391}}, {"type": "Feature", "geometry": {"type": "Point", "coordinates": [10.51719, 36.01748]}, "properties": {"record_id": "oai:u-bordeaux-montaigne.fr:340469", "symbol_class": "building", "pixel_x": 1192.8, "pixel_y": 2939.2, "easting": 555564.4, "northing": 301947.3, "epsg_source": 22391}}, {"type": "Feature", "geometry": {"type": "Point", "coordinates": [10.51266, 36.01197]}, "properties": {"record_id": "oai:u-bordeaux-montaigne.fr:340469", "symbol_class": "building", "pixel_x": 1107.4, "pixel_y": 3079.5, "easting": 555160.3, "northing": 301333.2, "epsg_source": 22391}}, {"type": "Feature", "geometry": {"type": "Point", "coordinates": [10.51201, 36.01141]}, "properties": {"record_id": "oai:u-bordeaux-montaigne.fr:340469", "symbol_class": "building", "pixel_x": 1094.6, "pixel_y": 3093.9, "easting": 555102.0, "northing": 301271.5, "epsg_source": 22391}}, {"type": "Feature", "geometry": {"type": "Point", "coordinates": [10.53539, 35.95616]}, "properties": {"record_id": "oai:u-bordeaux-montaigne.fr:340469", "symbol_class": "building", "pixel_x": 1700.8, "pixel_y": 4369.7, "easting": 557249.6, "northing": 295156.7, "epsg_source": 22391}}, {"type": "Feature", "geometry": {"type": "Point", "coordinates": [10.52483, 35.94851]}, "properties": {"record_id": "oai:u-bordeaux-montaigne.fr:340469", "symbol_class": "building", "pixel_x": 1491.1, "pixel_y": 4572.5, "easting": 556302.4, "northing": 294301.7, "epsg_source": 22391}}, {"type": "Feature", "geometry": {"type": "Point", "coordinates": [10.52563, 35.94843]}, "properties": {"record_id": "oai:u-bordeaux-montaigne.fr:340469", "symbol_class": "building", "pixel_x": 1508.3, "pixel_y": 4572.8, "easting": 556374.6, "northing": 294293.7, "epsg_source": 22391}}, {"type": "Feature", "geometry": {"type": "Point", "coordinates": [10.53394, 35.94752]}, "properties": {"record_id": "oai:u-bordeaux-montaigne.fr:340469", "symbol_class": "building", "pixel_x": 1686.9, "pixel_y": 4578.8, "easting": 557124.7, "northing": 294197.8, "epsg_source": 22391}}, {"type": "Feature", "geometry": {"type": "Point", "coordinates": [10.50965, 35.94429]}, "properties": {"record_id": "oai:u-bordeaux-montaigne.fr:340469", "symbol_class": "building", "pixel_x": 1176.5, "pixel_y": 4701.9, "easting": 554936.5, "northing": 293825.2, "epsg_source": 22391}}, {"type": "Feature", "geometry": {"type": "Point", "coordinates": [10.51676, 35.94252]}, "properties": {"record_id": "oai:u-bordeaux-montaigne.fr:340469", "symbol_class": "building", "pixel_x": 1331.3, "pixel_y": 4730.7, "easting": 555579.1, "northing": 293633.2, "epsg_source": 22391}}, {"type": "Feature", "geometry": {"type": "Point", "coordinates": [10.53465, 35.94108]}, "properties": {"record_id": "oai:u-bordeaux-montaigne.fr:340469", "symbol_class": "building", "pixel_x": 1714.8, "pixel_y": 4731.4, "easting": 557193.6, "northing": 293483.2, "epsg_source": 22391}}, {"type": "Feature", "geometry": {"type": "Point", "coordinates": [10.53556, 35.9405]}, "properties": {"record_id": "oai:u-bordeaux-montaigne.fr:340469", "symbol_class": "building", "pixel_x": 1735.2, "pixel_y": 4743.6, "easting": 557275.9, "northing": 293419.4, "epsg_source": 22391}}, {"type": "Feature", "geometry": {"type": "Point", "coordinates": [10.51432, 35.94177]}, "properties": {"record_id": "oai:u-bordeaux-montaigne.fr:340469", "symbol_class": "building", "pixel_x": 1280.9, "pixel_y": 4753.2, "easting": 555359.6, "northing": 293548.8, "epsg_source": 22391}}, {"type": "Feature", "geometry": {"type": "Point", "coordinates": [10.55659, 35.93314]}, "properties": {"record_id": "oai:u-bordeaux-montaigne.fr:340469", "symbol_class": "building", "pixel_x": 2197.2, "pixel_y": 4879.5, "easting": 559178.0, "northing": 292615.8, "epsg_source": 22391}}, {"type": "Feature", "geometry": {"type": "Point", "coordinates": [10.54597, 35.93351]}, "properties": {"record_id": "oai:u-bordeaux-montaigne.fr:340469", "symbol_class": "building", "pixel_x": 1970.6, "pixel_y": 4890.8, "easting": 558220.2, "northing": 292650.3, "epsg_source": 22391}}, {"type": "Feature", "geometry": {"type": "Point", "coordinates": [10.56421, 35.93146]}, "properties": {"record_id": "oai:u-bordeaux-montaigne.fr:340469", "symbol_class": "building", "pixel_x": 2362.7, "pixel_y": 4905.1, "easting": 559866.8, "northing": 292434.4, "epsg_source": 22391}}, {"type": "Feature", "geometry": {"type": "Point", "coordinates": [10.55823, 35.9294]}, "properties": {"record_id": "oai:u-bordeaux-montaigne.fr:340469", "symbol_class": "building", "pixel_x": 2239.5, "pixel_y": 4965.6, "easting": 559328.9, "northing": 292202.4, "epsg_source": 22391}}, {"type": "Feature", "geometry": {"type": "Point", "coordinates": [10.56286, 35.9228]}, "properties": {"record_id": "oai:u-bordeaux-montaigne.fr:340469", "symbol_class": "building", "pixel_x": 2351.1, "pixel_y": 5114.5, "easting": 559751.3, "northing": 291473.2, "epsg_source": 22391}}, {"type": "Feature", "geometry": {"type": "Point", "coordinates": [10.5453, 35.92243]}, "properties": {"record_id": "oai:u-bordeaux-montaigne.fr:340469", "symbol_class": "building", "pixel_x": 1978.0, "pixel_y": 5156.8, "easting": 558167.2, "northing": 291421.1, "epsg_source": 22391}}, {"type": "Feature", "geometry": {"type": "Point", "coordinates": [10.56882, 35.91936]}, "properties": {"record_id": "oai:u-bordeaux-montaigne.fr:340469", "symbol_class": "building", "pixel_x": 2484.7, "pixel_y": 5185.5, "easting": 560291.5, "northing": 291094.8, "epsg_source": 22391}}, {"type": "Feature", "geometry": {"type": "Point", "coordinates": [10.5681, 35.91674]}, "properties": {"record_id": "oai:u-bordeaux-montaigne.fr:340469", "symbol_class": "building", "pixel_x": 2474.6, "pixel_y": 5249.4, "easting": 560228.5, "northing": 290804.1, "epsg_source": 22391}}, {"type": "Feature", "geometry": {"type": "Point", "coordinates": [10.56618, 35.91425]}, "properties": {"record_id": "oai:u-bordeaux-montaigne.fr:340469", "symbol_class": "building", "pixel_x": 2438.8, "pixel_y": 5312.6, "easting": 560057.8, "northing": 290526.2, "epsg_source": 22391}}, {"type": "Feature", "geometry": {"type": "Point", "coordinates": [10.52578, 35.91714]}, "properties": {"record_id": "oai:u-bordeaux-montaigne.fr:340469", "symbol_class": "building", "pixel_x": 1573.0, "pixel_y": 5320.0, "easting": 556409.9, "northing": 290823.2, "epsg_source": 22391}}, {"type": "Feature", "geometry": {"type": "Point", "coordinates": [10.56357, 35.91016]}, "properties": {"record_id": "oai:u-bordeaux-montaigne.fr:340469", "symbol_class": "building", "pixel_x": 2391.3, "pixel_y": 5415.1, "easting": 559825.2, "northing": 290071.9, "epsg_source": 22391}}, {"type": "Feature", "geometry": {"type": "Point", "coordinates": [10.58628, 35.90088]}, "properties": {"record_id": "oai:u-bordeaux-montaigne.fr:340469", "symbol_class": "building", "pixel_x": 2893.1, "pixel_y": 5593.6, "easting": 561881.6, "northing": 289056.7, "epsg_source": 22391}}, {"type": "Feature", "geometry": {"type": "Point", "coordinates": [10.5679, 35.90087]}, "properties": {"record_id": "oai:u-bordeaux-montaigne.fr:340469", "symbol_class": "building", "pixel_x": 2501.8, "pixel_y": 5628.8, "easting": 560222.6, "northing": 289044.2, "epsg_source": 22391}}, {"type": "Feature", "geometry": {"type": "Point", "coordinates": [10.5417, 35.9022]}, "properties": {"record_id": "oai:u-bordeaux-montaigne.fr:340469", "symbol_class": "building", "pixel_x": 1941.5, "pixel_y": 5646.8, "easting": 557857.9, "northing": 289175.2, "epsg_source": 22391}}, {"type": "Feature", "geometry": {"type": "Point", "coordinates": [10.50966, 35.90159]}, "properties": {"record_id": "oai:u-bordeaux-montaigne.fr:340469", "symbol_class": "building", "pixel_x": 1260.6, "pixel_y": 5721.9, "easting": 554967.2, "northing": 289089.6, "epsg_source": 22391}}]}