{"type": "FeatureCollection", "features": [{"type": "Feature", "properties": {"name": "Libya"}, "geometry": {"type": "Polygon", "coordinates": [[[9.637988281250017, 30.28232421875], [9.807421875000017, 30.342236328124997], [9.89501953125, 30.3873046875], [9.932519531250023, 30.425341796874996], [10.059765625000011, 30.580078125], [10.1259765625, 30.665966796874997], [10.216406250000006, 30.783203125], [10.256054687500011, 30.864941406249997], [10.257031250000011, 30.940820312499994], [10.243359375000011, 31.032128906249994], [10.172656250000017, 31.2509765625], [10.114941406250011, 31.463769531249994], [10.159863281250011, 31.545800781249994], [10.195996093750011, 31.585107421874994], [10.274609375000011, 31.684960937499994], [10.306054687500023, 31.704833984375], [10.475781250000011, 31.736035156249997], [10.543652343750011, 31.802539062499996], [10.595507812500017, 31.8857421875], [10.60888671875, 31.929541015625], [10.683007812500023, 31.975390624999996], [10.771582031250006, 32.02119140625], [10.826367187500011, 32.0806640625], [11.005175781250017, 32.172705078125], [11.168261718750017, 32.256738281249994], [11.358007812500006, 32.34521484375], [11.504980468750006, 32.413671875], [11.535937500000017, 32.47333984375], [11.533789062500006, 32.524951171874996], [11.453906250000017, 32.642578125], [11.453906250000017, 32.781689453125], [11.459179687500011, 32.897363281249994], [11.467187500000023, 32.965722656249994], [11.50244140625, 33.155566406249996], [11.504589843750011, 33.181933593749996], [11.657128906250023, 33.118896484375], [11.8134765625, 33.093701171875], [12.279882812500006, 32.858544921874994], [12.427050781250017, 32.8291015625], [12.753515625000006, 32.801074218749996], [13.0, 32.86278919938737], [13.0, 29.4], [9.734413715791437, 29.4], [9.672656250000017, 29.5669921875], [9.64013671875, 29.636425781249997], [9.546191406250017, 29.795947265624996], [9.391015625000023, 29.99365234375], [9.310253906250011, 30.115234375], [9.420996093750006, 30.179296875], [9.518750000000011, 30.229394531249994], [9.637988281250017, 30.28232421875]]]}}, {"type": "Feature", "properties": {"name": "Italy"}, "geometry": {"type": "MultiPolygon", "coordinates": [[[[12.924121093750017, 37.5705078125], [12.871191406250006, 37.5751953125], [12.75732421875, 37.5673828125], [12.699023437500017, 37.571826171874996], [12.640234375000006, 37.5943359375], [12.526757812500023, 37.66953125], [12.454394531250017, 37.773779296875], [12.435546875, 37.819775390625], [12.48681640625, 37.938720703125], [12.547656250000017, 38.0529296875], [12.601660156250006, 38.0849609375], [12.664355468750017, 38.10791015625], [12.702343750000011, 38.14169921875], [12.734375, 38.183056640625], [12.850683593750006, 38.063720703125], [12.902734375000023, 38.03486328125], [12.955468750000023, 38.041308593749996], [13.0, 38.06166839281053], [13.0, 37.528742532169126], [12.924121093750017, 37.5705078125]]], [[[12.003320312500023, 36.745996093749994], [11.940625000000011, 36.78037109375], [11.936425781250023, 36.82861328125], [11.948046875000017, 36.843066406249996], [12.024218750000017, 36.820947265624994], [12.048046875000011, 36.7763671875], [12.05126953125, 36.75703125], [12.003320312500023, 36.745996093749994]]]]}}, {"type": "Feature", "properties": {"name": "Algeria"}, "geometry": {"type": "Polygon", "coordinates": [[[8.59765625, 36.88388671875], [8.601269531250011, 36.833935546875], [8.506738281250023, 36.787499999999994], [8.444238281250023, 36.7607421875], [8.36962890625, 36.63251953125], [8.230761718750017, 36.545263671875], [8.207617187500006, 36.518945312499994], [8.208789062500017, 36.4951171875], [8.302734375, 36.455615234374996], [8.333984375, 36.4181640625], [8.348730468750006, 36.367968749999996], [8.306738281250006, 36.188769531249996], [8.2802734375, 36.0509765625], [8.245703125000006, 35.870556640625], [8.2470703125, 35.801806640624996], [8.282910156250011, 35.719287109374996], [8.318066406250011, 35.654931640624994], [8.329003906250023, 35.5822265625], [8.31640625, 35.403124999999996], [8.35986328125, 35.299609374999996], [8.394238281250011, 35.203857421875], [8.312109375000006, 35.084619140624994], [8.27685546875, 34.9794921875], [8.254687500000017, 34.828955078125], [8.24560546875, 34.73408203125], [8.192773437500023, 34.646289062499996], [8.123437500000023, 34.563916015625], [8.045605468750011, 34.5126953125], [7.949414062500011, 34.468701171875], [7.838281250000023, 34.410302734374994], [7.74853515625, 34.2544921875], [7.554492187500017, 34.125], [7.513867187500011, 34.080517578125], [7.49560546875, 33.976513671875], [7.500195312500011, 33.832470703125], [7.534375000000011, 33.717919921874994], [7.627539062500006, 33.548632812499996], [7.709179687500011, 33.3623046875], [7.731347656250023, 33.268505859375], [7.7626953125, 33.23310546875], [7.877246093750017, 33.172119140625], [8.075585937500023, 33.0890625], [8.112500000000011, 33.055322265624994], [8.2109375, 32.926708984375], [8.30419921875, 32.6962890625], [8.333398437500023, 32.543603515624994], [8.51513671875, 32.422314453125], [8.682910156250017, 32.310449218749994], [8.844042968750017, 32.212109375], [9.018945312500023, 32.105371093749994], [9.044042968750006, 32.07236328125], [9.102343750000017, 31.846142578124997], [9.160253906250006, 31.621337890625], [9.224023437500023, 31.373681640624994], [9.287890625000017, 31.125341796875], [9.36328125, 30.832910156249994], [9.406054687500017, 30.666796874999996], [9.4580078125, 30.465380859374996], [9.518750000000011, 30.229394531249994], [9.420996093750006, 30.179296875], [9.310253906250011, 30.115234375], [9.391015625000023, 29.99365234375], [9.546191406250017, 29.795947265624996], [9.64013671875, 29.636425781249997], [9.672656250000017, 29.5669921875], [9.734413715791437, 29.4], [6.4, 29.4], [6.4, 37.06409801682692], [6.486523437500011, 37.085742187499996], [6.575878906250011, 37.00302734375], [6.927539062500017, 36.91943359375], [7.143457031250023, 36.943359375], [7.238476562500011, 36.968505859375], [7.204296875000011, 37.0923828125], [7.432421875000017, 37.05927734375], [7.607714843750017, 36.999755859375], [7.791601562500006, 36.880273437499994], [7.910449218750017, 36.856347656249994], [8.127148437500011, 36.9103515625], [8.576562500000023, 36.93720703125], [8.59765625, 36.88388671875]]]}}]}