{"type": "FeatureCollection", "features": [{"type": "Feature", "geometry": {"type": "Point", "coordinates": [10.82198, 36.07747]}, "properties": {"record_id": "oai:u-bordeaux-montaigne.fr:340468", "symbol_class": "building", "pixel_x": 7445.5, "pixel_y": 721.8, "easting": 582965.6, "northing": 308818.0, "epsg_source": 22391}}, {"type": "Feature", "geometry": {"type": "Point", "coordinates": [10.81211, 36.07792]}, "properties": {"record_id": "oai:u-bordeaux-montaigne.fr:340468", "symbol_class": "building", "pixel_x": 7235.4, "pixel_y": 727.5, "easting": 582076.5, "northing": 308859.9, "epsg_source": 22391}}, {"type": "Feature", "geometry": {"type": "Point", "coordinates": [10.84591, 36.07565]}, "properties": {"record_id": "oai:u-bordeaux-montaigne.fr:340468", "symbol_class": "building", "pixel_x": 7956.8, "pixel_y": 727.0, "easting": 585122.6, "northing": 308636.9, "epsg_source": 22391}}, {"type": "Feature", "geometry": {"type": "Point", "coordinates": [10.85506, 36.075]}, "properties": {"record_id": "oai:u-bordeaux-montaigne.fr:340468", "symbol_class": "building", "pixel_x": 8152.1, "pixel_y": 727.9, "easting": 585946.9, "northing": 308572.2, "epsg_source": 22391}}, {"type": "Feature", "geometry": {"type": "Point", "coordinates": [10.85667, 36.07452]}, "properties": {"record_id": "oai:u-bordeaux-montaigne.fr:340468", "symbol_class": "building", "pixel_x": 8187.2, "pixel_y": 737.7, "easting": 586092.3, "northing": 308520.4, "epsg_source": 22391}}, {"type": "Feature", "geometry": {"type": "Point", "coordinates": [10.83445, 36.07598]}, "properties": {"record_id": "oai:u-bordeaux-montaigne.fr:340468", "symbol_class": "building", "pixel_x": 7713.1, "pixel_y": 738.7, "easting": 584090.0, "northing": 308663.9, "epsg_source": 22391}}, {"type": "Feature", "geometry": {"type": "Point", "coordinates": [10.8336, 36.07108]}, "properties": {"record_id": "oai:u-bordeaux-montaigne.fr:340468", "symbol_class": "building", "pixel_x": 7705.9, "pixel_y": 869.0, "easting": 584018.7, "northing": 308119.4, "epsg_source": 22391}}, {"type": "Feature", "geometry": {"type": "Point", "coordinates": [10.83359, 36.07045]}, "properties": {"record_id": "oai:u-bordeaux-montaigne.fr:340468", "symbol_class": "building", "pixel_x": 7707.2, "pixel_y": 885.6, "easting": 584019.1, "northing": 308049.6, "epsg_source": 22391}}, {"type": "Feature", "geometry": {"type": "Point", "coordinates": [10.8336, 36.06952]}, "properties": {"record_id": "oai:u-bordeaux-montaigne.fr:340468", "symbol_class": "building", "pixel_x": 7709.4, "pixel_y": 910.1, "easting": 584020.7, "northing": 307946.1, "epsg_source": 22391}}, {"type": "Feature", "geometry": {"type": "Point", "coordinates": [10.51665, 36.0717]}, "properties": {"record_id": "oai:u-bordeaux-montaigne.fr:340468", "symbol_class": "building", "pixel_x": 986.1, "pixel_y": 1406.3, "easting": 555477.9, "northing": 307960.6, "epsg_source": 22391}}, {"type": "Feature", "geometry": {"type": "Point", "coordinates": [10.51702, 36.07169]}, "properties": {"record_id": "oai:u-bordeaux-montaigne.fr:340468", "symbol_class": "building", "pixel_x": 994.0, "pixel_y": 1405.8, "easting": 555511.3, "northing": 307959.9, "epsg_source": 22391}}, {"type": "Feature", "geometry": {"type": "Point", "coordinates": [10.50751, 36.07155]}, "properties": {"record_id": "oai:u-bordeaux-montaigne.fr:340468", "symbol_class": "building", "pixel_x": 792.8, "pixel_y": 1425.8, "easting": 554655.4, "northing": 307938.8, "epsg_source": 22391}}, {"type": "Feature", "geometry": {"type": "Point", "coordinates": [10.52024, 36.0666]}, "properties": {"record_id": "oai:u-bordeaux-montaigne.fr:340468", "symbol_class": "building", "pixel_x": 1073.1, "pixel_y": 1534.2, "easting": 555804.9, "northing": 307396.9, "epsg_source": 22391}}, {"type": "Feature", "geometry": {"type": "Point", "coordinates": [10.51086, 36.06271]}, "properties": {"record_id": "oai:u-bordeaux-montaigne.fr:340468", "symbol_class": "building", "pixel_x": 882.4, "pixel_y": 1652.3, "easting": 554962.7, "northing": 306960.8, "epsg_source": 22391}}, {"type": "Feature", "geometry": {"type": "Point", "coordinates": [10.51018, 36.06272]}, "properties": {"record_id": "oai:u-bordeaux-montaigne.fr:340468", "symbol_class": "building", "pixel_x": 868.1, "pixel_y": 1653.3, "easting": 554902.2, "northing": 306961.0, "epsg_source": 22391}}, {"type": "Feature", "geometry": {"type": "Point", "coordinates": [10.50644, 36.06256]}, "properties": {"record_id": "oai:u-bordeaux-montaigne.fr:340468", "symbol_class": "building", "pixel_x": 789.2, "pixel_y": 1663.9, "easting": 554565.4, "northing": 306941.4, "epsg_source": 22391}}, {"type": "Feature", "geometry": {"type": "Point", "coordinates": [10.56739, 36.05357]}, "properties": {"record_id": "oai:u-bordeaux-montaigne.fr:340468", "symbol_class": "building", "pixel_x": 2100.4, "pixel_y": 1795.6, "easting": 560060.5, "northing": 305980.2, "epsg_source": 22391}}, {"type": "Feature", "geometry": {"type": "Point", "coordinates": [10.55937, 36.05359]}, "properties": {"record_id": "oai:u-bordeaux-montaigne.fr:340468", "symbol_class": "building", "pixel_x": 1930.5, "pixel_y": 1808.8, "easting": 559338.9, "northing": 305977.4, "epsg_source": 22391}}, {"type": "Feature", "geometry": {"type": "Point", "coordinates": [10.55527, 36.05362]}, "properties": {"record_id": "oai:u-bordeaux-montaigne.fr:340468", "symbol_class": "building", "pixel_x": 1843.5, "pixel_y": 1815.0, "easting": 558969.7, "northing": 305978.7, "epsg_source": 22391}}, {"type": "Feature", "geometry": {"type": "Point", "coordinates": [10.54496, 36.05365]}, "properties": {"record_id": "oai:u-bordeaux-montaigne.fr:340468", "symbol_class": "building", "pixel_x": 1624.7, "pixel_y": 1832.0, "easting": 558040.4, "northing": 305975.7, "epsg_source": 22391}}, {"type": "Feature", "geometry": {"type": "Point", "coordinates": [10.50816, 36.05373]}, "properties": {"record_id": "oai:u-bordeaux-montaigne.fr:340468", "symbol_class": "building", "pixel_x": 844.3, "pixel_y": 1893.0, "easting": 554726.4, "northing": 305963.0, "epsg_source": 22391}}, {"type": "Feature", "geometry": {"type": "Point", "coordinates": [10.50844, 36.04474]}, "properties": {"record_id": "oai:u-bordeaux-montaigne.fr:340468", "symbol_class": "building", "pixel_x": 869.2, "pixel_y": 2128.8, "easting": 554757.3, "northing": 304965.9, "epsg_source": 22391}}, {"type": "Feature", "geometry": {"type": "Point", "coordinates": [10.50711, 36.04475]}, "properties": {"record_id": "oai:u-bordeaux-montaigne.fr:340468", "symbol_class": "building", "pixel_x": 841.0, "pixel_y": 2130.9, "easting": 554637.8, "northing": 304966.0, "epsg_source": 22391}}, {"type": "Feature", "geometry": {"type": "Point", "coordinates": [10.50536, 36.0445]}, "properties": {"record_id": "oai:u-bordeaux-montaigne.fr:340468", "symbol_class": "building", "pixel_x": 804.3, "pixel_y": 2140.3, "easting": 554479.8, "northing": 304937.8, "epsg_source": 22391}}, {"type": "Feature", "geometry": {"type": "Point", "coordinates": [10.50439, 36.04454]}, "properties": {"record_id": "oai:u-bordeaux-montaigne.fr:340468", "symbol_class": "building", "pixel_x": 783.7, "pixel_y": 2141.1, "easting": 554392.7, "northing": 304941.3, "epsg_source": 22391}}, {"type": "Feature", "geometry": {"type": "Point", "coordinates": [10.50349, 36.04453]}, "properties": {"record_id": "oai:u-bordeaux-montaigne.fr:340468", "symbol_class": "building", "pixel_x": 764.6, "pixel_y": 2142.8, "easting": 554311.6, "northing": 304939.8, "epsg_source": 22391}}, {"type": "Feature", "geometry": {"type": "Point", "coordinates": [10.77436, 36.0245]}, "properties": {"record_id": "oai:u-bordeaux-montaigne.fr:340468", "symbol_class": "building", "pixel_x": 6552.2, "pixel_y": 2198.1, "easting": 578730.6, "northing": 302903.7, "epsg_source": 22391}}, {"type": "Feature", "geometry": {"type": "Point", "coordinates": [10.51145, 36.03579]}, "properties": {"record_id": "oai:u-bordeaux-montaigne.fr:340468", "symbol_class": "building", "pixel_x": 952.0, "pixel_y": 2358.9, "easting": 555034.9, "northing": 303974.8, "epsg_source": 22391}}, {"type": "Feature", "geometry": {"type": "Point", "coordinates": [10.50634, 36.03584]}, "properties": {"record_id": "oai:u-bordeaux-montaigne.fr:340468", "symbol_class": "building", "pixel_x": 843.6, "pixel_y": 2366.2, "easting": 554574.7, "northing": 303978.1, "epsg_source": 22391}}, {"type": "Feature", "geometry": {"type": "Point", "coordinates": [10.50459, 36.03572]}, "properties": {"record_id": "oai:u-bordeaux-montaigne.fr:340468", "symbol_class": "building", "pixel_x": 806.7, "pixel_y": 2372.6, "easting": 554417.0, "northing": 303963.0, "epsg_source": 22391}}, {"type": "Feature", "geometry": {"type": "Point", "coordinates": [10.50348, 36.03569]}, "properties": {"record_id": "oai:u-bordeaux-montaigne.fr:340468", "symbol_class": "building", "pixel_x": 783.2, "pixel_y": 2375.2, "easting": 554317.2, "northing": 303959.3, "epsg_source": 22391}}, {"type": "Feature", "geometry": {"type": "Point", "coordinates": [10.51393, 36.03243]}, "properties": {"record_id": "oai:u-bordeaux-montaigne.fr:340468", "symbol_class": "building", "pixel_x": 1011.7, "pixel_y": 2442.9, "easting": 555260.7, "northing": 303604.1, "epsg_source": 22391}}, {"type": "Feature", "geometry": {"type": "Point", "coordinates": [10.52113, 36.02685]}, "properties": {"record_id": "oai:u-bordeaux-montaigne.fr:340468", "symbol_class": "building", "pixel_x": 1176.2, "pixel_y": 2577.4, "easting": 555912.9, "northing": 302988.6, "epsg_source": 22391}}, {"type": "Feature", "geometry": {"type": "Point", "coordinates": [10.51155, 36.02685]}, "properties": {"record_id": "oai:u-bordeaux-montaigne.fr:340468", "symbol_class": "building", "pixel_x": 973.1, "pixel_y": 2593.6, "easting": 555050.5, "northing": 302983.8, "epsg_source": 22391}}, {"type": "Feature", "geometry": {"type": "Point", "coordinates": [10.50529, 36.02687]}, "properties": {"record_id": "oai:u-bordeaux-montaigne.fr:340468", "symbol_class": "building", "pixel_x": 840.1, "pixel_y": 2604.0, "easting": 554485.8, "northing": 302981.8, "epsg_source": 22391}}, {"type": "Feature", "geometry": {"type": "Point", "coordinates": [10.79809, 36.00205]}, "properties": {"record_id": "oai:u-bordeaux-montaigne.fr:340468", "symbol_class": "building", "pixel_x": 7104.9, "pixel_y": 2746.2, "easting": 580892.3, "northing": 300432.4, "epsg_source": 22391}}, {"type": "Feature", "geometry": {"type": "Point", "coordinates": [10.55656, 36.01764]}, "properties": {"record_id": "oai:u-bordeaux-montaigne.fr:340468", "symbol_class": "building", "pixel_x": 1947.5, "pixel_y": 2758.5, "easting": 559112.7, "northing": 301988.4, "epsg_source": 22391}}, {"type": "Feature", "geometry": {"type": "Point", "coordinates": [10.51282, 36.01779]}, "properties": {"record_id": "oai:u-bordeaux-montaigne.fr:340468", "symbol_class": "building", "pixel_x": 1019.3, "pixel_y": 2829.7, "easting": 555171.3, "northing": 301979.1, "epsg_source": 22391}}, {"type": "Feature", "geometry": {"type": "Point", "coordinates": [10.50435, 36.0178]}, "properties": {"record_id": "oai:u-bordeaux-montaigne.fr:340468", "symbol_class": "building", "pixel_x": 839.5, "pixel_y": 2844.0, "easting": 554407.7, "northing": 301975.1, "epsg_source": 22391}}, {"type": "Feature", "geometry": {"type": "Point", "coordinates": [10.50271, 36.01745]}, "properties": {"record_id": "oai:u-bordeaux-montaigne.fr:340468", "symbol_class": "building", "pixel_x": 805.5, "pixel_y": 2855.8, "easting": 554260.3, "northing": 301936.3, "epsg_source": 22391}}, {"type": "Feature", "geometry": {"type": "Point", "coordinates": [10.58121, 36.00857]}, "properties": {"record_id": "oai:u-bordeaux-montaigne.fr:340468", "symbol_class": "building", "pixel_x": 2489.6, "pixel_y": 2954.3, "easting": 561340.4, "northing": 300998.0, "epsg_source": 22391}}, {"type": "Feature", "geometry": {"type": "Point", "coordinates": [10.57679, 36.00859]}, "properties": {"record_id": "oai:u-bordeaux-montaigne.fr:340468", "symbol_class": "building", "pixel_x": 2396.0, "pixel_y": 2961.4, "easting": 560942.6, "northing": 300997.5, "epsg_source": 22391}}, {"type": "Feature", "geometry": {"type": "Point", "coordinates": [10.51298, 36.01208]}, "properties": {"record_id": "oai:u-bordeaux-montaigne.fr:340468", "symbol_class": "building", "pixel_x": 1034.7, "pixel_y": 2979.4, "easting": 555189.6, "northing": 301346.3, "epsg_source": 22391}}, {"type": "Feature", "geometry": {"type": "Point", "coordinates": [10.51246, 36.01161]}, "properties": {"record_id": "oai:u-bordeaux-montaigne.fr:340468", "symbol_class": "building", "pixel_x": 1024.7, "pixel_y": 2992.7, "easting": 555143.1, "northing": 301293.5, "epsg_source": 22391}}, {"type": "Feature", "geometry": {"type": "Point", "coordinates": [10.52243, 36.00874]}, "properties": {"record_id": "oai:u-bordeaux-montaigne.fr:340468", "symbol_class": "building", "pixel_x": 1242.3, "pixel_y": 3051.0, "easting": 556043.7, "northing": 300981.3, "epsg_source": 22391}}, {"type": "Feature", "geometry": {"type": "Point", "coordinates": [10.51129, 36.00876]}, "properties": {"record_id": "oai:u-bordeaux-montaigne.fr:340468", "symbol_class": "building", "pixel_x": 1005.8, "pixel_y": 3069.6, "easting": 555038.9, "northing": 300977.1, "epsg_source": 22391}}, {"type": "Feature", "geometry": {"type": "Point", "coordinates": [10.5104, 36.00876]}, "properties": {"record_id": "oai:u-bordeaux-montaigne.fr:340468", "symbol_class": "building", "pixel_x": 987.0, "pixel_y": 3071.2, "easting": 554959.4, "northing": 300976.2, "epsg_source": 22391}}, {"type": "Feature", "geometry": {"type": "Point", "coordinates": [10.50345, 36.00876]}, "properties": {"record_id": "oai:u-bordeaux-montaigne.fr:340468", "symbol_class": "building", "pixel_x": 839.5, "pixel_y": 3083.0, "easting": 554332.5, "northing": 300972.5, "epsg_source": 22391}}, {"type": "Feature", "geometry": {"type": "Point", "coordinates": [10.51012, 35.9998]}, "properties": {"record_id": "oai:u-bordeaux-montaigne.fr:340468", "symbol_class": "building", "pixel_x": 1000.0, "pixel_y": 3307.0, "easting": 554940.1, "northing": 299982.8, "epsg_source": 22391}}, {"type": "Feature", "geometry": {"type": "Point", "coordinates": [10.50254, 35.99989]}, "properties": {"record_id": "oai:u-bordeaux-montaigne.fr:340468", "symbol_class": "building", "pixel_x": 839.0, "pixel_y": 3317.8, "easting": 554256.9, "northing": 299987.6, "epsg_source": 22391}}, {"type": "Feature", "geometry": {"type": "Point", "coordinates": [10.53343, 35.99054]}, "properties": {"record_id": "oai:u-bordeaux-montaigne.fr:340468", "symbol_class": "building", "pixel_x": 1514.2, "pixel_y": 3510.6, "easting": 557047.4, "northing": 298968.3, "epsg_source": 22391}}, {"type": "Feature", "geometry": {"type": "Point", "coordinates": [10.52965, 35.99056]}, "properties": {"record_id": "oai:u-bordeaux-montaigne.fr:340468", "symbol_class": "building", "pixel_x": 1434.1, "pixel_y": 3516.5, "easting": 556707.4, "northing": 298968.5, "epsg_source": 22391}}, {"type": "Feature", "geometry": {"type": "Point", "coordinates": [10.56376, 35.98145]}, "properties": {"record_id": "oai:u-bordeaux-montaigne.fr:340468", "symbol_class": "building", "pixel_x": 2177.3, "pixel_y": 3697.2, "easting": 559788.6, "northing": 297979.1, "epsg_source": 22391}}, {"type": "Feature", "geometry": {"type": "Point", "coordinates": [10.53011, 35.98249]}, "properties": {"record_id": "oai:u-bordeaux-montaigne.fr:340468", "symbol_class": "building", "pixel_x": 1460.9, "pixel_y": 3727.7, "easting": 556754.1, "northing": 298074.3, "epsg_source": 22391}}, {"type": "Feature", "geometry": {"type": "Point", "coordinates": [10.51515, 35.9817]}, "properties": {"record_id": "oai:u-bordeaux-montaigne.fr:340468", "symbol_class": "building", "pixel_x": 1145.0, "pixel_y": 3774.4, "easting": 555405.7, "northing": 297977.1, "epsg_source": 22391}}, {"type": "Feature", "geometry": {"type": "Point", "coordinates": [10.53041, 35.97902]}, "properties": {"record_id": "oai:u-bordeaux-montaigne.fr:340468", "symbol_class": "building", "pixel_x": 1474.7, "pixel_y": 3818.4, "easting": 556784.0, "northing": 297689.6, "epsg_source": 22391}}, {"type": "Feature", "geometry": {"type": "Point", "coordinates": [10.53198, 35.97463]}, "properties": {"record_id": "oai:u-bordeaux-montaigne.fr:340468", "symbol_class": "building", "pixel_x": 1517.4, "pixel_y": 3931.3, "easting": 556928.7, "northing": 297202.7, "epsg_source": 22391}}, {"type": "Feature", "geometry": {"type": "Point", "coordinates": [10.5155, 35.97261]}, "properties": {"record_id": "oai:u-bordeaux-montaigne.fr:340468", "symbol_class": "building", "pixel_x": 1171.8, "pixel_y": 4012.6, "easting": 555444.1, "northing": 296969.4, "epsg_source": 22391}}, {"type": "Feature", "geometry": {"type": "Point", "coordinates": [10.51207, 35.97261]}, "properties": {"record_id": "oai:u-bordeaux-montaigne.fr:340468", "symbol_class": "building", "pixel_x": 1099.0, "pixel_y": 4018.3, "easting": 555134.9, "northing": 296968.0, "epsg_source": 22391}}, {"type": "Feature", "geometry": {"type": "Point", "coordinates": [10.86366, 35.94377]}, "properties": {"record_id": "oai:u-bordeaux-montaigne.fr:340468", "symbol_class": "building", "pixel_x": 8624.8, "pixel_y": 4160.7, "easting": 586865.6, "northing": 294024.8, "epsg_source": 22391}}, {"type": "Feature", "geometry": {"type": "Point", "coordinates": [10.54418, 35.96347]}, "properties": {"record_id": "oai:u-bordeaux-montaigne.fr:340468", "symbol_class": "building", "pixel_x": 1800.0, "pixel_y": 4203.5, "easting": 558036.7, "northing": 295972.9, "epsg_source": 22391}}, {"type": "Feature", "geometry": {"type": "Point", "coordinates": [10.54286, 35.96349]}, "properties": {"record_id": "oai:u-bordeaux-montaigne.fr:340468", "symbol_class": "building", "pixel_x": 1772.0, "pixel_y": 4205.4, "easting": 557917.9, "northing": 295973.6, "epsg_source": 22391}}, {"type": "Feature", "geometry": {"type": "Point", "coordinates": [10.53338, 35.96352]}, "properties": {"record_id": "oai:u-bordeaux-montaigne.fr:340468", "symbol_class": "building", "pixel_x": 1570.7, "pixel_y": 4220.9, "easting": 557062.8, "northing": 295971.4, "epsg_source": 22391}}, {"type": "Feature", "geometry": {"type": "Point", "coordinates": [10.53177, 35.96354]}, "properties": {"record_id": "oai:u-bordeaux-montaigne.fr:340468", "symbol_class": "building", "pixel_x": 1536.4, "pixel_y": 4223.1, "easting": 556917.6, "northing": 295972.5, "epsg_source": 22391}}, {"type": "Feature", "geometry": {"type": "Point", "coordinates": [10.52033, 35.9636]}, "properties": {"record_id": "oai:u-bordeaux-montaigne.fr:340468", "symbol_class": "building", "pixel_x": 1293.4, "pixel_y": 4241.0, "easting": 555885.8, "northing": 295973.5, "epsg_source": 22391}}, {"type": "Feature", "geometry": {"type": "Point", "coordinates": [10.52109, 35.96356]}, "properties": {"record_id": "oai:u-bordeaux-montaigne.fr:340468", "symbol_class": "building", "pixel_x": 1309.5, "pixel_y": 4240.8, "easting": 555954.0, "northing": 295969.2, "epsg_source": 22391}}, {"type": "Feature", "geometry": {"type": "Point", "coordinates": [10.53546, 35.96129]}, "properties": {"record_id": "oai:u-bordeaux-montaigne.fr:340468", "symbol_class": "building", "pixel_x": 1619.5, "pixel_y": 4275.8, "easting": 557252.0, "northing": 295725.6, "epsg_source": 22391}}, {"type": "Feature", "geometry": {"type": "Point", "coordinates": [10.53476, 35.96105]}, "properties": {"record_id": "oai:u-bordeaux-montaigne.fr:340468", "symbol_class": "building", "pixel_x": 1605.1, "pixel_y": 4283.2, "easting": 557188.4, "northing": 295699.0, "epsg_source": 22391}}, {"type": "Feature", "geometry": {"type": "Point", "coordinates": [10.54316, 35.95446]}, "properties": {"record_id": "oai:u-bordeaux-montaigne.fr:340468", "symbol_class": "building", "pixel_x": 1797.4, "pixel_y": 4442.2, "easting": 557950.8, "northing": 294972.2, "epsg_source": 22391}}, {"type": "Feature", "geometry": {"type": "Point", "coordinates": [10.54014, 35.95446]}, "properties": {"record_id": "oai:u-bordeaux-montaigne.fr:340468", "symbol_class": "building", "pixel_x": 1733.3, "pixel_y": 4447.3, "easting": 557678.5, "northing": 294970.8, "epsg_source": 22391}}, {"type": "Feature", "geometry": {"type": "Point", "coordinates": [10.52943, 35.95449]}, "properties": {"record_id": "oai:u-bordeaux-montaigne.fr:340468", "symbol_class": "building", "pixel_x": 1506.0, "pixel_y": 4465.0, "easting": 556713.1, "northing": 294967.5, "epsg_source": 22391}}, {"type": "Feature", "geometry": {"type": "Point", "coordinates": [10.52292, 35.95452]}, "properties": {"record_id": "oai:u-bordeaux-montaigne.fr:340468", "symbol_class": "building", "pixel_x": 1367.6, "pixel_y": 4475.2, "easting": 556125.8, "northing": 294967.5, "epsg_source": 22391}}, {"type": "Feature", "geometry": {"type": "Point", "coordinates": [10.52572, 35.95435]}, "properties": {"record_id": "oai:u-bordeaux-montaigne.fr:340468", "symbol_class": "building", "pixel_x": 1427.5, "pixel_y": 4475.0, "easting": 556378.6, "northing": 294949.9, "epsg_source": 22391}}, {"type": "Feature", "geometry": {"type": "Point", "coordinates": [10.52071, 35.95454]}, "properties": {"record_id": "oai:u-bordeaux-montaigne.fr:340468", "symbol_class": "building", "pixel_x": 1320.7, "pixel_y": 4478.5, "easting": 555926.7, "northing": 294968.4, "epsg_source": 22391}}, {"type": "Feature", "geometry": {"type": "Point", "coordinates": [10.52563, 35.95407]}, "properties": {"record_id": "oai:u-bordeaux-montaigne.fr:340468", "symbol_class": "building", "pixel_x": 1426.2, "pixel_y": 4482.5, "easting": 556370.6, "northing": 294918.8, "epsg_source": 22391}}, {"type": "Feature", "geometry": {"type": "Point", "coordinates": [10.5097, 35.95039]}, "properties": {"record_id": "oai:u-bordeaux-montaigne.fr:340468", "symbol_class": "building", "pixel_x": 1095.7, "pixel_y": 4606.4, "easting": 554936.4, "northing": 294502.2, "epsg_source": 22391}}, {"type": "Feature", "geometry": {"type": "Point", "coordinates": [10.51679, 35.94879]}, "properties": {"record_id": "oai:u-bordeaux-montaigne.fr:340468", "symbol_class": "building", "pixel_x": 1249.7, "pixel_y": 4636.4, "easting": 555577.3, "northing": 294328.3, "epsg_source": 22391}}, {"type": "Feature", "geometry": {"type": "Point", "coordinates": [10.54139, 35.94678]}, "properties": {"record_id": "oai:u-bordeaux-montaigne.fr:340468", "symbol_class": "building", "pixel_x": 1776.3, "pixel_y": 4647.1, "easting": 557797.2, "northing": 294119.4, "epsg_source": 22391}}, {"type": "Feature", "geometry": {"type": "Point", "coordinates": [10.51436, 35.9482]}, "properties": {"record_id": "oai:u-bordeaux-montaigne.fr:340468", "symbol_class": "building", "pixel_x": 1199.2, "pixel_y": 4656.0, "easting": 555357.9, "northing": 294262.0, "epsg_source": 22391}}, {"type": "Feature", "geometry": {"type": "Point", "coordinates": [10.54688, 35.94538]}, "properties": {"record_id": "oai:u-bordeaux-montaigne.fr:340468", "symbol_class": "building", "pixel_x": 1895.8, "pixel_y": 4674.4, "easting": 558293.4, "northing": 293967.7, "epsg_source": 22391}}, {"type": "Feature", "geometry": {"type": "Point", "coordinates": [10.8296, 35.92587]}, "properties": {"record_id": "oai:u-bordeaux-montaigne.fr:340468", "symbol_class": "building", "pixel_x": 7941.0, "pixel_y": 4691.7, "easting": 583812.0, "northing": 292010.4, "epsg_source": 22391}}, {"type": "Feature", "geometry": {"type": "Point", "coordinates": [10.53407, 35.94545]}, "properties": {"record_id": "oai:u-bordeaux-montaigne.fr:340468", "symbol_class": "building", "pixel_x": 1623.6, "pixel_y": 4694.5, "easting": 557137.9, "northing": 293967.9, "epsg_source": 22391}}, {"type": "Feature", "geometry": {"type": "Point", "coordinates": [10.53297, 35.94545]}, "properties": {"record_id": "oai:u-bordeaux-montaigne.fr:340468", "symbol_class": "building", "pixel_x": 1600.4, "pixel_y": 4696.4, "easting": 557039.0, "northing": 293967.2, "epsg_source": 22391}}, {"type": "Feature", "geometry": {"type": "Point", "coordinates": [10.52791, 35.94547]}, "properties": {"record_id": "oai:u-bordeaux-montaigne.fr:340468", "symbol_class": "building", "pixel_x": 1492.8, "pixel_y": 4704.5, "easting": 556582.2, "northing": 293967.0, "epsg_source": 22391}}, {"type": "Feature", "geometry": {"type": "Point", "coordinates": [10.52036, 35.94551]}, "properties": {"record_id": "oai:u-bordeaux-montaigne.fr:340468", "symbol_class": "building", "pixel_x": 1332.3, "pixel_y": 4716.4, "easting": 555901.0, "northing": 293967.0, "epsg_source": 22391}}, {"type": "Feature", "geometry": {"type": "Point", "coordinates": [10.50867, 35.94558]}, "properties": {"record_id": "oai:u-bordeaux-montaigne.fr:340468", "symbol_class": "building", "pixel_x": 1084.0, "pixel_y": 4734.6, "easting": 554846.8, "northing": 293968.0, "epsg_source": 22391}}, {"type": "Feature", "geometry": {"type": "Point", "coordinates": [10.55666, 35.94036]}, "properties": {"record_id": "oai:u-bordeaux-montaigne.fr:340468", "symbol_class": "building", "pixel_x": 2114.1, "pixel_y": 4789.4, "easting": 559178.8, "northing": 293417.2, "epsg_source": 22391}}, {"type": "Feature", "geometry": {"type": "Point", "coordinates": [10.56406, 35.93939]}, "properties": {"record_id": "oai:u-bordeaux-montaigne.fr:340468", "symbol_class": "building", "pixel_x": 2273.4, "pixel_y": 4802.1, "easting": 559847.4, "northing": 293314.2, "epsg_source": 22391}}, {"type": "Feature", "geometry": {"type": "Point", "coordinates": [10.54645, 35.93839]}, "properties": {"record_id": "oai:u-bordeaux-montaigne.fr:340468", "symbol_class": "building", "pixel_x": 1901.6, "pixel_y": 4858.7, "easting": 558260.1, "northing": 293192.6, "epsg_source": 22391}}, {"type": "Feature", "geometry": {"type": "Point", "coordinates": [10.55421, 35.93641]}, "properties": {"record_id": "oai:u-bordeaux-montaigne.fr:340468", "symbol_class": "building", "pixel_x": 2070.4, "pixel_y": 4897.4, "easting": 558960.7, "northing": 292977.4, "epsg_source": 22391}}, {"type": "Feature", "geometry": {"type": "Point", "coordinates": [10.54433, 35.93646]}, "properties": {"record_id": "oai:u-bordeaux-montaigne.fr:340468", "symbol_class": "building", "pixel_x": 1860.7, "pixel_y": 4913.3, "easting": 558070.0, "northing": 292976.3, "epsg_source": 22391}}, {"type": "Feature", "geometry": {"type": "Point", "coordinates": [10.54089, 35.93645]}, "properties": {"record_id": "oai:u-bordeaux-montaigne.fr:340468", "symbol_class": "building", "pixel_x": 1787.5, "pixel_y": 4919.4, "easting": 557759.3, "northing": 292973.3, "epsg_source": 22391}}, {"type": "Feature", "geometry": {"type": "Point", "coordinates": [10.5368, 35.93648]}, "properties": {"record_id": "oai:u-bordeaux-montaigne.fr:340468", "symbol_class": "building", "pixel_x": 1700.7, "pixel_y": 4925.7, "easting": 557390.7, "northing": 292974.3, "epsg_source": 22391}}, {"type": "Feature", "geometry": {"type": "Point", "coordinates": [10.53184, 35.93647]}, "properties": {"record_id": "oai:u-bordeaux-montaigne.fr:340468", "symbol_class": "building", "pixel_x": 1595.3, "pixel_y": 4934.5, "easting": 556943.0, "northing": 292970.3, "epsg_source": 22391}}, {"type": "Feature", "geometry": {"type": "Point", "coordinates": [10.53075, 35.93648]}, "properties": {"record_id": "oai:u-bordeaux-montaigne.fr:340468", "symbol_class": "building", "pixel_x": 1572.1, "pixel_y": 4936.1, "easting": 556844.6, "northing": 292970.5, "epsg_source": 22391}}, {"type": "Feature", "geometry": {"type": "Point", "coordinates": [10.52964, 35.93648]}, "properties": {"record_id": "oai:u-bordeaux-montaigne.fr:340468", "symbol_class": "building", "pixel_x": 1548.6, "pixel_y": 4937.8, "easting": 556744.7, "northing": 292970.7, "epsg_source": 22391}}, {"type": "Feature", "geometry": {"type": "Point", "coordinates": [10.52708, 35.93649]}, "properties": {"record_id": "oai:u-bordeaux-montaigne.fr:340468", "symbol_class": "building", "pixel_x": 1494.3, "pixel_y": 4941.9, "easting": 556514.3, "northing": 292970.3, "epsg_source": 22391}}, {"type": "Feature", "geometry": {"type": "Point", "coordinates": [10.52572, 35.93648]}, "properties": {"record_id": "oai:u-bordeaux-montaigne.fr:340468", "symbol_class": "building", "pixel_x": 1465.5, "pixel_y": 4944.6, "easting": 556391.5, "northing": 292968.4, "epsg_source": 22391}}, {"type": "Feature", "geometry": {"type": "Point", "coordinates": [10.52093, 35.93653]}, "properties": {"record_id": "oai:u-bordeaux-montaigne.fr:340468", "symbol_class": "building", "pixel_x": 1363.6, "pixel_y": 4951.6, "easting": 555959.4, "northing": 292970.6, "epsg_source": 22391}}, {"type": "Feature", "geometry": {"type": "Point", "coordinates": [10.51979, 35.93654]}, "properties": {"record_id": "oai:u-bordeaux-montaigne.fr:340468", "symbol_class": "building", "pixel_x": 1339.3, "pixel_y": 4953.2, "easting": 555856.4, "northing": 292971.4, "epsg_source": 22391}}, {"type": "Feature", "geometry": {"type": "Point", "coordinates": [10.55117, 35.93424]}, "properties": {"record_id": "oai:u-bordeaux-montaigne.fr:340468", "symbol_class": "building", "pixel_x": 2010.6, "pixel_y": 4959.8, "easting": 558688.3, "northing": 292734.4, "epsg_source": 22391}}, {"type": "Feature", "geometry": {"type": "Point", "coordinates": [10.50966, 35.93657]}, "properties": {"record_id": "oai:u-bordeaux-montaigne.fr:340468", "symbol_class": "building", "pixel_x": 1124.1, "pixel_y": 4969.8, "easting": 554942.5, "northing": 292969.0, "epsg_source": 22391}}, {"type": "Feature", "geometry": {"type": "Point", "coordinates": [10.55428, 35.93138]}, "properties": {"record_id": "oai:u-bordeaux-montaigne.fr:340468", "symbol_class": "building", "pixel_x": 2082.8, "pixel_y": 5029.4, "easting": 558971.5, "northing": 292419.8, "epsg_source": 22391}}, {"type": "Feature", "geometry": {"type": "Point", "coordinates": [10.56298, 35.93088]}, "properties": {"record_id": "oai:u-bordeaux-montaigne.fr:340468", "symbol_class": "building", "pixel_x": 2268.6, "pixel_y": 5027.7, "easting": 559756.3, "northing": 292369.3, "epsg_source": 22391}}, {"type": "Feature", "geometry": {"type": "Point", "coordinates": [10.60013, 35.92688]}, "properties": {"record_id": "oai:u-bordeaux-montaigne.fr:340468", "symbol_class": "building", "pixel_x": 3066.0, "pixel_y": 5068.5, "easting": 563110.5, "northing": 291949.5, "epsg_source": 22391}}, {"type": "Feature", "geometry": {"type": "Point", "coordinates": [10.55883, 35.9287]}, "properties": {"record_id": "oai:u-bordeaux-montaigne.fr:340468", "symbol_class": "building", "pixel_x": 2185.0, "pixel_y": 5092.1, "easting": 559383.2, "northing": 292125.3, "epsg_source": 22391}}, {"type": "Feature", "geometry": {"type": "Point", "coordinates": [10.56893, 35.92781]}, "properties": {"record_id": "oai:u-bordeaux-montaigne.fr:340468", "symbol_class": "building", "pixel_x": 2401.5, "pixel_y": 5098.2, "easting": 560295.4, "northing": 292032.3, "epsg_source": 22391}}, {"type": "Feature", "geometry": {"type": "Point", "coordinates": [10.52015, 35.93046]}, "properties": {"record_id": "oai:u-bordeaux-montaigne.fr:340468", "symbol_class": "building", "pixel_x": 1359.9, "pixel_y": 5112.3, "easting": 555893.3, "northing": 292297.6, "epsg_source": 22391}}, {"type": "Feature", "geometry": {"type": "Point", "coordinates": [10.86272, 35.90765]}, "properties": {"record_id": "oai:u-bordeaux-montaigne.fr:340468", "symbol_class": "building", "pixel_x": 8684.5, "pixel_y": 5111.4, "easting": 586819.7, "northing": 290018.2, "epsg_source": 22391}}, {"type": "Feature", "geometry": {"type": "Point", "coordinates": [10.56147, 35.92566]}, "properties": {"record_id": "oai:u-bordeaux-montaigne.fr:340468", "symbol_class": "building", "pixel_x": 2247.5, "pixel_y": 5167.5, "easting": 559623.6, "northing": 291789.5, "epsg_source": 22391}}, {"type": "Feature", "geometry": {"type": "Point", "coordinates": [10.53137, 35.92729]}, "properties": {"record_id": "oai:u-bordeaux-montaigne.fr:340468", "symbol_class": "building", "pixel_x": 1604.9, "pixel_y": 5176.4, "easting": 556907.6, "northing": 291952.3, "epsg_source": 22391}}, {"type": "Feature", "geometry": {"type": "Point", "coordinates": [10.52722, 35.92733]}, "properties": {"record_id": "oai:u-bordeaux-montaigne.fr:340468", "symbol_class": "building", "pixel_x": 1516.6, "pixel_y": 5182.7, "easting": 556532.9, "northing": 291953.6, "epsg_source": 22391}}, {"type": "Feature", "geometry": {"type": "Point", "coordinates": [10.5261, 35.92731]}, "properties": {"record_id": "oai:u-bordeaux-montaigne.fr:340468", "symbol_class": "building", "pixel_x": 1493.0, "pixel_y": 5184.9, "easting": 556432.3, "northing": 291951.5, "epsg_source": 22391}}, {"type": "Feature", "geometry": {"type": "Point", "coordinates": [10.52549, 35.92733]}, "properties": {"record_id": "oai:u-bordeaux-montaigne.fr:340468", "symbol_class": "building", "pixel_x": 1479.8, "pixel_y": 5185.4, "easting": 556376.5, "northing": 291953.6, "epsg_source": 22391}}, {"type": "Feature", "geometry": {"type": "Point", "coordinates": [10.52184, 35.92733]}, "properties": {"record_id": "oai:u-bordeaux-montaigne.fr:340468", "symbol_class": "building", "pixel_x": 1402.4, "pixel_y": 5191.8, "easting": 556048.0, "northing": 291951.0, "epsg_source": 22391}}, {"type": "Feature", "geometry": {"type": "Point", "coordinates": [10.51353, 35.92739]}, "properties": {"record_id": "oai:u-bordeaux-montaigne.fr:340468", "symbol_class": "building", "pixel_x": 1225.7, "pixel_y": 5204.4, "easting": 555297.8, "northing": 291953.0, "epsg_source": 22391}}, {"type": "Feature", "geometry": {"type": "Point", "coordinates": [10.51282, 35.9274]}, "properties": {"record_id": "oai:u-bordeaux-montaigne.fr:340468", "symbol_class": "building", "pixel_x": 1210.7, "pixel_y": 5205.5, "easting": 555234.2, "northing": 291953.3, "epsg_source": 22391}}, {"type": "Feature", "geometry": {"type": "Point", "coordinates": [10.51086, 35.9274]}, "properties": {"record_id": "oai:u-bordeaux-montaigne.fr:340468", "symbol_class": "building", "pixel_x": 1169.0, "pixel_y": 5208.7, "easting": 555057.1, "northing": 291952.6, "epsg_source": 22391}}, {"type": "Feature", "geometry": {"type": "Point", "coordinates": [10.56623, 35.92311]}, "properties": {"record_id": "oai:u-bordeaux-montaigne.fr:340468", "symbol_class": "building", "pixel_x": 2354.1, "pixel_y": 5226.4, "easting": 560055.3, "northing": 291509.2, "epsg_source": 22391}}, {"type": "Feature", "geometry": {"type": "Point", "coordinates": [10.52595, 35.92478]}, "properties": {"record_id": "oai:u-bordeaux-montaigne.fr:340468", "symbol_class": "building", "pixel_x": 1495.1, "pixel_y": 5251.6, "easting": 556420.2, "northing": 291671.0, "epsg_source": 22391}}, {"type": "Feature", "geometry": {"type": "Point", "coordinates": [10.52878, 35.92319]}, "properties": {"record_id": "oai:u-bordeaux-montaigne.fr:340468", "symbol_class": "building", "pixel_x": 1558.6, "pixel_y": 5288.7, "easting": 556676.9, "northing": 291495.6, "epsg_source": 22391}}, {"type": "Feature", "geometry": {"type": "Point", "coordinates": [10.52906, 35.92288]}, "properties": {"record_id": "oai:u-bordeaux-montaigne.fr:340468", "symbol_class": "building", "pixel_x": 1565.1, "pixel_y": 5296.4, "easting": 556701.7, "northing": 291461.2, "epsg_source": 22391}}, {"type": "Feature", "geometry": {"type": "Point", "coordinates": [10.52923, 35.92262]}, "properties": {"record_id": "oai:u-bordeaux-montaigne.fr:340468", "symbol_class": "building", "pixel_x": 1569.4, "pixel_y": 5302.9, "easting": 556718.0, "northing": 291432.8, "epsg_source": 22391}}, {"type": "Feature", "geometry": {"type": "Point", "coordinates": [10.56361, 35.91937]}, "properties": {"record_id": "oai:u-bordeaux-montaigne.fr:340468", "symbol_class": "building", "pixel_x": 2306.4, "pixel_y": 5329.1, "easting": 559821.4, "northing": 291092.9, "epsg_source": 22391}}, {"type": "Feature", "geometry": {"type": "Point", "coordinates": [10.54907, 35.91829]}, "properties": {"record_id": "oai:u-bordeaux-montaigne.fr:340468", "symbol_class": "building", "pixel_x": 1999.8, "pixel_y": 5382.6, "easting": 558510.4, "northing": 290964.3, "epsg_source": 22391}}, {"type": "Feature", "geometry": {"type": "Point", "coordinates": [10.54226, 35.91832]}, "properties": {"record_id": "oai:u-bordeaux-montaigne.fr:340468", "symbol_class": "building", "pixel_x": 1855.2, "pixel_y": 5393.4, "easting": 557896.3, "northing": 290964.0, "epsg_source": 22391}}, {"type": "Feature", "geometry": {"type": "Point", "coordinates": [10.53265, 35.91836]}, "properties": {"record_id": "oai:u-bordeaux-montaigne.fr:340468", "symbol_class": "building", "pixel_x": 1651.1, "pixel_y": 5408.9, "easting": 557029.5, "northing": 290962.5, "epsg_source": 22391}}, {"type": "Feature", "geometry": {"type": "Point", "coordinates": [10.53322, 35.91833]}, "properties": {"record_id": "oai:u-bordeaux-montaigne.fr:340468", "symbol_class": "building", "pixel_x": 1663.1, "pixel_y": 5408.8, "easting": 557080.5, "northing": 290959.5, "epsg_source": 22391}}, {"type": "Feature", "geometry": {"type": "Point", "coordinates": [10.53991, 35.91341]}, "properties": {"record_id": "oai:u-bordeaux-montaigne.fr:340468", "symbol_class": "building", "pixel_x": 1815.7, "pixel_y": 5526.7, "easting": 557687.6, "northing": 290417.3, "epsg_source": 22391}}, {"type": "Feature", "geometry": {"type": "Point", "coordinates": [10.54028, 35.91306]}, "properties": {"record_id": "oai:u-bordeaux-montaigne.fr:340468", "symbol_class": "building", "pixel_x": 1824.4, "pixel_y": 5535.2, "easting": 557721.8, "northing": 290379.0, "epsg_source": 22391}}, {"type": "Feature", "geometry": {"type": "Point", "coordinates": [10.56783, 35.91089]}, "properties": {"record_id": "oai:u-bordeaux-montaigne.fr:340468", "symbol_class": "building", "pixel_x": 2414.1, "pixel_y": 5544.7, "easting": 560208.5, "northing": 290155.2, "epsg_source": 22391}}, {"type": "Feature", "geometry": {"type": "Point", "coordinates": [10.52366, 35.91383]}, "properties": {"record_id": "oai:u-bordeaux-montaigne.fr:340468", "symbol_class": "building", "pixel_x": 1469.6, "pixel_y": 5543.4, "easting": 556221.0, "northing": 290455.2, "epsg_source": 22391}}, {"type": "Feature", "geometry": {"type": "Point", "coordinates": [10.55908, 35.90916]}, "properties": {"record_id": "oai:u-bordeaux-montaigne.fr:340468", "symbol_class": "building", "pixel_x": 2232.1, "pixel_y": 5605.3, "easting": 559421.0, "northing": 289957.7, "epsg_source": 22391}}, {"type": "Feature", "geometry": {"type": "Point", "coordinates": [10.55627, 35.90916]}, "properties": {"record_id": "oai:u-bordeaux-montaigne.fr:340468", "symbol_class": "building", "pixel_x": 2172.4, "pixel_y": 5610.0, "easting": 559167.4, "northing": 289956.5, "epsg_source": 22391}}, {"type": "Feature", "geometry": {"type": "Point", "coordinates": [10.55531, 35.90918]}, "properties": {"record_id": "oai:u-bordeaux-montaigne.fr:340468", "symbol_class": "building", "pixel_x": 2151.9, "pixel_y": 5611.4, "easting": 559080.8, "northing": 289957.1, "epsg_source": 22391}}, {"type": "Feature", "geometry": {"type": "Point", "coordinates": [10.55402, 35.90917]}, "properties": {"record_id": "oai:u-bordeaux-montaigne.fr:340468", "symbol_class": "building", "pixel_x": 2124.6, "pixel_y": 5613.8, "easting": 558964.5, "northing": 289955.5, "epsg_source": 22391}}, {"type": "Feature", "geometry": {"type": "Point", "coordinates": [10.54615, 35.90872]}, "properties": {"record_id": "oai:u-bordeaux-montaigne.fr:340468", "symbol_class": "building", "pixel_x": 1958.4, "pixel_y": 5639.1, "easting": 558254.7, "northing": 289901.0, "epsg_source": 22391}}, {"type": "Feature", "geometry": {"type": "Point", "coordinates": [10.52157, 35.90934]}, "properties": {"record_id": "oai:u-bordeaux-montaigne.fr:340468", "symbol_class": "building", "pixel_x": 1434.7, "pixel_y": 5665.0, "easting": 556035.7, "northing": 289955.8, "epsg_source": 22391}}, {"type": "Feature", "geometry": {"type": "Point", "coordinates": [10.59926, 35.89748]}, "properties": {"record_id": "oai:u-bordeaux-montaigne.fr:340468", "symbol_class": "building", "pixel_x": 3110.6, "pixel_y": 5842.8, "easting": 563055.9, "northing": 288687.3, "epsg_source": 22391}}, {"type": "Feature", "geometry": {"type": "Point", "coordinates": [10.57729, 35.89891]}, "properties": {"record_id": "oai:u-bordeaux-montaigne.fr:340468", "symbol_class": "building", "pixel_x": 2640.6, "pixel_y": 5843.2, "easting": 561071.3, "northing": 288832.3, "epsg_source": 22391}}, {"type": "Feature", "geometry": {"type": "Point", "coordinates": [10.60998, 35.89675]}, "properties": {"record_id": "oai:u-bordeaux-montaigne.fr:340468", "symbol_class": "building", "pixel_x": 3339.8, "pixel_y": 5843.3, "easting": 564023.3, "northing": 288614.1, "epsg_source": 22391}}, {"type": "Feature", "geometry": {"type": "Point", "coordinates": [10.59789, 35.89751]}, "properties": {"record_id": "oai:u-bordeaux-montaigne.fr:340468", "symbol_class": "building", "pixel_x": 3081.3, "pixel_y": 5844.3, "easting": 562931.5, "northing": 288690.1, "epsg_source": 22391}}, {"type": "Feature", "geometry": {"type": "Point", "coordinates": [10.60897, 35.89676]}, "properties": {"record_id": "oai:u-bordeaux-montaigne.fr:340468", "symbol_class": "building", "pixel_x": 3318.4, "pixel_y": 5845.0, "easting": 563932.7, "northing": 288613.6, "epsg_source": 22391}}, {"type": "Feature", "geometry": {"type": "Point", "coordinates": [10.65464, 35.89371]}, "properties": {"record_id": "oai:u-bordeaux-montaigne.fr:340468", "symbol_class": "building", "pixel_x": 4295.2, "pixel_y": 5845.5, "easting": 568056.8, "northing": 288306.9, "epsg_source": 22391}}, {"type": "Feature", "geometry": {"type": "Point", "coordinates": [10.57577, 35.89893]}, "properties": {"record_id": "oai:u-bordeaux-montaigne.fr:340468", "symbol_class": "building", "pixel_x": 2608.4, "pixel_y": 5845.4, "easting": 560934.5, "northing": 288832.9, "epsg_source": 22391}}, {"type": "Feature", "geometry": {"type": "Point", "coordinates": [10.58689, 35.89815]}, "properties": {"record_id": "oai:u-bordeaux-montaigne.fr:340468", "symbol_class": "building", "pixel_x": 2846.2, "pixel_y": 5846.5, "easting": 561938.5, "northing": 288754.2, "epsg_source": 22391}}, {"type": "Feature", "geometry": {"type": "Point", "coordinates": [10.58822, 35.89813]}, "properties": {"record_id": "oai:u-bordeaux-montaigne.fr:340468", "symbol_class": "building", "pixel_x": 2874.5, "pixel_y": 5844.7, "easting": 562058.5, "northing": 288753.0, "epsg_source": 22391}}, {"type": "Feature", "geometry": {"type": "Point", "coordinates": [10.61059, 35.89667]}, "properties": {"record_id": "oai:u-bordeaux-montaigne.fr:340468", "symbol_class": "building", "pixel_x": 3352.9, "pixel_y": 5844.3, "easting": 564078.4, "northing": 288605.6, "epsg_source": 22391}}, {"type": "Feature", "geometry": {"type": "Point", "coordinates": [10.63256, 35.89516]}, "properties": {"record_id": "oai:u-bordeaux-montaigne.fr:340468", "symbol_class": "building", "pixel_x": 3823.0, "pixel_y": 5845.8, "easting": 566062.6, "northing": 288452.7, "epsg_source": 22391}}, {"type": "Feature", "geometry": {"type": "Point", "coordinates": [10.64224, 35.89448]}, "properties": {"record_id": "oai:u-bordeaux-montaigne.fr:340468", "symbol_class": "building", "pixel_x": 4030.2, "pixel_y": 5846.9, "easting": 566937.1, "northing": 288383.7, "epsg_source": 22391}}, {"type": "Feature", "geometry": {"type": "Point", "coordinates": [10.65315, 35.8938]}, "properties": {"record_id": "oai:u-bordeaux-montaigne.fr:340468", "symbol_class": "building", "pixel_x": 4263.2, "pixel_y": 5845.7, "easting": 567921.6, "northing": 288315.9, "epsg_source": 22391}}, {"type": "Feature", "geometry": {"type": "Point", "coordinates": [10.6432, 35.89442]}, "properties": {"record_id": "oai:u-bordeaux-montaigne.fr:340468", "symbol_class": "building", "pixel_x": 4050.6, "pixel_y": 5846.7, "easting": 567023.4, "northing": 288378.0, "epsg_source": 22391}}, {"type": "Feature", "geometry": {"type": "Point", "coordinates": [10.62047, 35.89576]}, "properties": {"record_id": "oai:u-bordeaux-montaigne.fr:340468", "symbol_class": "building", "pixel_x": 3564.8, "pixel_y": 5851.2, "easting": 564970.7, "northing": 288510.5, "epsg_source": 22391}}, {"type": "Feature", "geometry": {"type": "Point", "coordinates": [10.52054, 35.90189]}, "properties": {"record_id": "oai:u-bordeaux-montaigne.fr:340468", "symbol_class": "building", "pixel_x": 1428.7, "pixel_y": 5862.7, "easting": 555948.4, "northing": 289128.4, "epsg_source": 22391}}, {"type": "Feature", "geometry": {"type": "Point", "coordinates": [10.51071, 35.90232]}, "properties": {"record_id": "oai:u-bordeaux-montaigne.fr:340468", "symbol_class": "building", "pixel_x": 1219.0, "pixel_y": 5868.1, "easting": 555061.3, "northing": 289171.2, "epsg_source": 22391}}, {"type": "Feature", "geometry": {"type": "Point", "coordinates": [10.50961, 35.90266]}, "properties": {"record_id": "oai:u-bordeaux-montaigne.fr:340468", "symbol_class": "building", "pixel_x": 1194.9, "pixel_y": 5861.0, "easting": 554961.8, "northing": 289208.2, "epsg_source": 22391}}, {"type": "Feature", "geometry": {"type": "Point", "coordinates": [10.55376, 35.8995]}, "properties": {"record_id": "oai:u-bordeaux-montaigne.fr:340468", "symbol_class": "building", "pixel_x": 2139.6, "pixel_y": 5868.4, "easting": 558948.0, "northing": 288882.8, "epsg_source": 22391}}, {"type": "Feature", "geometry": {"type": "Point", "coordinates": [10.55518, 35.89941]}, "properties": {"record_id": "oai:u-bordeaux-montaigne.fr:340468", "symbol_class": "building", "pixel_x": 2170.0, "pixel_y": 5868.1, "easting": 559076.5, "northing": 288874.4, "epsg_source": 22391}}, {"type": "Feature", "geometry": {"type": "Point", "coordinates": [10.54389, 35.89993]}, "properties": {"record_id": "oai:u-bordeaux-montaigne.fr:340468", "symbol_class": "building", "pixel_x": 1928.9, "pixel_y": 5874.1, "easting": 558056.8, "northing": 288924.5, "epsg_source": 22391}}, {"type": "Feature", "geometry": {"type": "Point", "coordinates": [10.53289, 35.90094]}, "properties": {"record_id": "oai:u-bordeaux-montaigne.fr:340468", "symbol_class": "building", "pixel_x": 1693.1, "pixel_y": 5866.5, "easting": 557063.5, "northing": 289029.9, "epsg_source": 22391}}, {"type": "Feature", "geometry": {"type": "Point", "coordinates": [10.53146, 35.90096]}, "properties": {"record_id": "oai:u-bordeaux-montaigne.fr:340468", "symbol_class": "building", "pixel_x": 1662.6, "pixel_y": 5868.3, "easting": 556934.0, "northing": 289031.8, "epsg_source": 22391}}, {"type": "Feature", "geometry": {"type": "Point", "coordinates": [10.54242, 35.89992]}, "properties": {"record_id": "oai:u-bordeaux-montaigne.fr:340468", "symbol_class": "building", "pixel_x": 1897.7, "pixel_y": 5876.7, "easting": 557924.2, "northing": 288923.2, "epsg_source": 22391}}, {"type": "Feature", "geometry": {"type": "Point", "coordinates": [10.50955, 35.90203]}, "properties": {"record_id": "oai:u-bordeaux-montaigne.fr:340468", "symbol_class": "building", "pixel_x": 1194.9, "pixel_y": 5877.7, "easting": 554956.5, "northing": 289138.3, "epsg_source": 22391}}, {"type": "Feature", "geometry": {"type": "Point", "coordinates": [10.53295, 35.90027]}, "properties": {"record_id": "oai:u-bordeaux-montaigne.fr:340468", "symbol_class": "building", "pixel_x": 1695.7, "pixel_y": 5883.9, "easting": 557069.0, "northing": 288956.1, "epsg_source": 22391}}, {"type": "Feature", "geometry": {"type": "Point", "coordinates": [10.53247, 35.90029]}, "properties": {"record_id": "oai:u-bordeaux-montaigne.fr:340468", "symbol_class": "building", "pixel_x": 1685.5, "pixel_y": 5884.3, "easting": 557025.8, "northing": 288957.8, "epsg_source": 22391}}]}