{"type": "FeatureCollection", "features": [{"type": "Feature", "geometry": {"type": "Point", "coordinates": [10.87133, 36.42484]}, "properties": {"record_id": "oai:u-bordeaux-montaigne.fr:340433", "symbol_class": "building", "pixel_x": 7537.2, "pixel_y": 1051.5, "easting": 587025.0, "northing": 347391.2, "epsg_source": 22391}}, {"type": "Feature", "geometry": {"type": "Point", "coordinates": [10.66276, 36.42483]}, "properties": {"record_id": "oai:u-bordeaux-montaigne.fr:340433", "symbol_class": "building", "pixel_x": 3206.1, "pixel_y": 1432.1, "easting": 568328.1, "northing": 347223.7, "epsg_source": 22391}}, {"type": "Feature", "geometry": {"type": "Point", "coordinates": [10.6684, 36.42442]}, "properties": {"record_id": "oai:u-bordeaux-montaigne.fr:340433", "symbol_class": "building", "pixel_x": 3324.2, "pixel_y": 1432.8, "easting": 568834.5, "northing": 347181.9, "epsg_source": 22391}}, {"type": "Feature", "geometry": {"type": "Point", "coordinates": [10.57892, 36.42937]}, "properties": {"record_id": "oai:u-bordeaux-montaigne.fr:340433", "symbol_class": "building", "pixel_x": 1455.3, "pixel_y": 1463.5, "easting": 560809.4, "northing": 347671.9, "epsg_source": 22391}}, {"type": "Feature", "geometry": {"type": "Point", "coordinates": [10.59485, 36.4272]}, "properties": {"record_id": "oai:u-bordeaux-montaigne.fr:340433", "symbol_class": "building", "pixel_x": 1790.7, "pixel_y": 1492.1, "easting": 562238.6, "northing": 347440.4, "epsg_source": 22391}}, {"type": "Feature", "geometry": {"type": "Point", "coordinates": [10.58203, 36.42733]}, "properties": {"record_id": "oai:u-bordeaux-montaigne.fr:340433", "symbol_class": "building", "pixel_x": 1524.2, "pixel_y": 1511.4, "easting": 561089.5, "northing": 347447.5, "epsg_source": 22391}}, {"type": "Feature", "geometry": {"type": "Point", "coordinates": [10.65668, 36.42146]}, "properties": {"record_id": "oai:u-bordeaux-montaigne.fr:340433", "symbol_class": "building", "pixel_x": 3087.2, "pixel_y": 1531.3, "easting": 567786.4, "northing": 346845.3, "epsg_source": 22391}}, {"type": "Feature", "geometry": {"type": "Point", "coordinates": [10.65516, 36.42141]}, "properties": {"record_id": "oai:u-bordeaux-montaigne.fr:340433", "symbol_class": "building", "pixel_x": 3055.8, "pixel_y": 1535.2, "easting": 567650.4, "northing": 346839.0, "epsg_source": 22391}}, {"type": "Feature", "geometry": {"type": "Point", "coordinates": [10.59744, 36.42417]}, "properties": {"record_id": "oai:u-bordeaux-montaigne.fr:340433", "symbol_class": "building", "pixel_x": 1850.9, "pixel_y": 1566.6, "easting": 562473.0, "northing": 347106.4, "epsg_source": 22391}}, {"type": "Feature", "geometry": {"type": "Point", "coordinates": [10.57013, 36.42504]}, "properties": {"record_id": "oai:u-bordeaux-montaigne.fr:340433", "symbol_class": "building", "pixel_x": 1282.0, "pixel_y": 1592.7, "easting": 560024.8, "northing": 347185.3, "epsg_source": 22391}}, {"type": "Feature", "geometry": {"type": "Point", "coordinates": [10.5877, 36.42352]}, "properties": {"record_id": "oai:u-bordeaux-montaigne.fr:340433", "symbol_class": "building", "pixel_x": 1650.1, "pixel_y": 1601.1, "easting": 561600.7, "northing": 347027.5, "epsg_source": 22391}}, {"type": "Feature", "geometry": {"type": "Point", "coordinates": [10.59492, 36.42257]}, "properties": {"record_id": "oai:u-bordeaux-montaigne.fr:340433", "symbol_class": "building", "pixel_x": 1802.0, "pixel_y": 1613.0, "easting": 562248.6, "northing": 346927.2, "epsg_source": 22391}}, {"type": "Feature", "geometry": {"type": "Point", "coordinates": [10.5946, 36.42204]}, "properties": {"record_id": "oai:u-bordeaux-montaigne.fr:340433", "symbol_class": "building", "pixel_x": 1796.5, "pixel_y": 1627.3, "easting": 562220.4, "northing": 346868.7, "epsg_source": 22391}}, {"type": "Feature", "geometry": {"type": "Point", "coordinates": [10.56814, 36.42362]}, "properties": {"record_id": "oai:u-bordeaux-montaigne.fr:340433", "symbol_class": "building", "pixel_x": 1243.5, "pixel_y": 1633.2, "easting": 559846.8, "northing": 347027.4, "epsg_source": 22391}}, {"type": "Feature", "geometry": {"type": "Point", "coordinates": [10.66218, 36.41589]}, "properties": {"record_id": "oai:u-bordeaux-montaigne.fr:340433", "symbol_class": "building", "pixel_x": 3213.4, "pixel_y": 1667.0, "easting": 568284.5, "northing": 346231.5, "epsg_source": 22391}}, {"type": "Feature", "geometry": {"type": "Point", "coordinates": [10.65556, 36.41546]}, "properties": {"record_id": "oai:u-bordeaux-montaigne.fr:340433", "symbol_class": "building", "pixel_x": 3076.8, "pixel_y": 1690.2, "easting": 567691.2, "northing": 346179.1, "epsg_source": 22391}}, {"type": "Feature", "geometry": {"type": "Point", "coordinates": [10.57684, 36.42088]}, "properties": {"record_id": "oai:u-bordeaux-montaigne.fr:340433", "symbol_class": "building", "pixel_x": 1430.1, "pixel_y": 1689.4, "easting": 560629.3, "northing": 346728.4, "epsg_source": 22391}}, {"type": "Feature", "geometry": {"type": "Point", "coordinates": [10.57508, 36.42086]}, "properties": {"record_id": "oai:u-bordeaux-montaigne.fr:340433", "symbol_class": "building", "pixel_x": 1393.7, "pixel_y": 1693.1, "easting": 560471.7, "northing": 346724.8, "epsg_source": 22391}}, {"type": "Feature", "geometry": {"type": "Point", "coordinates": [10.57655, 36.42066]}, "properties": {"record_id": "oai:u-bordeaux-montaigne.fr:340433", "symbol_class": "building", "pixel_x": 1424.5, "pixel_y": 1695.8, "easting": 560603.3, "northing": 346703.5, "epsg_source": 22391}}, {"type": "Feature", "geometry": {"type": "Point", "coordinates": [10.57282, 36.42085]}, "properties": {"record_id": "oai:u-bordeaux-montaigne.fr:340433", "symbol_class": "building", "pixel_x": 1346.7, "pixel_y": 1697.3, "easting": 560268.8, "northing": 346722.8, "epsg_source": 22391}}, {"type": "Feature", "geometry": {"type": "Point", "coordinates": [10.57446, 36.42081]}, "properties": {"record_id": "oai:u-bordeaux-montaigne.fr:340433", "symbol_class": "building", "pixel_x": 1380.9, "pixel_y": 1695.6, "easting": 560416.1, "northing": 346718.7, "epsg_source": 22391}}, {"type": "Feature", "geometry": {"type": "Point", "coordinates": [10.56406, 36.42126]}, "properties": {"record_id": "oai:u-bordeaux-montaigne.fr:340433", "symbol_class": "building", "pixel_x": 1163.9, "pixel_y": 1702.4, "easting": 559483.4, "northing": 346762.1, "epsg_source": 22391}}, {"type": "Feature", "geometry": {"type": "Point", "coordinates": [10.57494, 36.42043]}, "properties": {"record_id": "oai:u-bordeaux-montaigne.fr:340433", "symbol_class": "building", "pixel_x": 1391.7, "pixel_y": 1704.5, "easting": 560459.5, "northing": 346677.5, "epsg_source": 22391}}, {"type": "Feature", "geometry": {"type": "Point", "coordinates": [10.65287, 36.41512]}, "properties": {"record_id": "oai:u-bordeaux-montaigne.fr:340433", "symbol_class": "building", "pixel_x": 3021.6, "pixel_y": 1703.9, "easting": 567450.2, "northing": 346139.7, "epsg_source": 22391}}, {"type": "Feature", "geometry": {"type": "Point", "coordinates": [10.6524, 36.41494]}, "properties": {"record_id": "oai:u-bordeaux-montaigne.fr:340433", "symbol_class": "building", "pixel_x": 3012.2, "pixel_y": 1709.6, "easting": 567408.3, "northing": 346118.8, "epsg_source": 22391}}, {"type": "Feature", "geometry": {"type": "Point", "coordinates": [10.56464, 36.42064]}, "properties": {"record_id": "oai:u-bordeaux-montaigne.fr:340433", "symbol_class": "building", "pixel_x": 1177.2, "pixel_y": 1717.4, "easting": 559535.7, "northing": 346694.4, "epsg_source": 22391}}, {"type": "Feature", "geometry": {"type": "Point", "coordinates": [10.56804, 36.42046]}, "properties": {"record_id": "oai:u-bordeaux-montaigne.fr:340433", "symbol_class": "building", "pixel_x": 1248.3, "pixel_y": 1716.0, "easting": 559841.0, "northing": 346676.7, "epsg_source": 22391}}, {"type": "Feature", "geometry": {"type": "Point", "coordinates": [10.57499, 36.41996]}, "properties": {"record_id": "oai:u-bordeaux-montaigne.fr:340433", "symbol_class": "building", "pixel_x": 1393.7, "pixel_y": 1716.7, "easting": 560464.3, "northing": 346625.5, "epsg_source": 22391}}, {"type": "Feature", "geometry": {"type": "Point", "coordinates": [10.60115, 36.41805]}, "properties": {"record_id": "oai:u-bordeaux-montaigne.fr:340433", "symbol_class": "building", "pixel_x": 1941.0, "pixel_y": 1720.1, "easting": 562810.3, "northing": 346429.6, "epsg_source": 22391}}, {"type": "Feature", "geometry": {"type": "Point", "coordinates": [10.58508, 36.41876]}, "properties": {"record_id": "oai:u-bordeaux-montaigne.fr:340433", "symbol_class": "building", "pixel_x": 1605.8, "pixel_y": 1730.3, "easting": 561369.8, "northing": 346497.9, "epsg_source": 22391}}, {"type": "Feature", "geometry": {"type": "Point", "coordinates": [10.60146, 36.41735]}, "properties": {"record_id": "oai:u-bordeaux-montaigne.fr:340433", "symbol_class": "building", "pixel_x": 1949.0, "pixel_y": 1737.8, "easting": 562839.3, "northing": 346352.3, "epsg_source": 22391}}, {"type": "Feature", "geometry": {"type": "Point", "coordinates": [10.58504, 36.41776]}, "properties": {"record_id": "oai:u-bordeaux-montaigne.fr:340433", "symbol_class": "building", "pixel_x": 1607.0, "pixel_y": 1756.4, "easting": 561366.7, "northing": 346387.4, "epsg_source": 22391}}, {"type": "Feature", "geometry": {"type": "Point", "coordinates": [10.5758, 36.4177]}, "properties": {"record_id": "oai:u-bordeaux-montaigne.fr:340433", "symbol_class": "building", "pixel_x": 1415.2, "pixel_y": 1774.5, "easting": 560538.0, "northing": 346374.8, "epsg_source": 22391}}, {"type": "Feature", "geometry": {"type": "Point", "coordinates": [10.57522, 36.41764]}, "properties": {"record_id": "oai:u-bordeaux-montaigne.fr:340433", "symbol_class": "building", "pixel_x": 1403.3, "pixel_y": 1777.2, "easting": 560486.2, "northing": 346367.5, "epsg_source": 22391}}, {"type": "Feature", "geometry": {"type": "Point", "coordinates": [10.58381, 36.41687]}, "properties": {"record_id": "oai:u-bordeaux-montaigne.fr:340433", "symbol_class": "building", "pixel_x": 1583.4, "pixel_y": 1782.0, "easting": 561257.1, "northing": 346287.7, "epsg_source": 22391}}, {"type": "Feature", "geometry": {"type": "Point", "coordinates": [10.65779, 36.41153]}, "properties": {"record_id": "oai:u-bordeaux-montaigne.fr:340433", "symbol_class": "building", "pixel_x": 3131.5, "pixel_y": 1788.9, "easting": 567894.6, "northing": 345745.1, "epsg_source": 22391}}, {"type": "Feature", "geometry": {"type": "Point", "coordinates": [10.65751, 36.41127]}, "properties": {"record_id": "oai:u-bordeaux-montaigne.fr:340433", "symbol_class": "building", "pixel_x": 3126.2, "pixel_y": 1796.3, "easting": 567869.5, "northing": 345715.4, "epsg_source": 22391}}, {"type": "Feature", "geometry": {"type": "Point", "coordinates": [10.57286, 36.41669]}, "properties": {"record_id": "oai:u-bordeaux-montaigne.fr:340433", "symbol_class": "building", "pixel_x": 1356.2, "pixel_y": 1806.1, "easting": 560275.2, "northing": 346261.1, "epsg_source": 22391}}, {"type": "Feature", "geometry": {"type": "Point", "coordinates": [10.65677, 36.41073]}, "properties": {"record_id": "oai:u-bordeaux-montaigne.fr:340433", "symbol_class": "building", "pixel_x": 3112.0, "pixel_y": 1811.6, "easting": 567803.5, "northing": 345655.6, "epsg_source": 22391}}, {"type": "Feature", "geometry": {"type": "Point", "coordinates": [10.65979, 36.41028]}, "properties": {"record_id": "oai:u-bordeaux-montaigne.fr:340433", "symbol_class": "building", "pixel_x": 3175.6, "pixel_y": 1818.0, "easting": 568074.4, "northing": 345607.7, "epsg_source": 22391}}, {"type": "Feature", "geometry": {"type": "Point", "coordinates": [10.55631, 36.41744]}, "properties": {"record_id": "oai:u-bordeaux-montaigne.fr:340433", "symbol_class": "building", "pixel_x": 1011.0, "pixel_y": 1816.0, "easting": 558791.2, "northing": 346333.9, "epsg_source": 22391}}, {"type": "Feature", "geometry": {"type": "Point", "coordinates": [10.60767, 36.41384]}, "properties": {"record_id": "oai:u-bordeaux-montaigne.fr:340433", "symbol_class": "building", "pixel_x": 2085.4, "pixel_y": 1818.5, "easting": 563398.5, "northing": 345967.3, "epsg_source": 22391}}, {"type": "Feature", "geometry": {"type": "Point", "coordinates": [10.6082, 36.4137]}, "properties": {"record_id": "oai:u-bordeaux-montaigne.fr:340433", "symbol_class": "building", "pixel_x": 2096.7, "pixel_y": 1821.2, "easting": 563446.1, "northing": 345952.0, "epsg_source": 22391}}, {"type": "Feature", "geometry": {"type": "Point", "coordinates": [10.65793, 36.41008]}, "properties": {"record_id": "oai:u-bordeaux-montaigne.fr:340433", "symbol_class": "building", "pixel_x": 3137.4, "pixel_y": 1826.5, "easting": 567907.8, "northing": 345584.4, "epsg_source": 22391}}, {"type": "Feature", "geometry": {"type": "Point", "coordinates": [10.57668, 36.41561]}, "properties": {"record_id": "oai:u-bordeaux-montaigne.fr:340433", "symbol_class": "building", "pixel_x": 1438.0, "pixel_y": 1827.6, "easting": 560619.0, "northing": 346143.3, "epsg_source": 22391}}, {"type": "Feature", "geometry": {"type": "Point", "coordinates": [10.62671, 36.41227]}, "properties": {"record_id": "oai:u-bordeaux-montaigne.fr:340433", "symbol_class": "building", "pixel_x": 2484.4, "pixel_y": 1825.4, "easting": 565107.4, "northing": 345805.6, "epsg_source": 22391}}, {"type": "Feature", "geometry": {"type": "Point", "coordinates": [10.57843, 36.41534]}, "properties": {"record_id": "oai:u-bordeaux-montaigne.fr:340433", "symbol_class": "building", "pixel_x": 1474.9, "pixel_y": 1831.5, "easting": 560775.8, "northing": 346114.8, "epsg_source": 22391}}, {"type": "Feature", "geometry": {"type": "Point", "coordinates": [10.62642, 36.41211]}, "properties": {"record_id": "oai:u-bordeaux-montaigne.fr:340433", "symbol_class": "building", "pixel_x": 2478.6, "pixel_y": 1830.1, "easting": 565081.3, "northing": 345787.8, "epsg_source": 22391}}, {"type": "Feature", "geometry": {"type": "Point", "coordinates": [10.65718, 36.40965]}, "properties": {"record_id": "oai:u-bordeaux-montaigne.fr:340433", "symbol_class": "building", "pixel_x": 3122.8, "pixel_y": 1839.2, "easting": 567841.2, "northing": 345535.8, "epsg_source": 22391}}, {"type": "Feature", "geometry": {"type": "Point", "coordinates": [10.57862, 36.41492]}, "properties": {"record_id": "oai:u-bordeaux-montaigne.fr:340433", "symbol_class": "building", "pixel_x": 1479.8, "pixel_y": 1842.2, "easting": 560793.4, "northing": 346068.1, "epsg_source": 22391}}, {"type": "Feature", "geometry": {"type": "Point", "coordinates": [10.628, 36.41155]}, "properties": {"record_id": "oai:u-bordeaux-montaigne.fr:340433", "symbol_class": "building", "pixel_x": 2512.7, "pixel_y": 1841.9, "easting": 565223.5, "northing": 345726.8, "epsg_source": 22391}}, {"type": "Feature", "geometry": {"type": "Point", "coordinates": [10.57341, 36.41518]}, "properties": {"record_id": "oai:u-bordeaux-montaigne.fr:340433", "symbol_class": "building", "pixel_x": 1371.0, "pixel_y": 1844.6, "easting": 560326.0, "northing": 346094.1, "epsg_source": 22391}}, {"type": "Feature", "geometry": {"type": "Point", "coordinates": [10.61301, 36.41252]}, "properties": {"record_id": "oai:u-bordeaux-montaigne.fr:340433", "symbol_class": "building", "pixel_x": 2199.2, "pixel_y": 1843.6, "easting": 563878.4, "northing": 345823.7, "epsg_source": 22391}}, {"type": "Feature", "geometry": {"type": "Point", "coordinates": [10.62753, 36.41131]}, "properties": {"record_id": "oai:u-bordeaux-montaigne.fr:340433", "symbol_class": "building", "pixel_x": 2503.4, "pixel_y": 1849.1, "easting": 565181.5, "northing": 345699.7, "epsg_source": 22391}}, {"type": "Feature", "geometry": {"type": "Point", "coordinates": [10.65743, 36.40888]}, "properties": {"record_id": "oai:u-bordeaux-montaigne.fr:340433", "symbol_class": "building", "pixel_x": 3129.7, "pixel_y": 1859.0, "easting": 567864.4, "northing": 345450.2, "epsg_source": 22391}}, {"type": "Feature", "geometry": {"type": "Point", "coordinates": [10.61606, 36.41161]}, "properties": {"record_id": "oai:u-bordeaux-montaigne.fr:340433", "symbol_class": "building", "pixel_x": 2264.5, "pixel_y": 1861.8, "easting": 564152.9, "northing": 345725.3, "epsg_source": 22391}}, {"type": "Feature", "geometry": {"type": "Point", "coordinates": [10.60037, 36.41262]}, "properties": {"record_id": "oai:u-bordeaux-montaigne.fr:340433", "symbol_class": "building", "pixel_x": 1936.3, "pixel_y": 1863.4, "easting": 562744.8, "northing": 345827.3, "epsg_source": 22391}}, {"type": "Feature", "geometry": {"type": "Point", "coordinates": [10.61837, 36.41138]}, "properties": {"record_id": "oai:u-bordeaux-montaigne.fr:340433", "symbol_class": "building", "pixel_x": 2312.9, "pixel_y": 1863.7, "easting": 564359.6, "northing": 345701.4, "epsg_source": 22391}}, {"type": "Feature", "geometry": {"type": "Point", "coordinates": [10.6028, 36.4123]}, "properties": {"record_id": "oai:u-bordeaux-montaigne.fr:340433", "symbol_class": "building", "pixel_x": 1987.7, "pixel_y": 1867.4, "easting": 562963.7, "northing": 345793.4, "epsg_source": 22391}}, {"type": "Feature", "geometry": {"type": "Point", "coordinates": [10.61998, 36.41089]}, "properties": {"record_id": "oai:u-bordeaux-montaigne.fr:340433", "symbol_class": "building", "pixel_x": 2347.5, "pixel_y": 1873.6, "easting": 564504.9, "northing": 345648.2, "epsg_source": 22391}}, {"type": "Feature", "geometry": {"type": "Point", "coordinates": [10.58001, 36.41354]}, "properties": {"record_id": "oai:u-bordeaux-montaigne.fr:340433", "symbol_class": "building", "pixel_x": 1511.5, "pixel_y": 1875.8, "easting": 560919.0, "northing": 345916.1, "epsg_source": 22391}}, {"type": "Feature", "geometry": {"type": "Point", "coordinates": [10.63706, 36.40965]}, "properties": {"record_id": "oai:u-bordeaux-montaigne.fr:340433", "symbol_class": "building", "pixel_x": 2705.0, "pixel_y": 1875.4, "easting": 566037.6, "northing": 345521.8, "epsg_source": 22391}}, {"type": "Feature", "geometry": {"type": "Point", "coordinates": [10.58164, 36.41332]}, "properties": {"record_id": "oai:u-bordeaux-montaigne.fr:340433", "symbol_class": "building", "pixel_x": 1545.9, "pixel_y": 1878.6, "easting": 561065.5, "northing": 345892.7, "epsg_source": 22391}}, {"type": "Feature", "geometry": {"type": "Point", "coordinates": [10.61387, 36.4111]}, "properties": {"record_id": "oai:u-bordeaux-montaigne.fr:340433", "symbol_class": "building", "pixel_x": 2220.1, "pixel_y": 1879.2, "easting": 563956.8, "northing": 345666.7, "epsg_source": 22391}}, {"type": "Feature", "geometry": {"type": "Point", "coordinates": [10.62286, 36.4105]}, "properties": {"record_id": "oai:u-bordeaux-montaigne.fr:340433", "symbol_class": "building", "pixel_x": 2408.2, "pixel_y": 1878.7, "easting": 564763.6, "northing": 345606.5, "epsg_source": 22391}}, {"type": "Feature", "geometry": {"type": "Point", "coordinates": [10.6189, 36.41045]}, "properties": {"record_id": "oai:u-bordeaux-montaigne.fr:340433", "symbol_class": "building", "pixel_x": 2325.9, "pixel_y": 1887.0, "easting": 564407.9, "northing": 345598.7, "epsg_source": 22391}}, {"type": "Feature", "geometry": {"type": "Point", "coordinates": [10.62605, 36.40974]}, "properties": {"record_id": "oai:u-bordeaux-montaigne.fr:340433", "symbol_class": "building", "pixel_x": 2476.0, "pixel_y": 1892.9, "easting": 565049.9, "northing": 345524.0, "epsg_source": 22391}}, {"type": "Feature", "geometry": {"type": "Point", "coordinates": [10.61913, 36.40978]}, "properties": {"record_id": "oai:u-bordeaux-montaigne.fr:340433", "symbol_class": "building", "pixel_x": 2332.2, "pixel_y": 1904.1, "easting": 564429.7, "northing": 345524.6, "epsg_source": 22391}}, {"type": "Feature", "geometry": {"type": "Point", "coordinates": [10.56332, 36.4134]}, "properties": {"record_id": "oai:u-bordeaux-montaigne.fr:340433", "symbol_class": "building", "pixel_x": 1165.2, "pixel_y": 1909.2, "easting": 559423.0, "northing": 345890.2, "epsg_source": 22391}}, {"type": "Feature", "geometry": {"type": "Point", "coordinates": [10.60528, 36.41045]}, "properties": {"record_id": "oai:u-bordeaux-montaigne.fr:340433", "symbol_class": "building", "pixel_x": 2043.1, "pixel_y": 1911.4, "easting": 563187.3, "northing": 345589.5, "epsg_source": 22391}}, {"type": "Feature", "geometry": {"type": "Point", "coordinates": [10.61983, 36.40954]}, "properties": {"record_id": "oai:u-bordeaux-montaigne.fr:340433", "symbol_class": "building", "pixel_x": 2347.2, "pixel_y": 1909.3, "easting": 564492.3, "northing": 345497.8, "epsg_source": 22391}}, {"type": "Feature", "geometry": {"type": "Point", "coordinates": [10.60466, 36.41056]}, "properties": {"record_id": "oai:u-bordeaux-montaigne.fr:340433", "symbol_class": "building", "pixel_x": 2029.9, "pixel_y": 1909.8, "easting": 563131.4, "northing": 345600.8, "epsg_source": 22391}}, {"type": "Feature", "geometry": {"type": "Point", "coordinates": [10.62302, 36.40911]}, "properties": {"record_id": "oai:u-bordeaux-montaigne.fr:340433", "symbol_class": "building", "pixel_x": 2414.5, "pixel_y": 1914.7, "easting": 564779.3, "northing": 345452.7, "epsg_source": 22391}}, {"type": "Feature", "geometry": {"type": "Point", "coordinates": [10.55306, 36.41369]}, "properties": {"record_id": "oai:u-bordeaux-montaigne.fr:340433", "symbol_class": "building", "pixel_x": 951.3, "pixel_y": 1919.9, "easting": 558502.3, "northing": 345915.9, "epsg_source": 22391}}, {"type": "Feature", "geometry": {"type": "Point", "coordinates": [10.61917, 36.40926]}, "properties": {"record_id": "oai:u-bordeaux-montaigne.fr:340433", "symbol_class": "building", "pixel_x": 2334.1, "pixel_y": 1917.7, "easting": 564433.4, "northing": 345466.8, "epsg_source": 22391}}, {"type": "Feature", "geometry": {"type": "Point", "coordinates": [10.62374, 36.4087]}, "properties": {"record_id": "oai:u-bordeaux-montaigne.fr:340433", "symbol_class": "building", "pixel_x": 2430.2, "pixel_y": 1924.2, "easting": 564843.5, "northing": 345407.4, "epsg_source": 22391}}, {"type": "Feature", "geometry": {"type": "Point", "coordinates": [10.6281, 36.40848]}, "properties": {"record_id": "oai:u-bordeaux-montaigne.fr:340433", "symbol_class": "building", "pixel_x": 2521.3, "pixel_y": 1922.2, "easting": 565235.1, "northing": 345385.7, "epsg_source": 22391}}, {"type": "Feature", "geometry": {"type": "Point", "coordinates": [10.5668, 36.41251]}, "properties": {"record_id": "oai:u-bordeaux-montaigne.fr:340433", "symbol_class": "building", "pixel_x": 1239.3, "pixel_y": 1926.2, "easting": 559735.5, "northing": 345793.9, "epsg_source": 22391}}, {"type": "Feature", "geometry": {"type": "Point", "coordinates": [10.6, 36.41016]}, "properties": {"record_id": "oai:u-bordeaux-montaigne.fr:340433", "symbol_class": "building", "pixel_x": 1934.0, "pixel_y": 1928.4, "easting": 562714.0, "northing": 345554.0, "epsg_source": 22391}}, {"type": "Feature", "geometry": {"type": "Point", "coordinates": [10.62071, 36.40852]}, "properties": {"record_id": "oai:u-bordeaux-montaigne.fr:340433", "symbol_class": "building", "pixel_x": 2367.6, "pixel_y": 1934.2, "easting": 564571.9, "northing": 345385.8, "epsg_source": 22391}}, {"type": "Feature", "geometry": {"type": "Point", "coordinates": [10.5656, 36.41201]}, "properties": {"record_id": "oai:u-bordeaux-montaigne.fr:340433", "symbol_class": "building", "pixel_x": 1215.4, "pixel_y": 1941.5, "easting": 559628.0, "northing": 345737.4, "epsg_source": 22391}}, {"type": "Feature", "geometry": {"type": "Point", "coordinates": [10.62211, 36.40829]}, "properties": {"record_id": "oai:u-bordeaux-montaigne.fr:340433", "symbol_class": "building", "pixel_x": 2397.2, "pixel_y": 1937.9, "easting": 564697.7, "northing": 345360.6, "epsg_source": 22391}}, {"type": "Feature", "geometry": {"type": "Point", "coordinates": [10.57054, 36.4117]}, "properties": {"record_id": "oai:u-bordeaux-montaigne.fr:340433", "symbol_class": "building", "pixel_x": 1318.7, "pixel_y": 1940.9, "easting": 560071.2, "northing": 345705.8, "epsg_source": 22391}}, {"type": "Feature", "geometry": {"type": "Point", "coordinates": [10.6198, 36.40837]}, "properties": {"record_id": "oai:u-bordeaux-montaigne.fr:340433", "symbol_class": "building", "pixel_x": 2349.2, "pixel_y": 1940.0, "easting": 564490.9, "northing": 345367.8, "epsg_source": 22391}}, {"type": "Feature", "geometry": {"type": "Point", "coordinates": [10.56804, 36.41172]}, "properties": {"record_id": "oai:u-bordeaux-montaigne.fr:340433", "symbol_class": "building", "pixel_x": 1266.8, "pixel_y": 1944.7, "easting": 559847.2, "northing": 345706.6, "epsg_source": 22391}}, {"type": "Feature", "geometry": {"type": "Point", "coordinates": [10.60222, 36.40939]}, "properties": {"record_id": "oai:u-bordeaux-montaigne.fr:340433", "symbol_class": "building", "pixel_x": 1981.7, "pixel_y": 1944.7, "easting": 562913.6, "northing": 345469.8, "epsg_source": 22391}}, {"type": "Feature", "geometry": {"type": "Point", "coordinates": [10.61896, 36.40822]}, "properties": {"record_id": "oai:u-bordeaux-montaigne.fr:340433", "symbol_class": "building", "pixel_x": 2332.0, "pixel_y": 1945.4, "easting": 564415.8, "northing": 345350.7, "epsg_source": 22391}}, {"type": "Feature", "geometry": {"type": "Point", "coordinates": [10.624, 36.40789]}, "properties": {"record_id": "oai:u-bordeaux-montaigne.fr:340433", "symbol_class": "building", "pixel_x": 2437.4, "pixel_y": 1945.0, "easting": 564867.8, "northing": 345317.3, "epsg_source": 22391}}, {"type": "Feature", "geometry": {"type": "Point", "coordinates": [10.56635, 36.41169]}, "properties": {"record_id": "oai:u-bordeaux-montaigne.fr:340433", "symbol_class": "building", "pixel_x": 1231.7, "pixel_y": 1948.5, "easting": 559695.8, "northing": 345702.5, "epsg_source": 22391}}, {"type": "Feature", "geometry": {"type": "Point", "coordinates": [10.56718, 36.41143]}, "properties": {"record_id": "oai:u-bordeaux-montaigne.fr:340433", "symbol_class": "building", "pixel_x": 1249.5, "pixel_y": 1953.9, "easting": 559770.1, "northing": 345673.9, "epsg_source": 22391}}, {"type": "Feature", "geometry": {"type": "Point", "coordinates": [10.62063, 36.40799]}, "properties": {"record_id": "oai:u-bordeaux-montaigne.fr:340433", "symbol_class": "building", "pixel_x": 2367.2, "pixel_y": 1948.2, "easting": 564565.6, "northing": 345327.0, "epsg_source": 22391}}, {"type": "Feature", "geometry": {"type": "Point", "coordinates": [10.61337, 36.4084]}, "properties": {"record_id": "oai:u-bordeaux-montaigne.fr:340433", "symbol_class": "building", "pixel_x": 2215.5, "pixel_y": 1950.5, "easting": 563914.4, "northing": 345367.7, "epsg_source": 22391}}, {"type": "Feature", "geometry": {"type": "Point", "coordinates": [10.62335, 36.40766]}, "properties": {"record_id": "oai:u-bordeaux-montaigne.fr:340433", "symbol_class": "building", "pixel_x": 2424.3, "pixel_y": 1952.2, "easting": 564809.5, "northing": 345291.5, "epsg_source": 22391}}, {"type": "Feature", "geometry": {"type": "Point", "coordinates": [10.5855, 36.4101]}, "properties": {"record_id": "oai:u-bordeaux-montaigne.fr:340433", "symbol_class": "building", "pixel_x": 1632.9, "pixel_y": 1955.9, "easting": 561413.8, "northing": 345538.1, "epsg_source": 22391}}, {"type": "Feature", "geometry": {"type": "Point", "coordinates": [10.62107, 36.40772]}, "properties": {"record_id": "oai:u-bordeaux-montaigne.fr:340433", "symbol_class": "building", "pixel_x": 2376.9, "pixel_y": 1954.6, "easting": 564605.1, "northing": 345297.0, "epsg_source": 22391}}, {"type": "Feature", "geometry": {"type": "Point", "coordinates": [10.59601, 36.40936]}, "properties": {"record_id": "oai:u-bordeaux-montaigne.fr:340433", "symbol_class": "building", "pixel_x": 1852.8, "pixel_y": 1956.6, "easting": 562357.0, "northing": 345462.3, "epsg_source": 22391}}, {"type": "Feature", "geometry": {"type": "Point", "coordinates": [10.61685, 36.40775]}, "properties": {"record_id": "oai:u-bordeaux-montaigne.fr:340433", "symbol_class": "building", "pixel_x": 2289.1, "pixel_y": 1961.4, "easting": 564226.7, "northing": 345297.4, "epsg_source": 22391}}, {"type": "Feature", "geometry": {"type": "Point", "coordinates": [10.62079, 36.40716]}, "properties": {"record_id": "oai:u-bordeaux-montaigne.fr:340433", "symbol_class": "building", "pixel_x": 2372.2, "pixel_y": 1969.7, "easting": 564580.3, "northing": 345235.0, "epsg_source": 22391}}, {"type": "Feature", "geometry": {"type": "Point", "coordinates": [10.58413, 36.40989]}, "properties": {"record_id": "oai:u-bordeaux-montaigne.fr:340433", "symbol_class": "building", "pixel_x": 1605.0, "pixel_y": 1964.0, "easting": 561291.6, "northing": 345513.4, "epsg_source": 22391}}, {"type": "Feature", "geometry": {"type": "Point", "coordinates": [10.57028, 36.4106]}, "properties": {"record_id": "oai:u-bordeaux-montaigne.fr:340433", "symbol_class": "building", "pixel_x": 1315.7, "pixel_y": 1969.9, "easting": 560048.9, "northing": 345584.5, "epsg_source": 22391}}, {"type": "Feature", "geometry": {"type": "Point", "coordinates": [10.61665, 36.40742]}, "properties": {"record_id": "oai:u-bordeaux-montaigne.fr:340433", "symbol_class": "building", "pixel_x": 2285.6, "pixel_y": 1970.4, "easting": 564208.9, "northing": 345260.5, "epsg_source": 22391}}, {"type": "Feature", "geometry": {"type": "Point", "coordinates": [10.61719, 36.4074]}, "properties": {"record_id": "oai:u-bordeaux-montaigne.fr:340433", "symbol_class": "building", "pixel_x": 2296.9, "pixel_y": 1969.8, "easting": 564257.5, "northing": 345259.2, "epsg_source": 22391}}, {"type": "Feature", "geometry": {"type": "Point", "coordinates": [10.6185, 36.40727]}, "properties": {"record_id": "oai:u-bordeaux-montaigne.fr:340433", "symbol_class": "building", "pixel_x": 2324.5, "pixel_y": 1970.8, "easting": 564375.4, "northing": 345245.9, "epsg_source": 22391}}, {"type": "Feature", "geometry": {"type": "Point", "coordinates": [10.62145, 36.40693]}, "properties": {"record_id": "oai:u-bordeaux-montaigne.fr:340433", "symbol_class": "building", "pixel_x": 2386.5, "pixel_y": 1974.6, "easting": 564640.0, "northing": 345209.3, "epsg_source": 22391}}, {"type": "Feature", "geometry": {"type": "Point", "coordinates": [10.6237, 36.40668]}, "properties": {"record_id": "oai:u-bordeaux-montaigne.fr:340433", "symbol_class": "building", "pixel_x": 2433.8, "pixel_y": 1977.1, "easting": 564842.2, "northing": 345183.4, "epsg_source": 22391}}, {"type": "Feature", "geometry": {"type": "Point", "coordinates": [10.57083, 36.41022]}, "properties": {"record_id": "oai:u-bordeaux-montaigne.fr:340433", "symbol_class": "building", "pixel_x": 1327.9, "pixel_y": 1978.9, "easting": 560098.6, "northing": 345542.3, "epsg_source": 22391}}, {"type": "Feature", "geometry": {"type": "Point", "coordinates": [10.57872, 36.40967]}, "properties": {"record_id": "oai:u-bordeaux-montaigne.fr:340433", "symbol_class": "building", "pixel_x": 1492.9, "pixel_y": 1979.3, "easting": 560806.2, "northing": 345486.1, "epsg_source": 22391}}, {"type": "Feature", "geometry": {"type": "Point", "coordinates": [10.56642, 36.41031]}, "properties": {"record_id": "oai:u-bordeaux-montaigne.fr:340433", "symbol_class": "building", "pixel_x": 1236.0, "pixel_y": 1984.4, "easting": 559702.7, "northing": 345549.8, "epsg_source": 22391}}, {"type": "Feature", "geometry": {"type": "Point", "coordinates": [10.61524, 36.40697]}, "properties": {"record_id": "oai:u-bordeaux-montaigne.fr:340433", "symbol_class": "building", "pixel_x": 2257.3, "pixel_y": 1984.5, "easting": 564082.7, "northing": 345210.4, "epsg_source": 22391}}, {"type": "Feature", "geometry": {"type": "Point", "coordinates": [10.57661, 36.40954]}, "properties": {"record_id": "oai:u-bordeaux-montaigne.fr:340433", "symbol_class": "building", "pixel_x": 1449.4, "pixel_y": 1986.3, "easting": 560617.5, "northing": 345470.7, "epsg_source": 22391}}, {"type": "Feature", "geometry": {"type": "Point", "coordinates": [10.61822, 36.40652]}, "properties": {"record_id": "oai:u-bordeaux-montaigne.fr:340433", "symbol_class": "building", "pixel_x": 2320.3, "pixel_y": 1991.1, "easting": 564350.7, "northing": 345161.7, "epsg_source": 22391}}, {"type": "Feature", "geometry": {"type": "Point", "coordinates": [10.60237, 36.40763]}, "properties": {"record_id": "oai:u-bordeaux-montaigne.fr:340433", "symbol_class": "building", "pixel_x": 1988.5, "pixel_y": 1990.5, "easting": 562928.1, "northing": 345274.5, "epsg_source": 22391}}, {"type": "Feature", "geometry": {"type": "Point", "coordinates": [10.62151, 36.40631]}, "properties": {"record_id": "oai:u-bordeaux-montaigne.fr:340433", "symbol_class": "building", "pixel_x": 2389.0, "pixel_y": 1990.6, "easting": 564645.6, "northing": 345141.1, "epsg_source": 22391}}, {"type": "Feature", "geometry": {"type": "Point", "coordinates": [10.62494, 36.40603]}, "properties": {"record_id": "oai:u-bordeaux-montaigne.fr:340433", "symbol_class": "building", "pixel_x": 2460.9, "pixel_y": 1991.9, "easting": 564953.6, "northing": 345111.7, "epsg_source": 22391}}, {"type": "Feature", "geometry": {"type": "Point", "coordinates": [10.59076, 36.40825]}, "properties": {"record_id": "oai:u-bordeaux-montaigne.fr:340433", "symbol_class": "building", "pixel_x": 1746.0, "pixel_y": 1994.9, "easting": 561886.6, "northing": 345336.5, "epsg_source": 22391}}, {"type": "Feature", "geometry": {"type": "Point", "coordinates": [10.56698, 36.40966]}, "properties": {"record_id": "oai:u-bordeaux-montaigne.fr:340433", "symbol_class": "building", "pixel_x": 1249.1, "pixel_y": 2000.4, "easting": 559753.5, "northing": 345478.1, "epsg_source": 22391}}, {"type": "Feature", "geometry": {"type": "Point", "coordinates": [10.62171, 36.40601]}, "properties": {"record_id": "oai:u-bordeaux-montaigne.fr:340433", "symbol_class": "building", "pixel_x": 2393.8, "pixel_y": 1998.3, "easting": 564663.9, "northing": 345107.3, "epsg_source": 22391}}, {"type": "Feature", "geometry": {"type": "Point", "coordinates": [10.61386, 36.40639]}, "properties": {"record_id": "oai:u-bordeaux-montaigne.fr:340433", "symbol_class": "building", "pixel_x": 2230.0, "pixel_y": 2002.2, "easting": 563959.9, "northing": 345144.9, "epsg_source": 22391}}, {"type": "Feature", "geometry": {"type": "Point", "coordinates": [10.62826, 36.4054]}, "properties": {"record_id": "oai:u-bordeaux-montaigne.fr:340433", "symbol_class": "building", "pixel_x": 2531.2, "pixel_y": 2002.5, "easting": 565251.8, "northing": 345044.1, "epsg_source": 22391}}, {"type": "Feature", "geometry": {"type": "Point", "coordinates": [10.60041, 36.40725]}, "properties": {"record_id": "oai:u-bordeaux-montaigne.fr:340433", "symbol_class": "building", "pixel_x": 1948.6, "pixel_y": 2003.8, "easting": 562752.7, "northing": 345231.5, "epsg_source": 22391}}, {"type": "Feature", "geometry": {"type": "Point", "coordinates": [10.60967, 36.40603]}, "properties": {"record_id": "oai:u-bordeaux-montaigne.fr:340433", "symbol_class": "building", "pixel_x": 2143.7, "pixel_y": 2019.2, "easting": 563584.7, "northing": 345101.9, "epsg_source": 22391}}, {"type": "Feature", "geometry": {"type": "Point", "coordinates": [10.61482, 36.40614]}, "properties": {"record_id": "oai:u-bordeaux-montaigne.fr:340433", "symbol_class": "building", "pixel_x": 2250.5, "pixel_y": 2007.1, "easting": 564046.3, "northing": 345117.7, "epsg_source": 22391}}, {"type": "Feature", "geometry": {"type": "Point", "coordinates": [10.62118, 36.40565]}, "properties": {"record_id": "oai:u-bordeaux-montaigne.fr:340433", "symbol_class": "building", "pixel_x": 2383.7, "pixel_y": 2008.5, "easting": 564617.1, "northing": 345067.7, "epsg_source": 22391}}, {"type": "Feature", "geometry": {"type": "Point", "coordinates": [10.60743, 36.40651]}, "properties": {"record_id": "oai:u-bordeaux-montaigne.fr:340433", "symbol_class": "building", "pixel_x": 2096.0, "pixel_y": 2010.7, "easting": 563382.8, "northing": 345153.7, "epsg_source": 22391}}, {"type": "Feature", "geometry": {"type": "Point", "coordinates": [10.62182, 36.40563]}, "properties": {"record_id": "oai:u-bordeaux-montaigne.fr:340433", "symbol_class": "building", "pixel_x": 2397.0, "pixel_y": 2007.9, "easting": 564674.3, "northing": 345065.6, "epsg_source": 22391}}, {"type": "Feature", "geometry": {"type": "Point", "coordinates": [10.59048, 36.40757]}, "properties": {"record_id": "oai:u-bordeaux-montaigne.fr:340433", "symbol_class": "building", "pixel_x": 1741.7, "pixel_y": 2013.3, "easting": 561862.1, "northing": 345260.2, "epsg_source": 22391}}, {"type": "Feature", "geometry": {"type": "Point", "coordinates": [10.61668, 36.40573]}, "properties": {"record_id": "oai:u-bordeaux-montaigne.fr:340433", "symbol_class": "building", "pixel_x": 2289.9, "pixel_y": 2014.5, "easting": 564213.2, "northing": 345073.2, "epsg_source": 22391}}, {"type": "Feature", "geometry": {"type": "Point", "coordinates": [10.61945, 36.40565]}, "properties": {"record_id": "oai:u-bordeaux-montaigne.fr:340433", "symbol_class": "building", "pixel_x": 2347.6, "pixel_y": 2011.7, "easting": 564461.5, "northing": 345065.9, "epsg_source": 22391}}, {"type": "Feature", "geometry": {"type": "Point", "coordinates": [10.60354, 36.40647]}, "properties": {"record_id": "oai:u-bordeaux-montaigne.fr:340433", "symbol_class": "building", "pixel_x": 2015.3, "pixel_y": 2018.7, "easting": 563033.9, "northing": 345146.7, "epsg_source": 22391}}, {"type": "Feature", "geometry": {"type": "Point", "coordinates": [10.60046, 36.40657]}, "properties": {"record_id": "oai:u-bordeaux-montaigne.fr:340433", "symbol_class": "building", "pixel_x": 1951.2, "pixel_y": 2021.5, "easting": 562758.3, "northing": 345156.1, "epsg_source": 22391}}, {"type": "Feature", "geometry": {"type": "Point", "coordinates": [10.6271, 36.40479]}, "properties": {"record_id": "oai:u-bordeaux-montaigne.fr:340433", "symbol_class": "building", "pixel_x": 2508.5, "pixel_y": 2020.4, "easting": 565148.6, "northing": 344975.9, "epsg_source": 22391}}, {"type": "Feature", "geometry": {"type": "Point", "coordinates": [10.5962, 36.40674]}, "properties": {"record_id": "oai:u-bordeaux-montaigne.fr:340433", "symbol_class": "building", "pixel_x": 1862.3, "pixel_y": 2024.7, "easting": 562376.0, "northing": 345172.1, "epsg_source": 22391}}, {"type": "Feature", "geometry": {"type": "Point", "coordinates": [10.61495, 36.40551]}, "properties": {"record_id": "oai:u-bordeaux-montaigne.fr:340433", "symbol_class": "building", "pixel_x": 2254.5, "pixel_y": 2023.4, "easting": 564058.3, "northing": 345047.8, "epsg_source": 22391}}, {"type": "Feature", "geometry": {"type": "Point", "coordinates": [10.62654, 36.40479]}, "properties": {"record_id": "oai:u-bordeaux-montaigne.fr:340433", "symbol_class": "building", "pixel_x": 2496.8, "pixel_y": 2021.3, "easting": 565098.1, "northing": 344975.9, "epsg_source": 22391}}, {"type": "Feature", "geometry": {"type": "Point", "coordinates": [10.61594, 36.40541]}, "properties": {"record_id": "oai:u-bordeaux-montaigne.fr:340433", "symbol_class": "building", "pixel_x": 2275.2, "pixel_y": 2024.2, "easting": 564146.7, "northing": 345037.2, "epsg_source": 22391}}, {"type": "Feature", "geometry": {"type": "Point", "coordinates": [10.61286, 36.4055]}, "properties": {"record_id": "oai:u-bordeaux-montaigne.fr:340433", "symbol_class": "building", "pixel_x": 2211.0, "pixel_y": 2027.3, "easting": 563870.7, "northing": 345045.4, "epsg_source": 22391}}, {"type": "Feature", "geometry": {"type": "Point", "coordinates": [10.6243, 36.40472]}, "properties": {"record_id": "oai:u-bordeaux-montaigne.fr:340433", "symbol_class": "building", "pixel_x": 2450.4, "pixel_y": 2027.1, "easting": 564897.4, "northing": 344966.9, "epsg_source": 22391}}, {"type": "Feature", "geometry": {"type": "Point", "coordinates": [10.61329, 36.40543]}, "properties": {"record_id": "oai:u-bordeaux-montaigne.fr:340433", "symbol_class": "building", "pixel_x": 2220.2, "pixel_y": 2028.3, "easting": 563909.5, "northing": 345038.3, "epsg_source": 22391}}, {"type": "Feature", "geometry": {"type": "Point", "coordinates": [10.62613, 36.40448]}, "properties": {"record_id": "oai:u-bordeaux-montaigne.fr:340433", "symbol_class": "building", "pixel_x": 2488.9, "pixel_y": 2030.3, "easting": 565061.4, "northing": 344940.9, "epsg_source": 22391}}, {"type": "Feature", "geometry": {"type": "Point", "coordinates": [10.6217, 36.4048]}, "properties": {"record_id": "oai:u-bordeaux-montaigne.fr:340433", "symbol_class": "building", "pixel_x": 2396.1, "pixel_y": 2029.8, "easting": 564663.8, "northing": 344973.5, "epsg_source": 22391}}, {"type": "Feature", "geometry": {"type": "Point", "coordinates": [10.62102, 36.40478]}, "properties": {"record_id": "oai:u-bordeaux-montaigne.fr:340433", "symbol_class": "building", "pixel_x": 2382.1, "pixel_y": 2031.4, "easting": 564603.2, "northing": 344971.4, "epsg_source": 22391}}, {"type": "Feature", "geometry": {"type": "Point", "coordinates": [10.57139, 36.40808]}, "properties": {"record_id": "oai:u-bordeaux-montaigne.fr:340433", "symbol_class": "building", "pixel_x": 1344.1, "pixel_y": 2034.0, "easting": 560150.2, "northing": 345304.7, "epsg_source": 22391}}, {"type": "Feature", "geometry": {"type": "Point", "coordinates": [10.59156, 36.4066]}, "properties": {"record_id": "oai:u-bordeaux-montaigne.fr:340433", "symbol_class": "building", "pixel_x": 1766.2, "pixel_y": 2036.7, "easting": 561960.0, "northing": 345153.3, "epsg_source": 22391}}, {"type": "Feature", "geometry": {"type": "Point", "coordinates": [10.6183, 36.4046]}, "properties": {"record_id": "oai:u-bordeaux-montaigne.fr:340433", "symbol_class": "building", "pixel_x": 2326.0, "pixel_y": 2041.2, "easting": 564359.2, "northing": 344949.0, "epsg_source": 22391}}, {"type": "Feature", "geometry": {"type": "Point", "coordinates": [10.62254, 36.40425]}, "properties": {"record_id": "oai:u-bordeaux-montaigne.fr:340433", "symbol_class": "building", "pixel_x": 2414.8, "pixel_y": 2042.8, "easting": 564739.7, "northing": 344912.8, "epsg_source": 22391}}, {"type": "Feature", "geometry": {"type": "Point", "coordinates": [10.61452, 36.40457]}, "properties": {"record_id": "oai:u-bordeaux-montaigne.fr:340433", "symbol_class": "building", "pixel_x": 2247.5, "pixel_y": 2048.8, "easting": 564020.4, "northing": 344942.7, "epsg_source": 22391}}, {"type": "Feature", "geometry": {"type": "Point", "coordinates": [10.61359, 36.40429]}, "properties": {"record_id": "oai:u-bordeaux-montaigne.fr:340433", "symbol_class": "building", "pixel_x": 2228.7, "pixel_y": 2057.7, "easting": 563936.8, "northing": 344911.8, "epsg_source": 22391}}, {"type": "Feature", "geometry": {"type": "Point", "coordinates": [10.58778, 36.40622]}, "properties": {"record_id": "oai:u-bordeaux-montaigne.fr:340433", "symbol_class": "building", "pixel_x": 1688.6, "pixel_y": 2053.3, "easting": 561621.6, "northing": 345109.3, "epsg_source": 22391}}, {"type": "Feature", "geometry": {"type": "Point", "coordinates": [10.56736, 36.4074]}, "properties": {"record_id": "oai:u-bordeaux-montaigne.fr:340433", "symbol_class": "building", "pixel_x": 1261.7, "pixel_y": 2058.8, "easting": 559789.2, "northing": 345227.5, "epsg_source": 22391}}, {"type": "Feature", "geometry": {"type": "Point", "coordinates": [10.60982, 36.40427]}, "properties": {"record_id": "oai:u-bordeaux-montaigne.fr:340433", "symbol_class": "building", "pixel_x": 2150.5, "pixel_y": 2065.0, "easting": 563599.1, "northing": 344906.9, "epsg_source": 22391}}, {"type": "Feature", "geometry": {"type": "Point", "coordinates": [10.58556, 36.4056]}, "properties": {"record_id": "oai:u-bordeaux-montaigne.fr:340433", "symbol_class": "building", "pixel_x": 1643.7, "pixel_y": 2073.5, "easting": 561422.8, "northing": 345039.1, "epsg_source": 22391}}, {"type": "Feature", "geometry": {"type": "Point", "coordinates": [10.62417, 36.40294]}, "properties": {"record_id": "oai:u-bordeaux-montaigne.fr:340433", "symbol_class": "building", "pixel_x": 2451.4, "pixel_y": 2074.0, "easting": 564886.7, "northing": 344769.0, "epsg_source": 22391}}, {"type": "Feature", "geometry": {"type": "Point", "coordinates": [10.61686, 36.40254]}, "properties": {"record_id": "oai:u-bordeaux-montaigne.fr:340433", "symbol_class": "building", "pixel_x": 2300.4, "pixel_y": 2097.6, "easting": 564231.7, "northing": 344719.8, "epsg_source": 22391}}, {"type": "Feature", "geometry": {"type": "Point", "coordinates": [10.62092, 36.40222]}, "properties": {"record_id": "oai:u-bordeaux-montaigne.fr:340433", "symbol_class": "building", "pixel_x": 2385.6, "pixel_y": 2098.7, "easting": 564596.5, "northing": 344686.9, "epsg_source": 22391}}, {"type": "Feature", "geometry": {"type": "Point", "coordinates": [10.62498, 36.40185]}, "properties": {"record_id": "oai:u-bordeaux-montaigne.fr:340433", "symbol_class": "building", "pixel_x": 2470.7, "pixel_y": 2101.1, "easting": 564961.0, "northing": 344648.4, "epsg_source": 22391}}, {"type": "Feature", "geometry": {"type": "Point", "coordinates": [10.61997, 36.40218]}, "properties": {"record_id": "oai:u-bordeaux-montaigne.fr:340433", "symbol_class": "building", "pixel_x": 2365.8, "pixel_y": 2101.5, "easting": 564511.0, "northing": 344681.3, "epsg_source": 22391}}, {"type": "Feature", "geometry": {"type": "Point", "coordinates": [10.61782, 36.402]}, "properties": {"record_id": "oai:u-bordeaux-montaigne.fr:340433", "symbol_class": "building", "pixel_x": 2321.5, "pixel_y": 2109.9, "easting": 564318.1, "northing": 344660.7, "epsg_source": 22391}}, {"type": "Feature", "geometry": {"type": "Point", "coordinates": [10.61605, 36.40176]}, "properties": {"record_id": "oai:u-bordeaux-montaigne.fr:340433", "symbol_class": "building", "pixel_x": 2285.3, "pixel_y": 2119.4, "easting": 564160.1, "northing": 344632.8, "epsg_source": 22391}}, {"type": "Feature", "geometry": {"type": "Point", "coordinates": [10.6129, 36.40193]}, "properties": {"record_id": "oai:u-bordeaux-montaigne.fr:340433", "symbol_class": "building", "pixel_x": 2219.5, "pixel_y": 2120.6, "easting": 563877.3, "northing": 344649.6, "epsg_source": 22391}}, {"type": "Feature", "geometry": {"type": "Point", "coordinates": [10.57087, 36.40419]}, "properties": {"record_id": "oai:u-bordeaux-montaigne.fr:340433", "symbol_class": "building", "pixel_x": 1341.5, "pixel_y": 2136.6, "easting": 560106.7, "northing": 344873.3, "epsg_source": 22391}}, {"type": "Feature", "geometry": {"type": "Point", "coordinates": [10.58147, 36.40331]}, "properties": {"record_id": "oai:u-bordeaux-montaigne.fr:340433", "symbol_class": "building", "pixel_x": 1563.7, "pixel_y": 2140.8, "easting": 561058.1, "northing": 344782.1, "epsg_source": 22391}}, {"type": "Feature", "geometry": {"type": "Point", "coordinates": [10.56332, 36.40433]}, "properties": {"record_id": "oai:u-bordeaux-montaigne.fr:340433", "symbol_class": "building", "pixel_x": 1184.3, "pixel_y": 2146.3, "easting": 559429.5, "northing": 344884.6, "epsg_source": 22391}}, {"type": "Feature", "geometry": {"type": "Point", "coordinates": [10.61812, 36.39892]}, "properties": {"record_id": "oai:u-bordeaux-montaigne.fr:340433", "symbol_class": "building", "pixel_x": 2334.3, "pixel_y": 2190.0, "easting": 564347.5, "northing": 344319.2, "epsg_source": 22391}}, {"type": "Feature", "geometry": {"type": "Point", "coordinates": [10.5666, 36.40205]}, "properties": {"record_id": "oai:u-bordeaux-montaigne.fr:340433", "symbol_class": "building", "pixel_x": 1257.3, "pixel_y": 2200.3, "easting": 559725.0, "northing": 344633.0, "epsg_source": 22391}}, {"type": "Feature", "geometry": {"type": "Point", "coordinates": [10.56344, 36.40119]}, "properties": {"record_id": "oai:u-bordeaux-montaigne.fr:340433", "symbol_class": "building", "pixel_x": 1193.5, "pixel_y": 2228.2, "easting": 559442.5, "northing": 344536.2, "epsg_source": 22391}}, {"type": "Feature", "geometry": {"type": "Point", "coordinates": [10.5665, 36.4007]}, "properties": {"record_id": "oai:u-bordeaux-montaigne.fr:340433", "symbol_class": "building", "pixel_x": 1258.0, "pixel_y": 2235.7, "easting": 559717.1, "northing": 344483.4, "epsg_source": 22391}}, {"type": "Feature", "geometry": {"type": "Point", "coordinates": [10.56392, 36.40038]}, "properties": {"record_id": "oai:u-bordeaux-montaigne.fr:340433", "symbol_class": "building", "pixel_x": 1205.2, "pixel_y": 2248.6, "easting": 559486.5, "northing": 344446.6, "epsg_source": 22391}}, {"type": "Feature", "geometry": {"type": "Point", "coordinates": [10.61907, 36.39648]}, "properties": {"record_id": "oai:u-bordeaux-montaigne.fr:340433", "symbol_class": "building", "pixel_x": 2359.3, "pixel_y": 2252.2, "easting": 564434.9, "northing": 344048.5, "epsg_source": 22391}}, {"type": "Feature", "geometry": {"type": "Point", "coordinates": [10.6183, 36.39627]}, "properties": {"record_id": "oai:u-bordeaux-montaigne.fr:340433", "symbol_class": "building", "pixel_x": 2343.8, "pixel_y": 2258.9, "easting": 564366.5, "northing": 344025.4, "epsg_source": 22391}}, {"type": "Feature", "geometry": {"type": "Point", "coordinates": [10.61827, 36.39576]}, "properties": {"record_id": "oai:u-bordeaux-montaigne.fr:340433", "symbol_class": "building", "pixel_x": 2344.2, "pixel_y": 2272.5, "easting": 564363.9, "northing": 343968.2, "epsg_source": 22391}}, {"type": "Feature", "geometry": {"type": "Point", "coordinates": [10.56416, 36.39918]}, "properties": {"record_id": "oai:u-bordeaux-montaigne.fr:340433", "symbol_class": "building", "pixel_x": 1212.7, "pixel_y": 2279.5, "easting": 559508.6, "northing": 344313.8, "epsg_source": 22391}}, {"type": "Feature", "geometry": {"type": "Point", "coordinates": [10.61625, 36.39574]}, "properties": {"record_id": "oai:u-bordeaux-montaigne.fr:340433", "symbol_class": "building", "pixel_x": 2302.4, "pixel_y": 2276.5, "easting": 564183.1, "northing": 343965.0, "epsg_source": 22391}}, {"type": "Feature", "geometry": {"type": "Point", "coordinates": [10.56612, 36.39823]}, "properties": {"record_id": "oai:u-bordeaux-montaigne.fr:340433", "symbol_class": "building", "pixel_x": 1255.5, "pixel_y": 2300.9, "easting": 559685.3, "northing": 344209.5, "epsg_source": 22391}}, {"type": "Feature", "geometry": {"type": "Point", "coordinates": [10.5692, 36.39732]}, "properties": {"record_id": "oai:u-bordeaux-montaigne.fr:340433", "symbol_class": "building", "pixel_x": 1321.4, "pixel_y": 2319.4, "easting": 559962.2, "northing": 344109.7, "epsg_source": 22391}}, {"type": "Feature", "geometry": {"type": "Point", "coordinates": [10.55587, 36.39663]}, "properties": {"record_id": "oai:u-bordeaux-montaigne.fr:340433", "symbol_class": "building", "pixel_x": 1045.8, "pixel_y": 2360.9, "easting": 558766.9, "northing": 344026.0, "epsg_source": 22391}}, {"type": "Feature", "geometry": {"type": "Point", "coordinates": [10.56386, 36.39605]}, "properties": {"record_id": "oai:u-bordeaux-montaigne.fr:340433", "symbol_class": "building", "pixel_x": 1213.1, "pixel_y": 2361.9, "easting": 559484.2, "northing": 343966.6, "epsg_source": 22391}}, {"type": "Feature", "geometry": {"type": "Point", "coordinates": [10.55224, 36.39507]}, "properties": {"record_id": "oai:u-bordeaux-montaigne.fr:340433", "symbol_class": "building", "pixel_x": 973.8, "pixel_y": 2408.2, "easting": 558443.1, "northing": 343850.8, "epsg_source": 22391}}, {"type": "Feature", "geometry": {"type": "Point", "coordinates": [10.55182, 36.39415]}, "properties": {"record_id": "oai:u-bordeaux-montaigne.fr:340433", "symbol_class": "building", "pixel_x": 967.1, "pixel_y": 2433.2, "easting": 558406.1, "northing": 343747.5, "epsg_source": 22391}}, {"type": "Feature", "geometry": {"type": "Point", "coordinates": [10.56085, 36.39304]}, "properties": {"record_id": "oai:u-bordeaux-montaigne.fr:340433", "symbol_class": "building", "pixel_x": 1157.0, "pixel_y": 2446.1, "easting": 559216.8, "northing": 343630.4, "epsg_source": 22391}}, {"type": "Feature", "geometry": {"type": "Point", "coordinates": [10.56126, 36.39291]}, "properties": {"record_id": "oai:u-bordeaux-montaigne.fr:340433", "symbol_class": "building", "pixel_x": 1165.8, "pixel_y": 2448.8, "easting": 559253.8, "northing": 343615.9, "epsg_source": 22391}}, {"type": "Feature", "geometry": {"type": "Point", "coordinates": [10.58484, 36.37839]}, "properties": {"record_id": "oai:u-bordeaux-montaigne.fr:340433", "symbol_class": "building", "pixel_x": 1686.6, "pixel_y": 2786.5, "easting": 561379.6, "northing": 342020.1, "epsg_source": 22391}}, {"type": "Feature", "geometry": {"type": "Point", "coordinates": [10.55488, 36.37858]}, "properties": {"record_id": "oai:u-bordeaux-montaigne.fr:340433", "symbol_class": "building", "pixel_x": 1063.5, "pixel_y": 2835.0, "easting": 558691.7, "northing": 342022.4, "epsg_source": 22391}}, {"type": "Feature", "geometry": {"type": "Point", "coordinates": [10.54945, 36.37862]}, "properties": {"record_id": "oai:u-bordeaux-montaigne.fr:340433", "symbol_class": "building", "pixel_x": 950.5, "pixel_y": 2843.5, "easting": 558204.5, "northing": 342023.9, "epsg_source": 22391}}, {"type": "Feature", "geometry": {"type": "Point", "coordinates": [10.54795, 36.37864]}, "properties": {"record_id": "oai:u-bordeaux-montaigne.fr:340433", "symbol_class": "building", "pixel_x": 919.5, "pixel_y": 2845.7, "easting": 558070.7, "northing": 342025.0, "epsg_source": 22391}}, {"type": "Feature", "geometry": {"type": "Point", "coordinates": [10.89196, 36.34884]}, "properties": {"record_id": "oai:u-bordeaux-montaigne.fr:340433", "symbol_class": "building", "pixel_x": 8133.3, "pixel_y": 3000.8, "easting": 588960.2, "northing": 338979.0, "epsg_source": 22391}}, {"type": "Feature", "geometry": {"type": "Point", "coordinates": [10.89273, 36.3398]}, "properties": {"record_id": "oai:u-bordeaux-montaigne.fr:340433", "symbol_class": "building", "pixel_x": 8169.3, "pixel_y": 3235.5, "easting": 589039.7, "northing": 337977.8, "epsg_source": 22391}}, {"type": "Feature", "geometry": {"type": "Point", "coordinates": [10.87055, 36.34001]}, "properties": {"record_id": "oai:u-bordeaux-montaigne.fr:340433", "symbol_class": "building", "pixel_x": 7707.7, "pixel_y": 3271.1, "easting": 587048.7, "northing": 337980.7, "epsg_source": 22391}}, {"type": "Feature", "geometry": {"type": "Point", "coordinates": [10.86948, 36.34004]}, "properties": {"record_id": "oai:u-bordeaux-montaigne.fr:340433", "symbol_class": "building", "pixel_x": 7685.4, "pixel_y": 3272.4, "easting": 586952.7, "northing": 337982.7, "epsg_source": 22391}}, {"type": "Feature", "geometry": {"type": "Point", "coordinates": [10.84822, 36.3402]}, "properties": {"record_id": "oai:u-bordeaux-montaigne.fr:340433", "symbol_class": "building", "pixel_x": 7243.3, "pixel_y": 3307.5, "easting": 585045.2, "northing": 337981.7, "epsg_source": 22391}}, {"type": "Feature", "geometry": {"type": "Point", "coordinates": [10.68069, 36.32495]}, "properties": {"record_id": "oai:u-bordeaux-montaigne.fr:340433", "symbol_class": "building", "pixel_x": 3793.4, "pixel_y": 4012.0, "easting": 570024.7, "northing": 336156.9, "epsg_source": 22391}}, {"type": "Feature", "geometry": {"type": "Point", "coordinates": [10.89979, 36.30357]}, "properties": {"record_id": "oai:u-bordeaux-montaigne.fr:340433", "symbol_class": "building", "pixel_x": 8396.0, "pixel_y": 4169.8, "easting": 589714.4, "northing": 333965.3, "epsg_source": 22391}}, {"type": "Feature", "geometry": {"type": "Point", "coordinates": [10.89938, 36.30355]}, "properties": {"record_id": "oai:u-bordeaux-montaigne.fr:340433", "symbol_class": "building", "pixel_x": 8387.5, "pixel_y": 4171.1, "easting": 589677.4, "northing": 333962.7, "epsg_source": 22391}}, {"type": "Feature", "geometry": {"type": "Point", "coordinates": [10.88127, 36.30375]}, "properties": {"record_id": "oai:u-bordeaux-montaigne.fr:340433", "symbol_class": "building", "pixel_x": 8010.5, "pixel_y": 4199.5, "easting": 588051.4, "northing": 333968.0, "epsg_source": 22391}}, {"type": "Feature", "geometry": {"type": "Point", "coordinates": [10.88021, 36.30378]}, "properties": {"record_id": "oai:u-bordeaux-montaigne.fr:340433", "symbol_class": "building", "pixel_x": 7988.5, "pixel_y": 4200.5, "easting": 587956.7, "northing": 333971.1, "epsg_source": 22391}}, {"type": "Feature", "geometry": {"type": "Point", "coordinates": [10.86508, 36.30391]}, "properties": {"record_id": "oai:u-bordeaux-montaigne.fr:340433", "symbol_class": "building", "pixel_x": 7673.4, "pixel_y": 4225.3, "easting": 586597.5, "northing": 333971.2, "epsg_source": 22391}}, {"type": "Feature", "geometry": {"type": "Point", "coordinates": [10.90072, 36.29447]}, "properties": {"record_id": "oai:u-bordeaux-montaigne.fr:340433", "symbol_class": "building", "pixel_x": 8435.5, "pixel_y": 4406.0, "easting": 589808.4, "northing": 332956.9, "epsg_source": 22391}}, {"type": "Feature", "geometry": {"type": "Point", "coordinates": [10.89706, 36.2945]}, "properties": {"record_id": "oai:u-bordeaux-montaigne.fr:340433", "symbol_class": "building", "pixel_x": 8359.3, "pixel_y": 4412.0, "easting": 589479.8, "northing": 332956.7, "epsg_source": 22391}}, {"type": "Feature", "geometry": {"type": "Point", "coordinates": [10.8511, 36.2949]}, "properties": {"record_id": "oai:u-bordeaux-montaigne.fr:340433", "symbol_class": "building", "pixel_x": 7402.5, "pixel_y": 4486.5, "easting": 585352.3, "northing": 332960.2, "epsg_source": 22391}}, {"type": "Feature", "geometry": {"type": "Point", "coordinates": [10.9001, 36.28539]}, "properties": {"record_id": "oai:u-bordeaux-montaigne.fr:340433", "symbol_class": "building", "pixel_x": 8442.7, "pixel_y": 4644.7, "easting": 589763.2, "northing": 331948.5, "epsg_source": 22391}}, {"type": "Feature", "geometry": {"type": "Point", "coordinates": [10.89952, 36.2854]}, "properties": {"record_id": "oai:u-bordeaux-montaigne.fr:340433", "symbol_class": "building", "pixel_x": 8430.6, "pixel_y": 4645.3, "easting": 589711.1, "northing": 331950.0, "epsg_source": 22391}}, {"type": "Feature", "geometry": {"type": "Point", "coordinates": [10.89881, 36.28542]}, "properties": {"record_id": "oai:u-bordeaux-montaigne.fr:340433", "symbol_class": "building", "pixel_x": 8415.7, "pixel_y": 4646.1, "easting": 589647.0, "northing": 331951.4, "epsg_source": 22391}}, {"type": "Feature", "geometry": {"type": "Point", "coordinates": [10.89734, 36.28547]}, "properties": {"record_id": "oai:u-bordeaux-montaigne.fr:340433", "symbol_class": "building", "pixel_x": 8385.1, "pixel_y": 4647.6, "easting": 589515.1, "northing": 331955.4, "epsg_source": 22391}}, {"type": "Feature", "geometry": {"type": "Point", "coordinates": [10.88784, 36.28554]}, "properties": {"record_id": "oai:u-bordeaux-montaigne.fr:340433", "symbol_class": "building", "pixel_x": 8187.3, "pixel_y": 4663.5, "easting": 588661.7, "northing": 331954.2, "epsg_source": 22391}}, {"type": "Feature", "geometry": {"type": "Point", "coordinates": [10.83403, 36.28602]}, "properties": {"record_id": "oai:u-bordeaux-montaigne.fr:340433", "symbol_class": "building", "pixel_x": 7067.0, "pixel_y": 4750.3, "easting": 583829.3, "northing": 331959.7, "epsg_source": 22391}}, {"type": "Feature", "geometry": {"type": "Point", "coordinates": [10.79793, 36.28637]}, "properties": {"record_id": "oai:u-bordeaux-montaigne.fr:340433", "symbol_class": "building", "pixel_x": 6315.3, "pixel_y": 4807.5, "easting": 580587.1, "northing": 331968.2, "epsg_source": 22391}}, {"type": "Feature", "geometry": {"type": "Point", "coordinates": [10.77469, 36.2866]}, "properties": {"record_id": "oai:u-bordeaux-montaigne.fr:340433", "symbol_class": "building", "pixel_x": 5831.3, "pixel_y": 4844.0, "easting": 578499.9, "northing": 331974.7, "epsg_source": 22391}}, {"type": "Feature", "geometry": {"type": "Point", "coordinates": [10.7422, 36.28685]}, "properties": {"record_id": "oai:u-bordeaux-montaigne.fr:340433", "symbol_class": "building", "pixel_x": 5154.9, "pixel_y": 4896.8, "easting": 575581.8, "northing": 331976.8, "epsg_source": 22391}}, {"type": "Feature", "geometry": {"type": "Point", "coordinates": [10.67497, 36.28733]}, "properties": {"record_id": "oai:u-bordeaux-montaigne.fr:340433", "symbol_class": "building", "pixel_x": 3755.3, "pixel_y": 5006.1, "easting": 569544.3, "northing": 331980.3, "epsg_source": 22391}}, {"type": "Feature", "geometry": {"type": "Point", "coordinates": [10.67162, 36.28736]}, "properties": {"record_id": "oai:u-bordeaux-montaigne.fr:340433", "symbol_class": "building", "pixel_x": 3685.5, "pixel_y": 5011.5, "easting": 569243.4, "northing": 331980.6, "epsg_source": 22391}}, {"type": "Feature", "geometry": {"type": "Point", "coordinates": [10.66932, 36.28736]}, "properties": {"record_id": "oai:u-bordeaux-montaigne.fr:340433", "symbol_class": "building", "pixel_x": 3637.6, "pixel_y": 5015.5, "easting": 569036.5, "northing": 331979.6, "epsg_source": 22391}}, {"type": "Feature", "geometry": {"type": "Point", "coordinates": [10.66502, 36.2874]}, "properties": {"record_id": "oai:u-bordeaux-montaigne.fr:340433", "symbol_class": "building", "pixel_x": 3548.2, "pixel_y": 5022.3, "easting": 568650.9, "northing": 331980.6, "epsg_source": 22391}}, {"type": "Feature", "geometry": {"type": "Point", "coordinates": [10.78063, 36.27744]}, "properties": {"record_id": "oai:u-bordeaux-montaigne.fr:340433", "symbol_class": "building", "pixel_x": 5974.8, "pixel_y": 5072.7, "easting": 579042.5, "northing": 330963.5, "epsg_source": 22391}}, {"type": "Feature", "geometry": {"type": "Point", "coordinates": [10.77045, 36.27754]}, "properties": {"record_id": "oai:u-bordeaux-montaigne.fr:340433", "symbol_class": "building", "pixel_x": 5762.8, "pixel_y": 5088.5, "easting": 578127.9, "northing": 330967.0, "epsg_source": 22391}}, {"type": "Feature", "geometry": {"type": "Point", "coordinates": [10.76842, 36.27756]}, "properties": {"record_id": "oai:u-bordeaux-montaigne.fr:340433", "symbol_class": "building", "pixel_x": 5720.5, "pixel_y": 5092.0, "easting": 577945.4, "northing": 330966.6, "epsg_source": 22391}}, {"type": "Feature", "geometry": {"type": "Point", "coordinates": [10.61788, 36.28776]}, "properties": {"record_id": "oai:u-bordeaux-montaigne.fr:340433", "symbol_class": "building", "pixel_x": 2566.6, "pixel_y": 5097.7, "easting": 564417.2, "northing": 331988.4, "epsg_source": 22391}}, {"type": "Feature", "geometry": {"type": "Point", "coordinates": [10.90149, 36.2672]}, "properties": {"record_id": "oai:u-bordeaux-montaigne.fr:340433", "symbol_class": "building", "pixel_x": 8511.8, "pixel_y": 5117.5, "easting": 589908.9, "northing": 329933.0, "epsg_source": 22391}}, {"type": "Feature", "geometry": {"type": "Point", "coordinates": [10.89808, 36.26728]}, "properties": {"record_id": "oai:u-bordeaux-montaigne.fr:340433", "symbol_class": "building", "pixel_x": 8440.7, "pixel_y": 5121.9, "easting": 589602.4, "northing": 329938.1, "epsg_source": 22391}}, {"type": "Feature", "geometry": {"type": "Point", "coordinates": [10.89777, 36.26724]}, "properties": {"record_id": "oai:u-bordeaux-montaigne.fr:340433", "symbol_class": "building", "pixel_x": 8434.3, "pixel_y": 5123.5, "easting": 589574.5, "northing": 329933.4, "epsg_source": 22391}}, {"type": "Feature", "geometry": {"type": "Point", "coordinates": [10.74382, 36.27777]}, "properties": {"record_id": "oai:u-bordeaux-montaigne.fr:340433", "symbol_class": "building", "pixel_x": 5208.3, "pixel_y": 5131.3, "easting": 575736.2, "northing": 330970.7, "epsg_source": 22391}}, {"type": "Feature", "geometry": {"type": "Point", "coordinates": [10.87967, 36.26749]}, "properties": {"record_id": "oai:u-bordeaux-montaigne.fr:340433", "symbol_class": "building", "pixel_x": 8057.1, "pixel_y": 5150.5, "easting": 587948.1, "northing": 329944.8, "epsg_source": 22391}}, {"type": "Feature", "geometry": {"type": "Point", "coordinates": [10.57939, 36.28803]}, "properties": {"record_id": "oai:u-bordeaux-montaigne.fr:340433", "symbol_class": "building", "pixel_x": 1765.3, "pixel_y": 5159.5, "easting": 560960.6, "northing": 331993.6, "epsg_source": 22391}}, {"type": "Feature", "geometry": {"type": "Point", "coordinates": [10.5577, 36.28817]}, "properties": {"record_id": "oai:u-bordeaux-montaigne.fr:340433", "symbol_class": "building", "pixel_x": 1313.7, "pixel_y": 5194.7, "easting": 559012.6, "northing": 331995.3, "epsg_source": 22391}}, {"type": "Feature", "geometry": {"type": "Point", "coordinates": [10.55476, 36.28814]}, "properties": {"record_id": "oai:u-bordeaux-montaigne.fr:340433", "symbol_class": "building", "pixel_x": 1252.5, "pixel_y": 5200.6, "easting": 558748.2, "northing": 331990.4, "epsg_source": 22391}}, {"type": "Feature", "geometry": {"type": "Point", "coordinates": [10.84734, 36.26775]}, "properties": {"record_id": "oai:u-bordeaux-montaigne.fr:340433", "symbol_class": "building", "pixel_x": 7384.0, "pixel_y": 5203.5, "easting": 585044.3, "northing": 329944.7, "epsg_source": 22391}}, {"type": "Feature", "geometry": {"type": "Point", "coordinates": [10.69171, 36.27812]}, "properties": {"record_id": "oai:u-bordeaux-montaigne.fr:340433", "symbol_class": "building", "pixel_x": 4123.2, "pixel_y": 5216.6, "easting": 571055.3, "northing": 330971.0, "epsg_source": 22391}}, {"type": "Feature", "geometry": {"type": "Point", "coordinates": [10.66943, 36.27827]}, "properties": {"record_id": "oai:u-bordeaux-montaigne.fr:340433", "symbol_class": "building", "pixel_x": 3659.5, "pixel_y": 5253.2, "easting": 569055.0, "northing": 330970.8, "epsg_source": 22391}}, {"type": "Feature", "geometry": {"type": "Point", "coordinates": [10.65848, 36.27836]}, "properties": {"record_id": "oai:u-bordeaux-montaigne.fr:340433", "symbol_class": "building", "pixel_x": 3431.5, "pixel_y": 5270.6, "easting": 568071.4, "northing": 330973.1, "epsg_source": 22391}}, {"type": "Feature", "geometry": {"type": "Point", "coordinates": [10.62375, 36.27861]}, "properties": {"record_id": "oai:u-bordeaux-montaigne.fr:340433", "symbol_class": "building", "pixel_x": 2708.3, "pixel_y": 5326.3, "easting": 564952.2, "northing": 330978.0, "epsg_source": 22391}}, {"type": "Feature", "geometry": {"type": "Point", "coordinates": [10.5916, 36.2788]}, "properties": {"record_id": "oai:u-bordeaux-montaigne.fr:340433", "symbol_class": "building", "pixel_x": 2038.8, "pixel_y": 5379.0, "easting": 562064.0, "northing": 330977.8, "epsg_source": 22391}}]}