{"type": "FeatureCollection", "features": [{"type": "Feature", "geometry": {"type": "Point", "coordinates": [9.45632, 37.40949]}, "properties": {"record_id": "oai:u-bordeaux-montaigne.fr:340354", "symbol_class": "building", "pixel_x": 6017.7, "pixel_y": 1472.5, "easting": 460672.8, "northing": 456294.3, "epsg_source": 22391}}, {"type": "Feature", "geometry": {"type": "Point", "coordinates": [9.41547, 37.40936]}, "properties": {"record_id": "oai:u-bordeaux-montaigne.fr:340354", "symbol_class": "building", "pixel_x": 5180.3, "pixel_y": 1534.1, "easting": 457056.1, "northing": 456297.1, "epsg_source": 22391}}, {"type": "Feature", "geometry": {"type": "Point", "coordinates": [9.3835, 37.40925]}, "properties": {"record_id": "oai:u-bordeaux-montaigne.fr:340354", "symbol_class": "building", "pixel_x": 4525.0, "pixel_y": 1582.4, "easting": 454225.8, "northing": 456298.9, "epsg_source": 22391}}, {"type": "Feature", "geometry": {"type": "Point", "coordinates": [9.48216, 37.40044]}, "properties": {"record_id": "oai:u-bordeaux-montaigne.fr:340354", "symbol_class": "building", "pixel_x": 6563.8, "pixel_y": 1667.7, "easting": 462956.1, "northing": 455279.5, "epsg_source": 22391}}, {"type": "Feature", "geometry": {"type": "Point", "coordinates": [9.43688, 37.40032]}, "properties": {"record_id": "oai:u-bordeaux-montaigne.fr:340354", "symbol_class": "building", "pixel_x": 5635.5, "pixel_y": 1735.5, "easting": 458947.2, "northing": 455284.4, "epsg_source": 22391}}, {"type": "Feature", "geometry": {"type": "Point", "coordinates": [9.4314, 37.40026]}, "properties": {"record_id": "oai:u-bordeaux-montaigne.fr:340354", "symbol_class": "building", "pixel_x": 5523.2, "pixel_y": 1744.8, "easting": 458461.9, "northing": 455280.4, "epsg_source": 22391}}, {"type": "Feature", "geometry": {"type": "Point", "coordinates": [9.40273, 37.40017]}, "properties": {"record_id": "oai:u-bordeaux-montaigne.fr:340354", "symbol_class": "building", "pixel_x": 4935.5, "pixel_y": 1788.0, "easting": 455923.5, "northing": 455282.4, "epsg_source": 22391}}, {"type": "Feature", "geometry": {"type": "Point", "coordinates": [9.23424, 37.40841]}, "properties": {"record_id": "oai:u-bordeaux-montaigne.fr:340354", "symbol_class": "building", "pixel_x": 1466.0, "pixel_y": 1812.8, "easting": 441012.1, "northing": 456285.9, "epsg_source": 22391}}, {"type": "Feature", "geometry": {"type": "Point", "coordinates": [9.54003, 37.39147]}, "properties": {"record_id": "oai:u-bordeaux-montaigne.fr:340354", "symbol_class": "building", "pixel_x": 7766.5, "pixel_y": 1814.1, "easting": 468075.7, "northing": 454264.0, "epsg_source": 22391}}, {"type": "Feature", "geometry": {"type": "Point", "coordinates": [9.20016, 37.40826]}, "properties": {"record_id": "oai:u-bordeaux-montaigne.fr:340354", "symbol_class": "building", "pixel_x": 767.3, "pixel_y": 1863.6, "easting": 437994.9, "northing": 456290.5, "epsg_source": 22391}}, {"type": "Feature", "geometry": {"type": "Point", "coordinates": [9.50478, 37.39139]}, "properties": {"record_id": "oai:u-bordeaux-montaigne.fr:340354", "symbol_class": "building", "pixel_x": 7043.7, "pixel_y": 1867.1, "easting": 464954.1, "northing": 454267.2, "epsg_source": 22391}}, {"type": "Feature", "geometry": {"type": "Point", "coordinates": [9.34748, 37.39988]}, "properties": {"record_id": "oai:u-bordeaux-montaigne.fr:340354", "symbol_class": "building", "pixel_x": 3803.1, "pixel_y": 1873.3, "easting": 451031.9, "northing": 455277.3, "epsg_source": 22391}}, {"type": "Feature", "geometry": {"type": "Point", "coordinates": [9.49481, 37.39133]}, "properties": {"record_id": "oai:u-bordeaux-montaigne.fr:340354", "symbol_class": "building", "pixel_x": 6839.5, "pixel_y": 1883.0, "easting": 464071.9, "northing": 454264.1, "epsg_source": 22391}}, {"type": "Feature", "geometry": {"type": "Point", "coordinates": [9.33541, 37.39984]}, "properties": {"record_id": "oai:u-bordeaux-montaigne.fr:340354", "symbol_class": "building", "pixel_x": 3555.5, "pixel_y": 1891.5, "easting": 449962.6, "northing": 455278.3, "epsg_source": 22391}}, {"type": "Feature", "geometry": {"type": "Point", "coordinates": [9.47686, 37.39125]}, "properties": {"record_id": "oai:u-bordeaux-montaigne.fr:340354", "symbol_class": "building", "pixel_x": 6471.5, "pixel_y": 1911.0, "easting": 462482.2, "northing": 454261.3, "epsg_source": 22391}}, {"type": "Feature", "geometry": {"type": "Point", "coordinates": [9.44714, 37.39117]}, "properties": {"record_id": "oai:u-bordeaux-montaigne.fr:340354", "symbol_class": "building", "pixel_x": 5862.2, "pixel_y": 1955.6, "easting": 459850.7, "northing": 454264.2, "epsg_source": 22391}}, {"type": "Feature", "geometry": {"type": "Point", "coordinates": [9.28408, 37.39954]}, "properties": {"record_id": "oai:u-bordeaux-montaigne.fr:340354", "symbol_class": "building", "pixel_x": 2503.5, "pixel_y": 1971.0, "easting": 445418.4, "northing": 455272.6, "epsg_source": 22391}}, {"type": "Feature", "geometry": {"type": "Point", "coordinates": [9.41542, 37.39105]}, "properties": {"record_id": "oai:u-bordeaux-montaigne.fr:340354", "symbol_class": "building", "pixel_x": 5211.8, "pixel_y": 2003.8, "easting": 457041.7, "northing": 454264.9, "epsg_source": 22391}}, {"type": "Feature", "geometry": {"type": "Point", "coordinates": [9.41598, 37.39105]}, "properties": {"record_id": "oai:u-bordeaux-montaigne.fr:340354", "symbol_class": "building", "pixel_x": 5223.3, "pixel_y": 2003.0, "easting": 457091.3, "northing": 454264.6, "epsg_source": 22391}}, {"type": "Feature", "geometry": {"type": "Point", "coordinates": [9.38171, 37.3909]}, "properties": {"record_id": "oai:u-bordeaux-montaigne.fr:340354", "symbol_class": "building", "pixel_x": 4520.7, "pixel_y": 2055.5, "easting": 454056.5, "northing": 454263.4, "epsg_source": 22391}}, {"type": "Feature", "geometry": {"type": "Point", "coordinates": [9.21181, 37.39905]}, "properties": {"record_id": "oai:u-bordeaux-montaigne.fr:340354", "symbol_class": "building", "pixel_x": 1022.2, "pixel_y": 2083.7, "easting": 439019.3, "northing": 455261.4, "epsg_source": 22391}}, {"type": "Feature", "geometry": {"type": "Point", "coordinates": [9.20086, 37.39959]}, "properties": {"record_id": "oai:u-bordeaux-montaigne.fr:340354", "symbol_class": "building", "pixel_x": 796.7, "pixel_y": 2085.0, "easting": 438050.5, "northing": 455327.9, "epsg_source": 22391}}, {"type": "Feature", "geometry": {"type": "Point", "coordinates": [9.19907, 37.39901]}, "properties": {"record_id": "oai:u-bordeaux-montaigne.fr:340354", "symbol_class": "building", "pixel_x": 761.0, "pixel_y": 2102.4, "easting": 437891.4, "northing": 455264.4, "epsg_source": 22391}}, {"type": "Feature", "geometry": {"type": "Point", "coordinates": [9.20395, 37.39906]}, "properties": {"record_id": "oai:u-bordeaux-montaigne.fr:340354", "symbol_class": "building", "pixel_x": 861.0, "pixel_y": 2094.4, "easting": 438323.6, "northing": 455266.7, "epsg_source": 22391}}, {"type": "Feature", "geometry": {"type": "Point", "coordinates": [9.54754, 37.37317]}, "properties": {"record_id": "oai:u-bordeaux-montaigne.fr:340354", "symbol_class": "building", "pixel_x": 7953.7, "pixel_y": 2272.6, "easting": 468733.6, "northing": 452230.1, "epsg_source": 22391}}, {"type": "Feature", "geometry": {"type": "Point", "coordinates": [9.23441, 37.39007]}, "properties": {"record_id": "oai:u-bordeaux-montaigne.fr:340354", "symbol_class": "building", "pixel_x": 1501.1, "pixel_y": 2282.8, "easting": 441013.1, "northing": 454251.0, "epsg_source": 22391}}, {"type": "Feature", "geometry": {"type": "Point", "coordinates": [9.38175, 37.38174]}, "properties": {"record_id": "oai:u-bordeaux-montaigne.fr:340354", "symbol_class": "building", "pixel_x": 4537.8, "pixel_y": 2290.4, "easting": 454054.6, "northing": 453246.6, "epsg_source": 22391}}, {"type": "Feature", "geometry": {"type": "Point", "coordinates": [9.51973, 37.37308]}, "properties": {"record_id": "oai:u-bordeaux-montaigne.fr:340354", "symbol_class": "building", "pixel_x": 7383.4, "pixel_y": 2315.2, "easting": 466270.5, "northing": 452229.2, "epsg_source": 22391}}, {"type": "Feature", "geometry": {"type": "Point", "coordinates": [9.19937, 37.39028]}, "properties": {"record_id": "oai:u-bordeaux-montaigne.fr:340354", "symbol_class": "building", "pixel_x": 782.2, "pixel_y": 2325.7, "easting": 437911.0, "northing": 454296.1, "epsg_source": 22391}}, {"type": "Feature", "geometry": {"type": "Point", "coordinates": [9.20603, 37.38986]}, "properties": {"record_id": "oai:u-bordeaux-montaigne.fr:340354", "symbol_class": "building", "pixel_x": 919.5, "pixel_y": 2327.5, "easting": 438500.4, "northing": 454244.4, "epsg_source": 22391}}, {"type": "Feature", "geometry": {"type": "Point", "coordinates": [9.20454, 37.38984]}, "properties": {"record_id": "oai:u-bordeaux-montaigne.fr:340354", "symbol_class": "building", "pixel_x": 889.0, "pixel_y": 2330.0, "easting": 438368.6, "northing": 454243.4, "epsg_source": 22391}}, {"type": "Feature", "geometry": {"type": "Point", "coordinates": [9.19956, 37.38975]}, "properties": {"record_id": "oai:u-bordeaux-montaigne.fr:340354", "symbol_class": "building", "pixel_x": 787.0, "pixel_y": 2339.1, "easting": 437927.7, "northing": 454237.0, "epsg_source": 22391}}, {"type": "Feature", "geometry": {"type": "Point", "coordinates": [9.45183, 37.37283]}, "properties": {"record_id": "oai:u-bordeaux-montaigne.fr:340354", "symbol_class": "building", "pixel_x": 5991.1, "pixel_y": 2419.0, "easting": 460256.6, "northing": 452227.6, "epsg_source": 22391}}, {"type": "Feature", "geometry": {"type": "Point", "coordinates": [9.20074, 37.38453]}, "properties": {"record_id": "oai:u-bordeaux-montaigne.fr:340354", "symbol_class": "building", "pixel_x": 820.0, "pixel_y": 2471.5, "easting": 438027.3, "northing": 453656.3, "epsg_source": 22391}}, {"type": "Feature", "geometry": {"type": "Point", "coordinates": [9.41177, 37.37266]}, "properties": {"record_id": "oai:u-bordeaux-montaigne.fr:340354", "symbol_class": "building", "pixel_x": 5169.7, "pixel_y": 2480.6, "easting": 456708.4, "northing": 452225.3, "epsg_source": 22391}}, {"type": "Feature", "geometry": {"type": "Point", "coordinates": [9.40433, 37.37265]}, "properties": {"record_id": "oai:u-bordeaux-montaigne.fr:340354", "symbol_class": "building", "pixel_x": 5017.0, "pixel_y": 2491.4, "easting": 456049.1, "northing": 452227.9, "epsg_source": 22391}}, {"type": "Feature", "geometry": {"type": "Point", "coordinates": [9.23447, 37.38085]}, "properties": {"record_id": "oai:u-bordeaux-montaigne.fr:340354", "symbol_class": "building", "pixel_x": 1518.4, "pixel_y": 2519.3, "easting": 441011.7, "northing": 453227.0, "epsg_source": 22391}}, {"type": "Feature", "geometry": {"type": "Point", "coordinates": [9.21196, 37.38072]}, "properties": {"record_id": "oai:u-bordeaux-montaigne.fr:340354", "symbol_class": "building", "pixel_x": 1056.9, "pixel_y": 2553.7, "easting": 439018.6, "northing": 453226.7, "epsg_source": 22391}}, {"type": "Feature", "geometry": {"type": "Point", "coordinates": [9.19783, 37.3811]}, "properties": {"record_id": "oai:u-bordeaux-montaigne.fr:340354", "symbol_class": "building", "pixel_x": 766.2, "pixel_y": 2563.3, "easting": 437766.8, "northing": 453278.3, "epsg_source": 22391}}, {"type": "Feature", "geometry": {"type": "Point", "coordinates": [9.1985, 37.38105]}, "properties": {"record_id": "oai:u-bordeaux-montaigne.fr:340354", "symbol_class": "building", "pixel_x": 780.3, "pixel_y": 2563.8, "easting": 437826.9, "northing": 453271.6, "epsg_source": 22391}}, {"type": "Feature", "geometry": {"type": "Point", "coordinates": [9.20472, 37.38065]}, "properties": {"record_id": "oai:u-bordeaux-montaigne.fr:340354", "symbol_class": "building", "pixel_x": 908.5, "pixel_y": 2565.3, "easting": 438377.4, "northing": 453224.2, "epsg_source": 22391}}, {"type": "Feature", "geometry": {"type": "Point", "coordinates": [9.20604, 37.38064]}, "properties": {"record_id": "oai:u-bordeaux-montaigne.fr:340354", "symbol_class": "building", "pixel_x": 935.5, "pixel_y": 2564.0, "easting": 438493.7, "northing": 453221.2, "epsg_source": 22391}}, {"type": "Feature", "geometry": {"type": "Point", "coordinates": [9.19853, 37.38039]}, "properties": {"record_id": "oai:u-bordeaux-montaigne.fr:340354", "symbol_class": "building", "pixel_x": 781.9, "pixel_y": 2580.7, "easting": 437828.7, "northing": 453198.4, "epsg_source": 22391}}, {"type": "Feature", "geometry": {"type": "Point", "coordinates": [9.19929, 37.3803]}, "properties": {"record_id": "oai:u-bordeaux-montaigne.fr:340354", "symbol_class": "building", "pixel_x": 797.7, "pixel_y": 2581.7, "easting": 437896.0, "northing": 453188.8, "epsg_source": 22391}}, {"type": "Feature", "geometry": {"type": "Point", "coordinates": [9.32394, 37.37223]}, "properties": {"record_id": "oai:u-bordeaux-montaigne.fr:340354", "symbol_class": "building", "pixel_x": 3368.7, "pixel_y": 2615.5, "easting": 448929.3, "northing": 452221.0, "epsg_source": 22391}}, {"type": "Feature", "geometry": {"type": "Point", "coordinates": [9.29028, 37.37204]}, "properties": {"record_id": "oai:u-bordeaux-montaigne.fr:340354", "symbol_class": "building", "pixel_x": 2678.5, "pixel_y": 2667.5, "easting": 445947.8, "northing": 452217.7, "epsg_source": 22391}}, {"type": "Feature", "geometry": {"type": "Point", "coordinates": [9.40437, 37.36344]}, "properties": {"record_id": "oai:u-bordeaux-montaigne.fr:340354", "symbol_class": "building", "pixel_x": 5034.2, "pixel_y": 2727.4, "easting": 456047.7, "northing": 451206.1, "epsg_source": 22391}}, {"type": "Feature", "geometry": {"type": "Point", "coordinates": [9.54007, 37.35478]}, "properties": {"record_id": "oai:u-bordeaux-montaigne.fr:340354", "symbol_class": "building", "pixel_x": 7833.7, "pixel_y": 2754.9, "easting": 468064.0, "northing": 450191.8, "epsg_source": 22391}}, {"type": "Feature", "geometry": {"type": "Point", "coordinates": [9.38076, 37.36334]}, "properties": {"record_id": "oai:u-bordeaux-montaigne.fr:340354", "symbol_class": "building", "pixel_x": 4550.0, "pixel_y": 2763.5, "easting": 453956.2, "northing": 451205.6, "epsg_source": 22391}}, {"type": "Feature", "geometry": {"type": "Point", "coordinates": [9.19847, 37.37178]}, "properties": {"record_id": "oai:u-bordeaux-montaigne.fr:340354", "symbol_class": "building", "pixel_x": 795.5, "pixel_y": 2801.6, "easting": 437816.5, "northing": 452242.8, "epsg_source": 22391}}, {"type": "Feature", "geometry": {"type": "Point", "coordinates": [9.19883, 37.37161]}, "properties": {"record_id": "oai:u-bordeaux-montaigne.fr:340354", "symbol_class": "building", "pixel_x": 803.1, "pixel_y": 2805.4, "easting": 437848.1, "northing": 452223.9, "epsg_source": 22391}}, {"type": "Feature", "geometry": {"type": "Point", "coordinates": [9.20088, 37.37142]}, "properties": {"record_id": "oai:u-bordeaux-montaigne.fr:340354", "symbol_class": "building", "pixel_x": 845.6, "pixel_y": 2807.4, "easting": 438029.8, "northing": 452201.9, "epsg_source": 22391}}, {"type": "Feature", "geometry": {"type": "Point", "coordinates": [9.50483, 37.35465]}, "properties": {"record_id": "oai:u-bordeaux-montaigne.fr:340354", "symbol_class": "building", "pixel_x": 7111.0, "pixel_y": 2809.0, "easting": 464942.4, "northing": 450190.1, "epsg_source": 22391}}, {"type": "Feature", "geometry": {"type": "Point", "coordinates": [9.19856, 37.37116]}, "properties": {"record_id": "oai:u-bordeaux-montaigne.fr:340354", "symbol_class": "building", "pixel_x": 798.5, "pixel_y": 2817.2, "easting": 437824.2, "northing": 452174.6, "epsg_source": 22391}}, {"type": "Feature", "geometry": {"type": "Point", "coordinates": [9.20088, 37.36767]}, "properties": {"record_id": "oai:u-bordeaux-montaigne.fr:340354", "symbol_class": "building", "pixel_x": 852.0, "pixel_y": 2903.5, "easting": 438026.8, "northing": 451786.0, "epsg_source": 22391}}, {"type": "Feature", "geometry": {"type": "Point", "coordinates": [9.27926, 37.36281]}, "properties": {"record_id": "oai:u-bordeaux-montaigne.fr:340354", "symbol_class": "building", "pixel_x": 2468.5, "pixel_y": 2919.5, "easting": 444965.2, "northing": 451199.9, "epsg_source": 22391}}, {"type": "Feature", "geometry": {"type": "Point", "coordinates": [9.54007, 37.34559]}, "properties": {"record_id": "oai:u-bordeaux-montaigne.fr:340354", "symbol_class": "building", "pixel_x": 7850.4, "pixel_y": 2990.4, "easting": 468060.7, "northing": 449172.7, "epsg_source": 22391}}, {"type": "Feature", "geometry": {"type": "Point", "coordinates": [9.38212, 37.35415]}, "properties": {"record_id": "oai:u-bordeaux-montaigne.fr:340354", "symbol_class": "building", "pixel_x": 4594.2, "pixel_y": 2997.3, "easting": 454071.4, "northing": 450184.8, "epsg_source": 22391}}, {"type": "Feature", "geometry": {"type": "Point", "coordinates": [9.52925, 37.34558]}, "properties": {"record_id": "oai:u-bordeaux-montaigne.fr:340354", "symbol_class": "building", "pixel_x": 7628.3, "pixel_y": 3006.3, "easting": 467101.7, "northing": 449175.2, "epsg_source": 22391}}, {"type": "Feature", "geometry": {"type": "Point", "coordinates": [9.21212, 37.36234]}, "properties": {"record_id": "oai:u-bordeaux-montaigne.fr:340354", "symbol_class": "building", "pixel_x": 1091.7, "pixel_y": 3024.9, "easting": 439017.6, "northing": 451186.7, "epsg_source": 22391}}, {"type": "Feature", "geometry": {"type": "Point", "coordinates": [9.19719, 37.36241]}, "properties": {"record_id": "oai:u-bordeaux-montaigne.fr:340354", "symbol_class": "building", "pixel_x": 785.3, "pixel_y": 3043.4, "easting": 437695.5, "northing": 451204.9, "epsg_source": 22391}}, {"type": "Feature", "geometry": {"type": "Point", "coordinates": [9.19795, 37.36238]}, "properties": {"record_id": "oai:u-bordeaux-montaigne.fr:340354", "symbol_class": "building", "pixel_x": 801.1, "pixel_y": 3043.4, "easting": 437763.3, "northing": 451200.0, "epsg_source": 22391}}, {"type": "Feature", "geometry": {"type": "Point", "coordinates": [9.19648, 37.3624]}, "properties": {"record_id": "oai:u-bordeaux-montaigne.fr:340354", "symbol_class": "building", "pixel_x": 770.9, "pixel_y": 3044.7, "easting": 437633.0, "northing": 451204.0, "epsg_source": 22391}}, {"type": "Feature", "geometry": {"type": "Point", "coordinates": [9.19625, 37.3624]}, "properties": {"record_id": "oai:u-bordeaux-montaigne.fr:340354", "symbol_class": "building", "pixel_x": 766.0, "pixel_y": 3045.2, "easting": 437612.0, "northing": 451203.6, "epsg_source": 22391}}, {"type": "Feature", "geometry": {"type": "Point", "coordinates": [9.47226, 37.34537]}, "properties": {"record_id": "oai:u-bordeaux-montaigne.fr:340354", "symbol_class": "building", "pixel_x": 6459.4, "pixel_y": 3093.8, "easting": 462052.8, "northing": 449172.5, "epsg_source": 22391}}, {"type": "Feature", "geometry": {"type": "Point", "coordinates": [9.44711, 37.34529]}, "properties": {"record_id": "oai:u-bordeaux-montaigne.fr:340354", "symbol_class": "building", "pixel_x": 5943.5, "pixel_y": 3132.0, "easting": 459824.4, "northing": 449173.1, "epsg_source": 22391}}, {"type": "Feature", "geometry": {"type": "Point", "coordinates": [9.42699, 37.34519]}, "properties": {"record_id": "oai:u-bordeaux-montaigne.fr:340354", "symbol_class": "building", "pixel_x": 5530.8, "pixel_y": 3163.2, "easting": 458041.6, "northing": 449170.7, "epsg_source": 22391}}, {"type": "Feature", "geometry": {"type": "Point", "coordinates": [9.42592, 37.3452]}, "properties": {"record_id": "oai:u-bordeaux-montaigne.fr:340354", "symbol_class": "building", "pixel_x": 5508.7, "pixel_y": 3164.5, "easting": 457946.5, "northing": 449172.2, "epsg_source": 22391}}, {"type": "Feature", "geometry": {"type": "Point", "coordinates": [9.26783, 37.35353]}, "properties": {"record_id": "oai:u-bordeaux-montaigne.fr:340354", "symbol_class": "building", "pixel_x": 2250.1, "pixel_y": 3173.6, "easting": 443946.1, "northing": 450175.8, "epsg_source": 22391}}, {"type": "Feature", "geometry": {"type": "Point", "coordinates": [9.41463, 37.34514]}, "properties": {"record_id": "oai:u-bordeaux-montaigne.fr:340354", "symbol_class": "building", "pixel_x": 5277.3, "pixel_y": 3182.2, "easting": 456946.7, "northing": 449170.2, "epsg_source": 22391}}, {"type": "Feature", "geometry": {"type": "Point", "coordinates": [9.26741, 37.35312]}, "properties": {"record_id": "oai:u-bordeaux-montaigne.fr:340354", "symbol_class": "building", "pixel_x": 2242.2, "pixel_y": 3184.7, "easting": 443908.4, "northing": 450130.6, "epsg_source": 22391}}, {"type": "Feature", "geometry": {"type": "Point", "coordinates": [9.40446, 37.34508]}, "properties": {"record_id": "oai:u-bordeaux-montaigne.fr:340354", "symbol_class": "building", "pixel_x": 5068.6, "pixel_y": 3198.1, "easting": 456045.3, "northing": 449168.3, "epsg_source": 22391}}, {"type": "Feature", "geometry": {"type": "Point", "coordinates": [9.23446, 37.3533]}, "properties": {"record_id": "oai:u-bordeaux-montaigne.fr:340354", "symbol_class": "building", "pixel_x": 1565.8, "pixel_y": 3225.7, "easting": 440990.0, "northing": 450170.2, "epsg_source": 22391}}, {"type": "Feature", "geometry": {"type": "Point", "coordinates": [9.38189, 37.34497]}, "properties": {"record_id": "oai:u-bordeaux-montaigne.fr:340354", "symbol_class": "building", "pixel_x": 4605.7, "pixel_y": 3232.8, "easting": 454045.5, "northing": 449167.0, "epsg_source": 22391}}, {"type": "Feature", "geometry": {"type": "Point", "coordinates": [9.21214, 37.35319]}, "properties": {"record_id": "oai:u-bordeaux-montaigne.fr:340354", "symbol_class": "building", "pixel_x": 1108.0, "pixel_y": 3259.4, "easting": 439012.7, "northing": 450171.7, "epsg_source": 22391}}, {"type": "Feature", "geometry": {"type": "Point", "coordinates": [9.19588, 37.35367]}, "properties": {"record_id": "oai:u-bordeaux-montaigne.fr:340354", "symbol_class": "building", "pixel_x": 773.5, "pixel_y": 3269.5, "easting": 437572.7, "northing": 450235.4, "epsg_source": 22391}}, {"type": "Feature", "geometry": {"type": "Point", "coordinates": [9.20194, 37.35311]}, "properties": {"record_id": "oai:u-bordeaux-montaigne.fr:340354", "symbol_class": "building", "pixel_x": 898.8, "pixel_y": 3275.5, "easting": 438109.0, "northing": 450169.4, "epsg_source": 22391}}, {"type": "Feature", "geometry": {"type": "Point", "coordinates": [9.20137, 37.35306]}, "properties": {"record_id": "oai:u-bordeaux-montaigne.fr:340354", "symbol_class": "building", "pixel_x": 887.1, "pixel_y": 3277.6, "easting": 438058.0, "northing": 450164.2, "epsg_source": 22391}}, {"type": "Feature", "geometry": {"type": "Point", "coordinates": [9.20085, 37.35309]}, "properties": {"record_id": "oai:u-bordeaux-montaigne.fr:340354", "symbol_class": "building", "pixel_x": 876.4, "pixel_y": 3277.6, "easting": 438011.9, "northing": 450167.4, "epsg_source": 22391}}, {"type": "Feature", "geometry": {"type": "Point", "coordinates": [9.19514, 37.35305]}, "properties": {"record_id": "oai:u-bordeaux-montaigne.fr:340354", "symbol_class": "building", "pixel_x": 759.4, "pixel_y": 3286.5, "easting": 437506.5, "northing": 450166.6, "epsg_source": 22391}}, {"type": "Feature", "geometry": {"type": "Point", "coordinates": [9.19812, 37.35308]}, "properties": {"record_id": "oai:u-bordeaux-montaigne.fr:340354", "symbol_class": "building", "pixel_x": 820.5, "pixel_y": 3281.4, "easting": 437770.7, "northing": 450168.9, "epsg_source": 22391}}, {"type": "Feature", "geometry": {"type": "Point", "coordinates": [9.19917, 37.35306]}, "properties": {"record_id": "oai:u-bordeaux-montaigne.fr:340354", "symbol_class": "building", "pixel_x": 842.1, "pixel_y": 3280.7, "easting": 437863.7, "northing": 450165.2, "epsg_source": 22391}}, {"type": "Feature", "geometry": {"type": "Point", "coordinates": [9.34883, 37.34484]}, "properties": {"record_id": "oai:u-bordeaux-montaigne.fr:340354", "symbol_class": "building", "pixel_x": 3927.5, "pixel_y": 3283.0, "easting": 451116.4, "northing": 449168.0, "epsg_source": 22391}}, {"type": "Feature", "geometry": {"type": "Point", "coordinates": [9.34816, 37.34484]}, "properties": {"record_id": "oai:u-bordeaux-montaigne.fr:340354", "symbol_class": "building", "pixel_x": 3913.9, "pixel_y": 3283.9, "easting": 451057.6, "northing": 449168.3, "epsg_source": 22391}}, {"type": "Feature", "geometry": {"type": "Point", "coordinates": [9.49624, 37.33633]}, "properties": {"record_id": "oai:u-bordeaux-montaigne.fr:340354", "symbol_class": "building", "pixel_x": 6967.6, "pixel_y": 3291.2, "easting": 464172.6, "northing": 448159.8, "epsg_source": 22391}}, {"type": "Feature", "geometry": {"type": "Point", "coordinates": [9.49476, 37.3363]}, "properties": {"record_id": "oai:u-bordeaux-montaigne.fr:340354", "symbol_class": "building", "pixel_x": 6937.4, "pixel_y": 3294.2, "easting": 464042.0, "northing": 448156.7, "epsg_source": 22391}}, {"type": "Feature", "geometry": {"type": "Point", "coordinates": [9.47219, 37.33622]}, "properties": {"record_id": "oai:u-bordeaux-montaigne.fr:340354", "symbol_class": "building", "pixel_x": 6474.4, "pixel_y": 3328.6, "easting": 462041.9, "northing": 448156.6, "epsg_source": 22391}}, {"type": "Feature", "geometry": {"type": "Point", "coordinates": [9.30189, 37.34458]}, "properties": {"record_id": "oai:u-bordeaux-montaigne.fr:340354", "symbol_class": "building", "pixel_x": 2964.7, "pixel_y": 3355.5, "easting": 446957.4, "northing": 449163.9, "epsg_source": 22391}}, {"type": "Feature", "geometry": {"type": "Point", "coordinates": [9.44956, 37.33615]}, "properties": {"record_id": "oai:u-bordeaux-montaigne.fr:340354", "symbol_class": "building", "pixel_x": 6010.1, "pixel_y": 3362.7, "easting": 460036.7, "northing": 448158.4, "epsg_source": 22391}}, {"type": "Feature", "geometry": {"type": "Point", "coordinates": [9.27933, 37.34446]}, "properties": {"record_id": "oai:u-bordeaux-montaigne.fr:340354", "symbol_class": "building", "pixel_x": 2501.9, "pixel_y": 3390.2, "easting": 444958.3, "northing": 449162.5, "epsg_source": 22391}}, {"type": "Feature", "geometry": {"type": "Point", "coordinates": [9.39184, 37.33588]}, "properties": {"record_id": "oai:u-bordeaux-montaigne.fr:340354", "symbol_class": "building", "pixel_x": 4825.9, "pixel_y": 3451.9, "easting": 454921.7, "northing": 448153.3, "epsg_source": 22391}}, {"type": "Feature", "geometry": {"type": "Point", "coordinates": [9.54002, 37.32724]}, "properties": {"record_id": "oai:u-bordeaux-montaigne.fr:340354", "symbol_class": "building", "pixel_x": 7882.5, "pixel_y": 3461.0, "easting": 468048.4, "northing": 447136.2, "epsg_source": 22391}}, {"type": "Feature", "geometry": {"type": "Point", "coordinates": [9.52337, 37.3272]}, "properties": {"record_id": "oai:u-bordeaux-montaigne.fr:340354", "symbol_class": "building", "pixel_x": 7540.8, "pixel_y": 3486.2, "easting": 466572.6, "northing": 447137.0, "epsg_source": 22391}}, {"type": "Feature", "geometry": {"type": "Point", "coordinates": [9.51635, 37.32717]}, "properties": {"record_id": "oai:u-bordeaux-montaigne.fr:340354", "symbol_class": "building", "pixel_x": 7396.8, "pixel_y": 3497.1, "easting": 465950.5, "northing": 447136.3, "epsg_source": 22391}}, {"type": "Feature", "geometry": {"type": "Point", "coordinates": [9.19575, 37.34418]}, "properties": {"record_id": "oai:u-bordeaux-montaigne.fr:340354", "symbol_class": "building", "pixel_x": 787.2, "pixel_y": 3513.1, "easting": 437553.5, "northing": 449182.0, "epsg_source": 22391}}, {"type": "Feature", "geometry": {"type": "Point", "coordinates": [9.19616, 37.344]}, "properties": {"record_id": "oai:u-bordeaux-montaigne.fr:340354", "symbol_class": "building", "pixel_x": 795.8, "pixel_y": 3517.2, "easting": 437589.2, "northing": 449161.5, "epsg_source": 22391}}, {"type": "Feature", "geometry": {"type": "Point", "coordinates": [9.19444, 37.34387]}, "properties": {"record_id": "oai:u-bordeaux-montaigne.fr:340354", "symbol_class": "building", "pixel_x": 760.8, "pixel_y": 3522.9, "easting": 437437.1, "northing": 449148.2, "epsg_source": 22391}}, {"type": "Feature", "geometry": {"type": "Point", "coordinates": [9.19522, 37.34386]}, "properties": {"record_id": "oai:u-bordeaux-montaigne.fr:340354", "symbol_class": "building", "pixel_x": 776.9, "pixel_y": 3522.1, "easting": 437506.6, "northing": 449146.7, "epsg_source": 22391}}, {"type": "Feature", "geometry": {"type": "Point", "coordinates": [9.19985, 37.34388]}, "properties": {"record_id": "oai:u-bordeaux-montaigne.fr:340354", "symbol_class": "building", "pixel_x": 871.8, "pixel_y": 3515.0, "easting": 437916.6, "northing": 449146.8, "epsg_source": 22391}}, {"type": "Feature", "geometry": {"type": "Point", "coordinates": [9.48369, 37.32706]}, "properties": {"record_id": "oai:u-bordeaux-montaigne.fr:340354", "symbol_class": "building", "pixel_x": 6726.8, "pixel_y": 3547.0, "easting": 463056.6, "northing": 447135.7, "epsg_source": 22391}}, {"type": "Feature", "geometry": {"type": "Point", "coordinates": [9.45994, 37.327]}, "properties": {"record_id": "oai:u-bordeaux-montaigne.fr:340354", "symbol_class": "building", "pixel_x": 6239.4, "pixel_y": 3582.5, "easting": 460951.5, "northing": 447138.6, "epsg_source": 22391}}, {"type": "Feature", "geometry": {"type": "Point", "coordinates": [9.3019, 37.33538]}, "properties": {"record_id": "oai:u-bordeaux-montaigne.fr:340354", "symbol_class": "building", "pixel_x": 2981.0, "pixel_y": 3591.5, "easting": 446952.2, "northing": 448142.6, "epsg_source": 22391}}, {"type": "Feature", "geometry": {"type": "Point", "coordinates": [9.44849, 37.32694]}, "properties": {"record_id": "oai:u-bordeaux-montaigne.fr:340354", "symbol_class": "building", "pixel_x": 6004.6, "pixel_y": 3600.6, "easting": 459937.2, "northing": 447136.0, "epsg_source": 22391}}, {"type": "Feature", "geometry": {"type": "Point", "coordinates": [9.2011, 37.33835]}, "properties": {"record_id": "oai:u-bordeaux-montaigne.fr:340354", "symbol_class": "building", "pixel_x": 907.0, "pixel_y": 3655.3, "easting": 438022.9, "northing": 448531.4, "epsg_source": 22391}}, {"type": "Feature", "geometry": {"type": "Point", "coordinates": [9.39192, 37.32669]}, "properties": {"record_id": "oai:u-bordeaux-montaigne.fr:340354", "symbol_class": "building", "pixel_x": 4844.0, "pixel_y": 3687.5, "easting": 454924.1, "northing": 447133.1, "epsg_source": 22391}}, {"type": "Feature", "geometry": {"type": "Point", "coordinates": [9.39235, 37.32667]}, "properties": {"record_id": "oai:u-bordeaux-montaigne.fr:340354", "symbol_class": "building", "pixel_x": 4852.8, "pixel_y": 3687.5, "easting": 454961.8, "northing": 447130.5, "epsg_source": 22391}}, {"type": "Feature", "geometry": {"type": "Point", "coordinates": [9.39082, 37.32669]}, "properties": {"record_id": "oai:u-bordeaux-montaigne.fr:340354", "symbol_class": "building", "pixel_x": 4821.4, "pixel_y": 3689.0, "easting": 454826.7, "northing": 447133.7, "epsg_source": 22391}}, {"type": "Feature", "geometry": {"type": "Point", "coordinates": [9.2348, 37.33494]}, "properties": {"record_id": "oai:u-bordeaux-montaigne.fr:340354", "symbol_class": "building", "pixel_x": 1604.6, "pixel_y": 3696.1, "easting": 441006.5, "northing": 448132.7, "epsg_source": 22391}}, {"type": "Feature", "geometry": {"type": "Point", "coordinates": [9.38235, 37.32661]}, "properties": {"record_id": "oai:u-bordeaux-montaigne.fr:340354", "symbol_class": "building", "pixel_x": 4647.7, "pixel_y": 3703.0, "easting": 454075.8, "northing": 447129.3, "epsg_source": 22391}}, {"type": "Feature", "geometry": {"type": "Point", "coordinates": [9.51744, 37.31796]}, "properties": {"record_id": "oai:u-bordeaux-montaigne.fr:340354", "symbol_class": "building", "pixel_x": 7435.8, "pixel_y": 3731.6, "easting": 466043.2, "northing": 446114.1, "epsg_source": 22391}}, {"type": "Feature", "geometry": {"type": "Point", "coordinates": [9.35349, 37.32649]}, "properties": {"record_id": "oai:u-bordeaux-montaigne.fr:340354", "symbol_class": "building", "pixel_x": 4055.5, "pixel_y": 3747.0, "easting": 451518.1, "northing": 447129.2, "epsg_source": 22391}}, {"type": "Feature", "geometry": {"type": "Point", "coordinates": [9.20111, 37.3347]}, "properties": {"record_id": "oai:u-bordeaux-montaigne.fr:340354", "symbol_class": "building", "pixel_x": 913.5, "pixel_y": 3748.8, "easting": 438020.8, "northing": 448126.6, "epsg_source": 22391}}, {"type": "Feature", "geometry": {"type": "Point", "coordinates": [9.50164, 37.31794]}, "properties": {"record_id": "oai:u-bordeaux-montaigne.fr:340354", "symbol_class": "building", "pixel_x": 7111.5, "pixel_y": 3755.0, "easting": 464642.7, "northing": 446116.9, "epsg_source": 22391}}, {"type": "Feature", "geometry": {"type": "Point", "coordinates": [9.34818, 37.32645]}, "properties": {"record_id": "oai:u-bordeaux-montaigne.fr:340354", "symbol_class": "building", "pixel_x": 3946.5, "pixel_y": 3755.5, "easting": 451047.2, "northing": 447127.5, "epsg_source": 22391}}, {"type": "Feature", "geometry": {"type": "Point", "coordinates": [9.34712, 37.32647]}, "properties": {"record_id": "oai:u-bordeaux-montaigne.fr:340354", "symbol_class": "building", "pixel_x": 3924.7, "pixel_y": 3756.5, "easting": 450953.4, "northing": 447130.1, "epsg_source": 22391}}, {"type": "Feature", "geometry": {"type": "Point", "coordinates": [9.33566, 37.3264]}, "properties": {"record_id": "oai:u-bordeaux-montaigne.fr:340354", "symbol_class": "building", "pixel_x": 3689.6, "pixel_y": 3774.4, "easting": 449937.8, "northing": 447128.3, "epsg_source": 22391}}, {"type": "Feature", "geometry": {"type": "Point", "coordinates": [9.33458, 37.32637]}, "properties": {"record_id": "oai:u-bordeaux-montaigne.fr:340354", "symbol_class": "building", "pixel_x": 3667.5, "pixel_y": 3776.7, "easting": 449842.0, "northing": 447125.5, "epsg_source": 22391}}, {"type": "Feature", "geometry": {"type": "Point", "coordinates": [9.47223, 37.3178]}, "properties": {"record_id": "oai:u-bordeaux-montaigne.fr:340354", "symbol_class": "building", "pixel_x": 6508.2, "pixel_y": 3800.8, "easting": 462036.7, "northing": 446112.6, "epsg_source": 22391}}, {"type": "Feature", "geometry": {"type": "Point", "coordinates": [9.45966, 37.31777]}, "properties": {"record_id": "oai:u-bordeaux-montaigne.fr:340354", "symbol_class": "building", "pixel_x": 6250.3, "pixel_y": 3819.8, "easting": 460922.6, "northing": 446113.7, "epsg_source": 22391}}, {"type": "Feature", "geometry": {"type": "Point", "coordinates": [9.44957, 37.31772]}, "properties": {"record_id": "oai:u-bordeaux-montaigne.fr:340354", "symbol_class": "building", "pixel_x": 6043.3, "pixel_y": 3835.5, "easting": 460028.4, "northing": 446112.3, "epsg_source": 22391}}, {"type": "Feature", "geometry": {"type": "Point", "coordinates": [9.44727, 37.31774]}, "properties": {"record_id": "oai:u-bordeaux-montaigne.fr:340354", "symbol_class": "building", "pixel_x": 5995.9, "pixel_y": 3838.2, "easting": 459824.3, "northing": 446115.5, "epsg_source": 22391}}, {"type": "Feature", "geometry": {"type": "Point", "coordinates": [9.43715, 37.31768]}, "properties": {"record_id": "oai:u-bordeaux-montaigne.fr:340354", "symbol_class": "building", "pixel_x": 5788.4, "pixel_y": 3854.1, "easting": 458927.5, "northing": 446113.8, "epsg_source": 22391}}, {"type": "Feature", "geometry": {"type": "Point", "coordinates": [9.42702, 37.31763]}, "properties": {"record_id": "oai:u-bordeaux-montaigne.fr:340354", "symbol_class": "building", "pixel_x": 5580.4, "pixel_y": 3869.9, "easting": 458029.1, "northing": 446112.2, "epsg_source": 22391}}, {"type": "Feature", "geometry": {"type": "Point", "coordinates": [9.40463, 37.31752]}, "properties": {"record_id": "oai:u-bordeaux-montaigne.fr:340354", "symbol_class": "building", "pixel_x": 5121.1, "pixel_y": 3904.6, "easting": 456045.2, "northing": 446109.6, "epsg_source": 22391}}, {"type": "Feature", "geometry": {"type": "Point", "coordinates": [9.53365, 37.30884]}, "properties": {"record_id": "oai:u-bordeaux-montaigne.fr:340354", "symbol_class": "building", "pixel_x": 7785.0, "pixel_y": 3941.9, "easting": 467475.9, "northing": 445096.6, "epsg_source": 22391}}, {"type": "Feature", "geometry": {"type": "Point", "coordinates": [9.21241, 37.32559]}, "properties": {"record_id": "oai:u-bordeaux-montaigne.fr:340354", "symbol_class": "building", "pixel_x": 1161.0, "pixel_y": 3966.8, "easting": 439014.5, "northing": 447109.2, "epsg_source": 22391}}, {"type": "Feature", "geometry": {"type": "Point", "coordinates": [9.35828, 37.31731]}, "properties": {"record_id": "oai:u-bordeaux-montaigne.fr:340354", "symbol_class": "building", "pixel_x": 4170.0, "pixel_y": 3975.5, "easting": 451937.0, "northing": 446108.8, "epsg_source": 22391}}, {"type": "Feature", "geometry": {"type": "Point", "coordinates": [9.19389, 37.32548]}, "properties": {"record_id": "oai:u-bordeaux-montaigne.fr:340354", "symbol_class": "building", "pixel_x": 781.0, "pixel_y": 3995.1, "easting": 437373.2, "northing": 447108.6, "epsg_source": 22391}}, {"type": "Feature", "geometry": {"type": "Point", "coordinates": [9.1947, 37.32578]}, "properties": {"record_id": "oai:u-bordeaux-montaigne.fr:340354", "symbol_class": "building", "pixel_x": 797.2, "pixel_y": 3986.4, "easting": 437445.6, "northing": 447140.9, "epsg_source": 22391}}, {"type": "Feature", "geometry": {"type": "Point", "coordinates": [9.193, 37.32584]}, "properties": {"record_id": "oai:u-bordeaux-montaigne.fr:340354", "symbol_class": "building", "pixel_x": 762.3, "pixel_y": 3987.2, "easting": 437295.3, "northing": 447148.7, "epsg_source": 22391}}, {"type": "Feature", "geometry": {"type": "Point", "coordinates": [9.34715, 37.3173]}, "properties": {"record_id": "oai:u-bordeaux-montaigne.fr:340354", "symbol_class": "building", "pixel_x": 3941.5, "pixel_y": 3991.5, "easting": 450950.4, "northing": 446113.0, "epsg_source": 22391}}, {"type": "Feature", "geometry": {"type": "Point", "coordinates": [9.19312, 37.32537]}, "properties": {"record_id": "oai:u-bordeaux-montaigne.fr:340354", "symbol_class": "building", "pixel_x": 765.5, "pixel_y": 3999.2, "easting": 437305.4, "northing": 447096.2, "epsg_source": 22391}}, {"type": "Feature", "geometry": {"type": "Point", "coordinates": [9.19361, 37.32543]}, "properties": {"record_id": "oai:u-bordeaux-montaigne.fr:340354", "symbol_class": "building", "pixel_x": 775.4, "pixel_y": 3996.8, "easting": 437348.7, "northing": 447103.2, "epsg_source": 22391}}, {"type": "Feature", "geometry": {"type": "Point", "coordinates": [9.3402, 37.31721]}, "properties": {"record_id": "oai:u-bordeaux-montaigne.fr:340354", "symbol_class": "building", "pixel_x": 3798.9, "pixel_y": 4003.7, "easting": 450334.0, "northing": 446106.2, "epsg_source": 22391}}, {"type": "Feature", "geometry": {"type": "Point", "coordinates": [9.32131, 37.31711]}, "properties": {"record_id": "oai:u-bordeaux-montaigne.fr:340354", "symbol_class": "building", "pixel_x": 3411.4, "pixel_y": 4032.8, "easting": 448660.0, "northing": 446104.6, "epsg_source": 22391}}, {"type": "Feature", "geometry": {"type": "Point", "coordinates": [9.31112, 37.31704]}, "properties": {"record_id": "oai:u-bordeaux-montaigne.fr:340354", "symbol_class": "building", "pixel_x": 3202.4, "pixel_y": 4048.8, "easting": 447757.2, "northing": 446102.9, "epsg_source": 22391}}, {"type": "Feature", "geometry": {"type": "Point", "coordinates": [9.30911, 37.31704]}, "properties": {"record_id": "oai:u-bordeaux-montaigne.fr:340354", "symbol_class": "building", "pixel_x": 3161.1, "pixel_y": 4051.7, "easting": 447578.9, "northing": 446103.4, "epsg_source": 22391}}, {"type": "Feature", "geometry": {"type": "Point", "coordinates": [9.29208, 37.31693]}, "properties": {"record_id": "oai:u-bordeaux-montaigne.fr:340354", "symbol_class": "building", "pixel_x": 2811.5, "pixel_y": 4078.4, "easting": 446068.8, "northing": 446100.6, "epsg_source": 22391}}, {"type": "Feature", "geometry": {"type": "Point", "coordinates": [9.42503, 37.30843]}, "properties": {"record_id": "oai:u-bordeaux-montaigne.fr:340354", "symbol_class": "building", "pixel_x": 5556.0, "pixel_y": 4108.6, "easting": 457848.1, "northing": 445092.2, "epsg_source": 22391}}, {"type": "Feature", "geometry": {"type": "Point", "coordinates": [9.42405, 37.30843]}, "properties": {"record_id": "oai:u-bordeaux-montaigne.fr:340354", "symbol_class": "building", "pixel_x": 5535.9, "pixel_y": 4110.1, "easting": 457761.3, "northing": 445092.4, "epsg_source": 22391}}, {"type": "Feature", "geometry": {"type": "Point", "coordinates": [9.4159, 37.30837]}, "properties": {"record_id": "oai:u-bordeaux-montaigne.fr:340354", "symbol_class": "building", "pixel_x": 5368.6, "pixel_y": 4123.2, "easting": 457038.3, "northing": 445089.3, "epsg_source": 22391}}, {"type": "Feature", "geometry": {"type": "Point", "coordinates": [9.40162, 37.30832]}, "properties": {"record_id": "oai:u-bordeaux-montaigne.fr:340354", "symbol_class": "building", "pixel_x": 5075.7, "pixel_y": 4144.8, "easting": 455773.3, "northing": 445089.9, "epsg_source": 22391}}, {"type": "Feature", "geometry": {"type": "Point", "coordinates": [9.3924, 37.3083]}, "properties": {"record_id": "oai:u-bordeaux-montaigne.fr:340354", "symbol_class": "building", "pixel_x": 4886.2, "pixel_y": 4158.5, "easting": 454955.2, "northing": 445091.8, "epsg_source": 22391}}, {"type": "Feature", "geometry": {"type": "Point", "coordinates": [9.193, 37.31621]}, "properties": {"record_id": "oai:u-bordeaux-montaigne.fr:340354", "symbol_class": "building", "pixel_x": 778.7, "pixel_y": 4234.0, "easting": 437287.1, "northing": 446080.7, "epsg_source": 22391}}, {"type": "Feature", "geometry": {"type": "Point", "coordinates": [9.19219, 37.31621]}, "properties": {"record_id": "oai:u-bordeaux-montaigne.fr:340354", "symbol_class": "building", "pixel_x": 762.1, "pixel_y": 4235.4, "easting": 437215.4, "northing": 446080.2, "epsg_source": 22391}}, {"type": "Feature", "geometry": {"type": "Point", "coordinates": [9.31458, 37.30786]}, "properties": {"record_id": "oai:u-bordeaux-montaigne.fr:340354", "symbol_class": "building", "pixel_x": 3289.5, "pixel_y": 4279.5, "easting": 448057.8, "northing": 445081.6, "epsg_source": 22391}}, {"type": "Feature", "geometry": {"type": "Point", "coordinates": [9.29088, 37.30774]}, "properties": {"record_id": "oai:u-bordeaux-montaigne.fr:340354", "symbol_class": "building", "pixel_x": 2803.0, "pixel_y": 4315.6, "easting": 445956.5, "northing": 445082.0, "epsg_source": 22391}}, {"type": "Feature", "geometry": {"type": "Point", "coordinates": [9.23505, 37.30732]}, "properties": {"record_id": "oai:u-bordeaux-montaigne.fr:340354", "symbol_class": "building", "pixel_x": 1657.4, "pixel_y": 4404.1, "easting": 441007.2, "northing": 445067.5, "epsg_source": 22391}}, {"type": "Feature", "geometry": {"type": "Point", "coordinates": [9.21247, 37.30723]}, "properties": {"record_id": "oai:u-bordeaux-montaigne.fr:340354", "symbol_class": "building", "pixel_x": 1193.9, "pixel_y": 4437.6, "easting": 439005.5, "northing": 445071.5, "epsg_source": 22391}}, {"type": "Feature", "geometry": {"type": "Point", "coordinates": [9.1991, 37.30711]}, "properties": {"record_id": "oai:u-bordeaux-montaigne.fr:340354", "symbol_class": "building", "pixel_x": 919.7, "pixel_y": 4459.0, "easting": 437820.7, "northing": 445066.9, "epsg_source": 22391}}, {"type": "Feature", "geometry": {"type": "Point", "coordinates": [9.19197, 37.30706]}, "properties": {"record_id": "oai:u-bordeaux-montaigne.fr:340354", "symbol_class": "building", "pixel_x": 773.4, "pixel_y": 4470.2, "easting": 437188.9, "northing": 445065.6, "epsg_source": 22391}}, {"type": "Feature", "geometry": {"type": "Point", "coordinates": [9.19724, 37.30708]}, "properties": {"record_id": "oai:u-bordeaux-montaigne.fr:340354", "symbol_class": "building", "pixel_x": 881.5, "pixel_y": 4462.4, "easting": 437655.7, "northing": 445064.7, "epsg_source": 22391}}, {"type": "Feature", "geometry": {"type": "Point", "coordinates": [9.23507, 37.29819]}, "properties": {"record_id": "oai:u-bordeaux-montaigne.fr:340354", "symbol_class": "building", "pixel_x": 1673.7, "pixel_y": 4638.2, "easting": 441002.5, "northing": 444054.0, "epsg_source": 22391}}, {"type": "Feature", "geometry": {"type": "Point", "coordinates": [9.53181, 37.28006]}, "properties": {"record_id": "oai:u-bordeaux-montaigne.fr:340354", "symbol_class": "building", "pixel_x": 7799.3, "pixel_y": 4682.6, "easting": 467300.9, "northing": 441903.2, "epsg_source": 22391}}, {"type": "Feature", "geometry": {"type": "Point", "coordinates": [9.2069, 37.29795]}, "properties": {"record_id": "oai:u-bordeaux-montaigne.fr:340354", "symbol_class": "building", "pixel_x": 1095.5, "pixel_y": 4683.4, "easting": 438504.4, "northing": 444044.7, "epsg_source": 22391}}, {"type": "Feature", "geometry": {"type": "Point", "coordinates": [9.20143, 37.29792]}, "properties": {"record_id": "oai:u-bordeaux-montaigne.fr:340354", "symbol_class": "building", "pixel_x": 983.3, "pixel_y": 4691.6, "easting": 438019.9, "northing": 444045.1, "epsg_source": 22391}}, {"type": "Feature", "geometry": {"type": "Point", "coordinates": [9.19215, 37.2978]}, "properties": {"record_id": "oai:u-bordeaux-montaigne.fr:340354", "symbol_class": "building", "pixel_x": 793.0, "pixel_y": 4707.5, "easting": 437197.3, "northing": 444037.5, "epsg_source": 22391}}, {"type": "Feature", "geometry": {"type": "Point", "coordinates": [9.19137, 37.29782]}, "properties": {"record_id": "oai:u-bordeaux-montaigne.fr:340354", "symbol_class": "building", "pixel_x": 777.0, "pixel_y": 4708.0, "easting": 437128.2, "northing": 444040.7, "epsg_source": 22391}}, {"type": "Feature", "geometry": {"type": "Point", "coordinates": [9.19054, 37.29783]}, "properties": {"record_id": "oai:u-bordeaux-montaigne.fr:340354", "symbol_class": "building", "pixel_x": 759.9, "pixel_y": 4708.9, "easting": 437054.5, "northing": 444042.3, "epsg_source": 22391}}, {"type": "Feature", "geometry": {"type": "Point", "coordinates": [9.49876, 37.28002]}, "properties": {"record_id": "oai:u-bordeaux-montaigne.fr:340354", "symbol_class": "building", "pixel_x": 7120.6, "pixel_y": 4731.5, "easting": 464370.3, "northing": 441909.9, "epsg_source": 22391}}, {"type": "Feature", "geometry": {"type": "Point", "coordinates": [9.49873, 37.27951]}, "properties": {"record_id": "oai:u-bordeaux-montaigne.fr:340354", "symbol_class": "building", "pixel_x": 7120.9, "pixel_y": 4744.6, "easting": 464367.3, "northing": 441853.1, "epsg_source": 22391}}, {"type": "Feature", "geometry": {"type": "Point", "coordinates": [9.20149, 37.28867]}, "properties": {"record_id": "oai:u-bordeaux-montaigne.fr:340354", "symbol_class": "building", "pixel_x": 1000.5, "pixel_y": 4928.6, "easting": 438018.2, "northing": 443019.2, "epsg_source": 22391}}, {"type": "Feature", "geometry": {"type": "Point", "coordinates": [9.19069, 37.2885]}, "properties": {"record_id": "oai:u-bordeaux-montaigne.fr:340354", "symbol_class": "building", "pixel_x": 778.9, "pixel_y": 4948.1, "easting": 437059.8, "northing": 443006.4, "epsg_source": 22391}}, {"type": "Feature", "geometry": {"type": "Point", "coordinates": [9.18993, 37.28846]}, "properties": {"record_id": "oai:u-bordeaux-montaigne.fr:340354", "symbol_class": "building", "pixel_x": 763.4, "pixel_y": 4950.0, "easting": 436993.0, "northing": 443003.1, "epsg_source": 22391}}, {"type": "Feature", "geometry": {"type": "Point", "coordinates": [9.18958, 37.28853]}, "properties": {"record_id": "oai:u-bordeaux-montaigne.fr:340354", "symbol_class": "building", "pixel_x": 756.0, "pixel_y": 4948.7, "easting": 436961.4, "northing": 443011.0, "epsg_source": 22391}}, {"type": "Feature", "geometry": {"type": "Point", "coordinates": [9.49007, 37.26941]}, "properties": {"record_id": "oai:u-bordeaux-montaigne.fr:340354", "symbol_class": "building", "pixel_x": 6961.3, "pixel_y": 5015.9, "easting": 463595.0, "northing": 440736.1, "epsg_source": 22391}}, {"type": "Feature", "geometry": {"type": "Point", "coordinates": [9.49146, 37.26921]}, "properties": {"record_id": "oai:u-bordeaux-montaigne.fr:340354", "symbol_class": "building", "pixel_x": 6990.2, "pixel_y": 5019.1, "easting": 463718.1, "northing": 440713.1, "epsg_source": 22391}}, {"type": "Feature", "geometry": {"type": "Point", "coordinates": [9.19077, 37.27946]}, "properties": {"record_id": "oai:u-bordeaux-montaigne.fr:340354", "symbol_class": "building", "pixel_x": 796.0, "pixel_y": 5179.6, "easting": 437059.5, "northing": 442004.1, "epsg_source": 22391}}, {"type": "Feature", "geometry": {"type": "Point", "coordinates": [9.18972, 37.27945]}, "properties": {"record_id": "oai:u-bordeaux-montaigne.fr:340354", "symbol_class": "building", "pixel_x": 774.5, "pixel_y": 5181.4, "easting": 436966.6, "northing": 442003.2, "epsg_source": 22391}}, {"type": "Feature", "geometry": {"type": "Point", "coordinates": [9.19005, 37.27935]}, "properties": {"record_id": "oai:u-bordeaux-montaigne.fr:340354", "symbol_class": "building", "pixel_x": 781.4, "pixel_y": 5183.4, "easting": 436995.7, "northing": 441992.2, "epsg_source": 22391}}, {"type": "Feature", "geometry": {"type": "Point", "coordinates": [9.18914, 37.27941]}, "properties": {"record_id": "oai:u-bordeaux-montaigne.fr:340354", "symbol_class": "building", "pixel_x": 762.8, "pixel_y": 5183.3, "easting": 436915.7, "northing": 441998.5, "epsg_source": 22391}}, {"type": "Feature", "geometry": {"type": "Point", "coordinates": [9.19068, 37.27913]}, "properties": {"record_id": "oai:u-bordeaux-montaigne.fr:340354", "symbol_class": "building", "pixel_x": 794.9, "pixel_y": 5188.2, "easting": 437052.1, "northing": 441967.4, "epsg_source": 22391}}, {"type": "Feature", "geometry": {"type": "Point", "coordinates": [9.43978, 37.26085]}, "properties": {"record_id": "oai:u-bordeaux-montaigne.fr:340354", "symbol_class": "building", "pixel_x": 5943.6, "pixel_y": 5307.6, "easting": 459130.3, "northing": 439805.8, "epsg_source": 22391}}, {"type": "Feature", "geometry": {"type": "Point", "coordinates": [9.44048, 37.25995]}, "properties": {"record_id": "oai:u-bordeaux-montaigne.fr:340354", "symbol_class": "building", "pixel_x": 5959.7, "pixel_y": 5329.6, "easting": 459192.6, "northing": 439705.9, "epsg_source": 22391}}, {"type": "Feature", "geometry": {"type": "Point", "coordinates": [9.4086, 37.2613]}, "properties": {"record_id": "oai:u-bordeaux-montaigne.fr:340354", "symbol_class": "building", "pixel_x": 5302.4, "pixel_y": 5340.4, "easting": 456365.4, "northing": 439869.9, "epsg_source": 22391}}, {"type": "Feature", "geometry": {"type": "Point", "coordinates": [9.4354, 37.25906]}, "properties": {"record_id": "oai:u-bordeaux-montaigne.fr:340354", "symbol_class": "building", "pixel_x": 5856.8, "pixel_y": 5359.7, "easting": 458740.9, "northing": 439609.3, "epsg_source": 22391}}, {"type": "Feature", "geometry": {"type": "Point", "coordinates": [9.40777, 37.26051]}, "properties": {"record_id": "oai:u-bordeaux-montaigne.fr:340354", "symbol_class": "building", "pixel_x": 5286.7, "pixel_y": 5362.0, "easting": 456291.3, "northing": 439782.0, "epsg_source": 22391}}, {"type": "Feature", "geometry": {"type": "Point", "coordinates": [9.18987, 37.26993]}, "properties": {"record_id": "oai:u-bordeaux-montaigne.fr:340354", "symbol_class": "building", "pixel_x": 794.0, "pixel_y": 5425.3, "easting": 436972.5, "northing": 440946.6, "epsg_source": 22391}}, {"type": "Feature", "geometry": {"type": "Point", "coordinates": [9.18914, 37.27007]}, "properties": {"record_id": "oai:u-bordeaux-montaigne.fr:340354", "symbol_class": "building", "pixel_x": 778.8, "pixel_y": 5422.8, "easting": 436908.2, "northing": 440962.4, "epsg_source": 22391}}, {"type": "Feature", "geometry": {"type": "Point", "coordinates": [9.18848, 37.27008]}, "properties": {"record_id": "oai:u-bordeaux-montaigne.fr:340354", "symbol_class": "building", "pixel_x": 765.2, "pixel_y": 5423.5, "easting": 436849.5, "northing": 440963.7, "epsg_source": 22391}}, {"type": "Feature", "geometry": {"type": "Point", "coordinates": [9.43907, 37.25287]}, "properties": {"record_id": "oai:u-bordeaux-montaigne.fr:340354", "symbol_class": "building", "pixel_x": 5943.4, "pixel_y": 5513.1, "easting": 459063.7, "northing": 438921.0, "epsg_source": 22391}}, {"type": "Feature", "geometry": {"type": "Point", "coordinates": [9.43535, 37.25208]}, "properties": {"record_id": "oai:u-bordeaux-montaigne.fr:340354", "symbol_class": "building", "pixel_x": 5868.4, "pixel_y": 5538.8, "easting": 458733.5, "northing": 438834.6, "epsg_source": 22391}}, {"type": "Feature", "geometry": {"type": "Point", "coordinates": [9.18878, 37.26147]}, "properties": {"record_id": "oai:u-bordeaux-montaigne.fr:340354", "symbol_class": "building", "pixel_x": 786.2, "pixel_y": 5643.7, "easting": 436869.2, "northing": 440009.0, "epsg_source": 22391}}, {"type": "Feature", "geometry": {"type": "Point", "coordinates": [9.1878, 37.26146]}, "properties": {"record_id": "oai:u-bordeaux-montaigne.fr:340354", "symbol_class": "building", "pixel_x": 766.0, "pixel_y": 5645.3, "easting": 436782.0, "northing": 440008.4, "epsg_source": 22391}}, {"type": "Feature", "geometry": {"type": "Point", "coordinates": [9.18908, 37.26077]}, "properties": {"record_id": "oai:u-bordeaux-montaigne.fr:340354", "symbol_class": "building", "pixel_x": 793.5, "pixel_y": 5661.3, "easting": 436895.0, "northing": 439930.9, "epsg_source": 22391}}, {"type": "Feature", "geometry": {"type": "Point", "coordinates": [9.18858, 37.25592]}, "properties": {"record_id": "oai:u-bordeaux-montaigne.fr:340354", "symbol_class": "building", "pixel_x": 791.5, "pixel_y": 5786.5, "easting": 436846.5, "northing": 439392.3, "epsg_source": 22391}}, {"type": "Feature", "geometry": {"type": "Point", "coordinates": [9.18689, 37.25589]}, "properties": {"record_id": "oai:u-bordeaux-montaigne.fr:340354", "symbol_class": "building", "pixel_x": 756.8, "pixel_y": 5789.5, "easting": 436696.6, "northing": 439390.7, "epsg_source": 22391}}, {"type": "Feature", "geometry": {"type": "Point", "coordinates": [9.18568, 37.25567]}, "properties": {"record_id": "oai:u-bordeaux-montaigne.fr:340354", "symbol_class": "building", "pixel_x": 732.3, "pixel_y": 5796.8, "easting": 436588.9, "northing": 439367.0, "epsg_source": 22391}}, {"type": "Feature", "geometry": {"type": "Point", "coordinates": [9.18679, 37.25544]}, "properties": {"record_id": "oai:u-bordeaux-montaigne.fr:340354", "symbol_class": "building", "pixel_x": 755.7, "pixel_y": 5801.2, "easting": 436687.8, "northing": 439340.3, "epsg_source": 22391}}, {"type": "Feature", "geometry": {"type": "Point", "coordinates": [9.19163, 37.25515]}, "properties": {"record_id": "oai:u-bordeaux-montaigne.fr:340354", "symbol_class": "building", "pixel_x": 855.5, "pixel_y": 5802.0, "easting": 437116.4, "northing": 439305.1, "epsg_source": 22391}}, {"type": "Feature", "geometry": {"type": "Point", "coordinates": [9.21286, 37.25365]}, "properties": {"record_id": "oai:u-bordeaux-montaigne.fr:340354", "symbol_class": "building", "pixel_x": 1294.4, "pixel_y": 5811.0, "easting": 438998.9, "northing": 439125.9, "epsg_source": 22391}}, {"type": "Feature", "geometry": {"type": "Point", "coordinates": [9.30276, 37.24252]}, "properties": {"record_id": "oai:u-bordeaux-montaigne.fr:340354", "symbol_class": "building", "pixel_x": 3160.8, "pixel_y": 5971.4, "easting": 446964.9, "northing": 437838.2, "epsg_source": 22391}}, {"type": "Feature", "geometry": {"type": "Point", "coordinates": [9.31504, 37.24181]}, "properties": {"record_id": "oai:u-bordeaux-montaigne.fr:340354", "symbol_class": "building", "pixel_x": 3414.4, "pixel_y": 5972.5, "easting": 448053.8, "northing": 437752.1, "epsg_source": 22391}}, {"type": "Feature", "geometry": {"type": "Point", "coordinates": [9.30205, 37.24249]}, "properties": {"record_id": "oai:u-bordeaux-montaigne.fr:340354", "symbol_class": "building", "pixel_x": 3146.4, "pixel_y": 5973.2, "easting": 446902.3, "northing": 437834.8, "epsg_source": 22391}}, {"type": "Feature", "geometry": {"type": "Point", "coordinates": [9.31404, 37.2418]}, "properties": {"record_id": "oai:u-bordeaux-montaigne.fr:340354", "symbol_class": "building", "pixel_x": 3394.0, "pixel_y": 5974.1, "easting": 447965.6, "northing": 437751.8, "epsg_source": 22391}}, {"type": "Feature", "geometry": {"type": "Point", "coordinates": [9.32474, 37.24109]}, "properties": {"record_id": "oai:u-bordeaux-montaigne.fr:340354", "symbol_class": "building", "pixel_x": 3615.1, "pixel_y": 5977.2, "easting": 448914.6, "northing": 437667.7, "epsg_source": 22391}}, {"type": "Feature", "geometry": {"type": "Point", "coordinates": [9.35907, 37.23951]}, "properties": {"record_id": "oai:u-bordeaux-montaigne.fr:340354", "symbol_class": "building", "pixel_x": 4323.4, "pixel_y": 5969.4, "easting": 451959.3, "northing": 437474.7, "epsg_source": 22391}}, {"type": "Feature", "geometry": {"type": "Point", "coordinates": [9.34874, 37.23982]}, "properties": {"record_id": "oai:u-bordeaux-montaigne.fr:340354", "symbol_class": "building", "pixel_x": 4110.5, "pixel_y": 5976.1, "easting": 451042.7, "northing": 437513.8, "epsg_source": 22391}}, {"type": "Feature", "geometry": {"type": "Point", "coordinates": [9.34783, 37.24005]}, "properties": {"record_id": "oai:u-bordeaux-montaigne.fr:340354", "symbol_class": "building", "pixel_x": 4091.5, "pixel_y": 5971.5, "easting": 450962.5, "northing": 437539.7, "epsg_source": 22391}}, {"type": "Feature", "geometry": {"type": "Point", "coordinates": [9.40404, 37.23687]}, "properties": {"record_id": "oai:u-bordeaux-montaigne.fr:340354", "symbol_class": "building", "pixel_x": 5252.0, "pixel_y": 5973.3, "easting": 455947.1, "northing": 437160.8, "epsg_source": 22391}}, {"type": "Feature", "geometry": {"type": "Point", "coordinates": [9.32543, 37.24125]}, "properties": {"record_id": "oai:u-bordeaux-montaigne.fr:340354", "symbol_class": "building", "pixel_x": 3629.0, "pixel_y": 5972.1, "easting": 448975.6, "northing": 437685.4, "epsg_source": 22391}}, {"type": "Feature", "geometry": {"type": "Point", "coordinates": [9.33645, 37.24053]}, "properties": {"record_id": "oai:u-bordeaux-montaigne.fr:340354", "symbol_class": "building", "pixel_x": 3856.7, "pixel_y": 5975.1, "easting": 449953.0, "northing": 437599.7, "epsg_source": 22391}}, {"type": "Feature", "geometry": {"type": "Point", "coordinates": [9.33755, 37.24068]}, "properties": {"record_id": "oai:u-bordeaux-montaigne.fr:340354", "symbol_class": "building", "pixel_x": 3879.0, "pixel_y": 5969.9, "easting": 450050.3, "northing": 437614.9, "epsg_source": 22391}}, {"type": "Feature", "geometry": {"type": "Point", "coordinates": [9.39286, 37.23743]}, "properties": {"record_id": "oai:u-bordeaux-montaigne.fr:340354", "symbol_class": "building", "pixel_x": 5021.3, "pixel_y": 5974.8, "easting": 454955.7, "northing": 437228.1, "epsg_source": 22391}}, {"type": "Feature", "geometry": {"type": "Point", "coordinates": [9.40335, 37.23662]}, "properties": {"record_id": "oai:u-bordeaux-montaigne.fr:340354", "symbol_class": "building", "pixel_x": 5238.3, "pixel_y": 5980.8, "easting": 455885.8, "northing": 437132.8, "epsg_source": 22391}}, {"type": "Feature", "geometry": {"type": "Point", "coordinates": [9.38268, 37.23773]}, "properties": {"record_id": "oai:u-bordeaux-montaigne.fr:340354", "symbol_class": "building", "pixel_x": 4811.6, "pixel_y": 5981.6, "easting": 454052.5, "northing": 437266.0, "epsg_source": 22391}}, {"type": "Feature", "geometry": {"type": "Point", "coordinates": [9.38169, 37.23805]}, "properties": {"record_id": "oai:u-bordeaux-montaigne.fr:340354", "symbol_class": "building", "pixel_x": 4790.7, "pixel_y": 5974.8, "easting": 453965.1, "northing": 437301.8, "epsg_source": 22391}}, {"type": "Feature", "geometry": {"type": "Point", "coordinates": [9.41543, 37.23615]}, "properties": {"record_id": "oai:u-bordeaux-montaigne.fr:340354", "symbol_class": "building", "pixel_x": 5487.4, "pixel_y": 5975.5, "easting": 456957.5, "northing": 437076.0, "epsg_source": 22391}}, {"type": "Feature", "geometry": {"type": "Point", "coordinates": [9.30252, 37.24243]}, "properties": {"record_id": "oai:u-bordeaux-montaigne.fr:340354", "symbol_class": "building", "pixel_x": 3156.1, "pixel_y": 5974.1, "easting": 446943.6, "northing": 437827.9, "epsg_source": 22391}}, {"type": "Feature", "geometry": {"type": "Point", "coordinates": [9.41478, 37.2359]}, "properties": {"record_id": "oai:u-bordeaux-montaigne.fr:340354", "symbol_class": "building", "pixel_x": 5474.4, "pixel_y": 5983.0, "easting": 456899.2, "northing": 437047.8, "epsg_source": 22391}}, {"type": "Feature", "geometry": {"type": "Point", "coordinates": [9.29146, 37.24295]}, "properties": {"record_id": "oai:u-bordeaux-montaigne.fr:340354", "symbol_class": "building", "pixel_x": 2928.0, "pixel_y": 5976.2, "easting": 445963.5, "northing": 437892.0, "epsg_source": 22391}}, {"type": "Feature", "geometry": {"type": "Point", "coordinates": [9.30173, 37.24245]}, "properties": {"record_id": "oai:u-bordeaux-montaigne.fr:340354", "symbol_class": "building", "pixel_x": 3139.8, "pixel_y": 5974.6, "easting": 446873.6, "northing": 437831.1, "epsg_source": 22391}}, {"type": "Feature", "geometry": {"type": "Point", "coordinates": [9.2908, 37.24288]}, "properties": {"record_id": "oai:u-bordeaux-montaigne.fr:340354", "symbol_class": "building", "pixel_x": 2914.5, "pixel_y": 5978.9, "easting": 445904.4, "northing": 437884.5, "epsg_source": 22391}}, {"type": "Feature", "geometry": {"type": "Point", "coordinates": [9.19555, 37.2477]}, "properties": {"record_id": "oai:u-bordeaux-montaigne.fr:340354", "symbol_class": "building", "pixel_x": 948.9, "pixel_y": 5987.6, "easting": 437458.5, "northing": 438476.0, "epsg_source": 22391}}, {"type": "Feature", "geometry": {"type": "Point", "coordinates": [9.36002, 37.23886]}, "properties": {"record_id": "oai:u-bordeaux-montaigne.fr:340354", "symbol_class": "building", "pixel_x": 4343.9, "pixel_y": 5984.8, "easting": 452042.8, "northing": 437401.9, "epsg_source": 22391}}, {"type": "Feature", "geometry": {"type": "Point", "coordinates": [9.32621, 37.2407]}, "properties": {"record_id": "oai:u-bordeaux-montaigne.fr:340354", "symbol_class": "building", "pixel_x": 3646.0, "pixel_y": 5985.1, "easting": 449044.7, "northing": 437623.8, "epsg_source": 22391}}, {"type": "Feature", "geometry": {"type": "Point", "coordinates": [9.38163, 37.23749]}, "properties": {"record_id": "oai:u-bordeaux-montaigne.fr:340354", "symbol_class": "building", "pixel_x": 4790.4, "pixel_y": 5989.3, "easting": 453958.9, "northing": 437239.6, "epsg_source": 22391}}, {"type": "Feature", "geometry": {"type": "Point", "coordinates": [9.39282, 37.23673]}, "properties": {"record_id": "oai:u-bordeaux-montaigne.fr:340354", "symbol_class": "building", "pixel_x": 5021.7, "pixel_y": 5992.9, "easting": 454951.4, "northing": 437150.1, "epsg_source": 22391}}, {"type": "Feature", "geometry": {"type": "Point", "coordinates": [9.22469, 37.24593]}, "properties": {"record_id": "oai:u-bordeaux-montaigne.fr:340354", "symbol_class": "building", "pixel_x": 1550.8, "pixel_y": 5992.6, "easting": 440042.1, "northing": 438261.8, "epsg_source": 22391}}, {"type": "Feature", "geometry": {"type": "Point", "coordinates": [9.20214, 37.24711]}, "properties": {"record_id": "oai:u-bordeaux-montaigne.fr:340354", "symbol_class": "building", "pixel_x": 1085.4, "pixel_y": 5993.6, "easting": 438042.6, "northing": 438406.4, "epsg_source": 22391}}, {"type": "Feature", "geometry": {"type": "Point", "coordinates": [9.21265, 37.24655]}, "properties": {"record_id": "oai:u-bordeaux-montaigne.fr:340354", "symbol_class": "building", "pixel_x": 1302.2, "pixel_y": 5993.5, "easting": 438974.3, "northing": 438337.6, "epsg_source": 22391}}, {"type": "Feature", "geometry": {"type": "Point", "coordinates": [9.20127, 37.24712]}, "properties": {"record_id": "oai:u-bordeaux-montaigne.fr:340354", "symbol_class": "building", "pixel_x": 1067.4, "pixel_y": 5994.4, "easting": 437965.0, "northing": 438408.7, "epsg_source": 22391}}, {"type": "Feature", "geometry": {"type": "Point", "coordinates": [9.22266, 37.24591]}, "properties": {"record_id": "oai:u-bordeaux-montaigne.fr:340354", "symbol_class": "building", "pixel_x": 1509.1, "pixel_y": 5996.1, "easting": 439861.8, "northing": 438260.2, "epsg_source": 22391}}, {"type": "Feature", "geometry": {"type": "Point", "coordinates": [9.22362, 37.24584]}, "properties": {"record_id": "oai:u-bordeaux-montaigne.fr:340354", "symbol_class": "building", "pixel_x": 1529.0, "pixel_y": 5996.5, "easting": 439947.3, "northing": 438252.2, "epsg_source": 22391}}, {"type": "Feature", "geometry": {"type": "Point", "coordinates": [9.2681, 37.24352]}, "properties": {"record_id": "oai:u-bordeaux-montaigne.fr:340354", "symbol_class": "building", "pixel_x": 2447.0, "pixel_y": 5994.1, "easting": 443891.4, "northing": 437968.7, "epsg_source": 22391}}, {"type": "Feature", "geometry": {"type": "Point", "coordinates": [9.20044, 37.24679]}, "properties": {"record_id": "oai:u-bordeaux-montaigne.fr:340354", "symbol_class": "building", "pixel_x": 1050.8, "pixel_y": 6004.3, "easting": 437891.0, "northing": 438371.7, "epsg_source": 22391}}, {"type": "Feature", "geometry": {"type": "Point", "coordinates": [9.21192, 37.24617]}, "properties": {"record_id": "oai:u-bordeaux-montaigne.fr:340354", "symbol_class": "building", "pixel_x": 1287.9, "pixel_y": 6004.3, "easting": 438909.3, "northing": 438295.6, "epsg_source": 22391}}, {"type": "Feature", "geometry": {"type": "Point", "coordinates": [9.24569, 37.24413]}, "properties": {"record_id": "oai:u-bordeaux-montaigne.fr:340354", "symbol_class": "building", "pixel_x": 1985.4, "pixel_y": 6009.7, "easting": 441903.8, "northing": 438049.3, "epsg_source": 22391}}, {"type": "Feature", "geometry": {"type": "Point", "coordinates": [9.25685, 37.2437]}, "properties": {"record_id": "oai:u-bordeaux-montaigne.fr:340354", "symbol_class": "building", "pixel_x": 2215.5, "pixel_y": 6005.2, "easting": 442893.6, "northing": 437994.8, "epsg_source": 22391}}, {"type": "Feature", "geometry": {"type": "Point", "coordinates": [9.236, 37.24495]}, "properties": {"record_id": "oai:u-bordeaux-montaigne.fr:340354", "symbol_class": "building", "pixel_x": 1784.7, "pixel_y": 6002.2, "easting": 441044.1, "northing": 438145.8, "epsg_source": 22391}}, {"type": "Feature", "geometry": {"type": "Point", "coordinates": [9.25758, 37.24366]}, "properties": {"record_id": "oai:u-bordeaux-montaigne.fr:340354", "symbol_class": "building", "pixel_x": 2230.5, "pixel_y": 6005.4, "easting": 442957.7, "northing": 437989.4, "epsg_source": 22391}}, {"type": "Feature", "geometry": {"type": "Point", "coordinates": [9.20201, 37.24664]}, "properties": {"record_id": "oai:u-bordeaux-montaigne.fr:340354", "symbol_class": "building", "pixel_x": 1083.4, "pixel_y": 6005.8, "easting": 438030.2, "northing": 438354.8, "epsg_source": 22391}}, {"type": "Feature", "geometry": {"type": "Point", "coordinates": [9.23528, 37.2447]}, "properties": {"record_id": "oai:u-bordeaux-montaigne.fr:340354", "symbol_class": "building", "pixel_x": 1770.5, "pixel_y": 6009.5, "easting": 440980.4, "northing": 438118.7, "epsg_source": 22391}}, {"type": "Feature", "geometry": {"type": "Point", "coordinates": [9.21273, 37.24622]}, "properties": {"record_id": "oai:u-bordeaux-montaigne.fr:340354", "symbol_class": "building", "pixel_x": 1304.5, "pixel_y": 6001.7, "easting": 438981.4, "northing": 438301.6, "epsg_source": 22391}}, {"type": "Feature", "geometry": {"type": "Point", "coordinates": [9.22284, 37.24534]}, "properties": {"record_id": "oai:u-bordeaux-montaigne.fr:340354", "symbol_class": "building", "pixel_x": 1513.8, "pixel_y": 6010.4, "easting": 439877.5, "northing": 438197.1, "epsg_source": 22391}}, {"type": "Feature", "geometry": {"type": "Point", "coordinates": [9.22242, 37.24545]}, "properties": {"record_id": "oai:u-bordeaux-montaigne.fr:340354", "symbol_class": "building", "pixel_x": 1504.8, "pixel_y": 6008.3, "easting": 439839.8, "northing": 438209.1, "epsg_source": 22391}}, {"type": "Feature", "geometry": {"type": "Point", "coordinates": [9.22378, 37.24522]}, "properties": {"record_id": "oai:u-bordeaux-montaigne.fr:340354", "symbol_class": "building", "pixel_x": 1533.3, "pixel_y": 6012.1, "easting": 439960.7, "northing": 438183.8, "epsg_source": 22391}}, {"type": "Feature", "geometry": {"type": "Point", "coordinates": [9.37136, 37.23743]}, "properties": {"record_id": "oai:u-bordeaux-montaigne.fr:340354", "symbol_class": "building", "pixel_x": 4579.5, "pixel_y": 6005.4, "easting": 453048.1, "northing": 437237.6, "epsg_source": 22391}}, {"type": "Feature", "geometry": {"type": "Point", "coordinates": [9.37049, 37.23745]}, "properties": {"record_id": "oai:u-bordeaux-montaigne.fr:340354", "symbol_class": "building", "pixel_x": 4561.5, "pixel_y": 6006.0, "easting": 452970.4, "northing": 437240.8, "epsg_source": 22391}}, {"type": "Feature", "geometry": {"type": "Point", "coordinates": [9.19515, 37.24694]}, "properties": {"record_id": "oai:u-bordeaux-montaigne.fr:340354", "symbol_class": "building", "pixel_x": 942.0, "pixel_y": 6007.5, "easting": 437422.4, "northing": 438392.6, "epsg_source": 22391}}, {"type": "Feature", "geometry": {"type": "Point", "coordinates": [9.26983, 37.24289]}, "properties": {"record_id": "oai:u-bordeaux-montaigne.fr:340354", "symbol_class": "building", "pixel_x": 2483.5, "pixel_y": 6007.9, "easting": 444043.9, "northing": 437897.8, "epsg_source": 22391}}, {"type": "Feature", "geometry": {"type": "Point", "coordinates": [9.26896, 37.24292]}, "properties": {"record_id": "oai:u-bordeaux-montaigne.fr:340354", "symbol_class": "building", "pixel_x": 2465.7, "pixel_y": 6008.5, "easting": 443967.1, "northing": 437901.0, "epsg_source": 22391}}, {"type": "Feature", "geometry": {"type": "Point", "coordinates": [9.26818, 37.24294]}, "properties": {"record_id": "oai:u-bordeaux-montaigne.fr:340354", "symbol_class": "building", "pixel_x": 2449.6, "pixel_y": 6009.0, "easting": 443897.8, "northing": 437903.8, "epsg_source": 22391}}, {"type": "Feature", "geometry": {"type": "Point", "coordinates": [9.36979, 37.2371]}, "properties": {"record_id": "oai:u-bordeaux-montaigne.fr:340354", "symbol_class": "building", "pixel_x": 4547.8, "pixel_y": 6016.1, "easting": 452908.6, "northing": 437201.7, "epsg_source": 22391}}, {"type": "Feature", "geometry": {"type": "Point", "coordinates": [9.21274, 37.24586]}, "properties": {"record_id": "oai:u-bordeaux-montaigne.fr:340354", "symbol_class": "building", "pixel_x": 1305.3, "pixel_y": 6011.1, "easting": 438981.8, "northing": 438260.7, "epsg_source": 22391}}, {"type": "Feature", "geometry": {"type": "Point", "coordinates": [9.23455, 37.24463]}, "properties": {"record_id": "oai:u-bordeaux-montaigne.fr:340354", "symbol_class": "building", "pixel_x": 1755.7, "pixel_y": 6012.3, "easting": 440916.1, "northing": 438111.6, "epsg_source": 22391}}, {"type": "Feature", "geometry": {"type": "Point", "coordinates": [9.3705, 37.23719]}, "properties": {"record_id": "oai:u-bordeaux-montaigne.fr:340354", "symbol_class": "building", "pixel_x": 4562.3, "pixel_y": 6012.6, "easting": 452971.9, "northing": 437212.2, "epsg_source": 22391}}, {"type": "Feature", "geometry": {"type": "Point", "coordinates": [9.24722, 37.24382]}, "properties": {"record_id": "oai:u-bordeaux-montaigne.fr:340354", "symbol_class": "building", "pixel_x": 2017.4, "pixel_y": 6015.5, "easting": 442039.2, "northing": 438014.0, "epsg_source": 22391}}, {"type": "Feature", "geometry": {"type": "Point", "coordinates": [9.23602, 37.24442]}, "properties": {"record_id": "oai:u-bordeaux-montaigne.fr:340354", "symbol_class": "building", "pixel_x": 1786.2, "pixel_y": 6015.8, "easting": 441045.9, "northing": 438087.0, "epsg_source": 22391}}, {"type": "Feature", "geometry": {"type": "Point", "coordinates": [9.19514, 37.24615]}, "properties": {"record_id": "oai:u-bordeaux-montaigne.fr:340354", "symbol_class": "building", "pixel_x": 943.2, "pixel_y": 6027.8, "easting": 437421.1, "northing": 438304.9, "epsg_source": 22391}}, {"type": "Feature", "geometry": {"type": "Point", "coordinates": [9.19567, 37.24612]}, "properties": {"record_id": "oai:u-bordeaux-montaigne.fr:340354", "symbol_class": "building", "pixel_x": 954.1, "pixel_y": 6028.0, "easting": 437467.7, "northing": 438300.5, "epsg_source": 22391}}, {"type": "Feature", "geometry": {"type": "Point", "coordinates": [9.19497, 37.24443]}, "properties": {"record_id": "oai:u-bordeaux-montaigne.fr:340354", "symbol_class": "building", "pixel_x": 942.5, "pixel_y": 6072.2, "easting": 437404.0, "northing": 438114.0, "epsg_source": 22391}}, {"type": "Feature", "geometry": {"type": "Point", "coordinates": [9.1956, 37.24433]}, "properties": {"record_id": "oai:u-bordeaux-montaigne.fr:340354", "symbol_class": "building", "pixel_x": 955.6, "pixel_y": 6074.0, "easting": 437459.7, "northing": 438102.0, "epsg_source": 22391}}, {"type": "Feature", "geometry": {"type": "Point", "coordinates": [9.19516, 37.24362]}, "properties": {"record_id": "oai:u-bordeaux-montaigne.fr:340354", "symbol_class": "building", "pixel_x": 947.8, "pixel_y": 6092.7, "easting": 437420.3, "northing": 438024.1, "epsg_source": 22391}}, {"type": "Feature", "geometry": {"type": "Point", "coordinates": [9.27641, 37.23713]}, "properties": {"record_id": "oai:u-bordeaux-montaigne.fr:340354", "symbol_class": "building", "pixel_x": 2628.8, "pixel_y": 6146.4, "easting": 444623.5, "northing": 437254.9, "epsg_source": 22391}}, {"type": "Feature", "geometry": {"type": "Point", "coordinates": [9.26992, 37.23743]}, "properties": {"record_id": "oai:u-bordeaux-montaigne.fr:340354", "symbol_class": "building", "pixel_x": 2494.9, "pixel_y": 6147.8, "easting": 444048.1, "northing": 437291.9, "epsg_source": 22391}}]}