{"type": "FeatureCollection", "features": [{"type": "Feature", "geometry": {"type": "Point", "coordinates": [10.65072, 35.69548]}, "properties": {"record_id": "oai:u-bordeaux-montaigne.fr:340494", "symbol_class": "building", "pixel_x": 4288.0, "pixel_y": 1320.1, "easting": 567871.8, "northing": 266317.6, "epsg_source": 22391}}, {"type": "Feature", "geometry": {"type": "Point", "coordinates": [10.65376, 35.68436]}, "properties": {"record_id": "oai:u-bordeaux-montaigne.fr:340494", "symbol_class": "building", "pixel_x": 4376.4, "pixel_y": 1604.5, "easting": 568156.5, "northing": 265086.6, "epsg_source": 22391}}, {"type": "Feature", "geometry": {"type": "Point", "coordinates": [10.65326, 35.68427]}, "properties": {"record_id": "oai:u-bordeaux-montaigne.fr:340494", "symbol_class": "building", "pixel_x": 4366.0, "pixel_y": 1607.6, "easting": 568111.4, "northing": 265076.5, "epsg_source": 22391}}, {"type": "Feature", "geometry": {"type": "Point", "coordinates": [10.65354, 35.68402]}, "properties": {"record_id": "oai:u-bordeaux-montaigne.fr:340494", "symbol_class": "building", "pixel_x": 4372.5, "pixel_y": 1613.7, "easting": 568136.9, "northing": 265048.7, "epsg_source": 22391}}, {"type": "Feature", "geometry": {"type": "Point", "coordinates": [10.64765, 35.68254]}, "properties": {"record_id": "oai:u-bordeaux-montaigne.fr:340494", "symbol_class": "building", "pixel_x": 4250.5, "pixel_y": 1662.5, "easting": 567605.4, "northing": 264880.7, "epsg_source": 22391}}, {"type": "Feature", "geometry": {"type": "Point", "coordinates": [10.64801, 35.68232]}, "properties": {"record_id": "oai:u-bordeaux-montaigne.fr:340494", "symbol_class": "building", "pixel_x": 4258.5, "pixel_y": 1667.5, "easting": 567637.7, "northing": 264856.9, "epsg_source": 22391}}, {"type": "Feature", "geometry": {"type": "Point", "coordinates": [10.65344, 35.67569]}, "properties": {"record_id": "oai:u-bordeaux-montaigne.fr:340494", "symbol_class": "building", "pixel_x": 4388.2, "pixel_y": 1831.0, "easting": 568134.9, "northing": 264124.6, "epsg_source": 22391}}, {"type": "Feature", "geometry": {"type": "Point", "coordinates": [10.64994, 35.6739]}, "properties": {"record_id": "oai:u-bordeaux-montaigne.fr:340494", "symbol_class": "building", "pixel_x": 4317.7, "pixel_y": 1883.6, "easting": 567820.1, "northing": 263924.2, "epsg_source": 22391}}, {"type": "Feature", "geometry": {"type": "Point", "coordinates": [10.65353, 35.66203]}, "properties": {"record_id": "oai:u-bordeaux-montaigne.fr:340494", "symbol_class": "building", "pixel_x": 4419.4, "pixel_y": 2186.8, "easting": 568155.2, "northing": 262609.3, "epsg_source": 22391}}, {"type": "Feature", "geometry": {"type": "Point", "coordinates": [10.65224, 35.66183]}, "properties": {"record_id": "oai:u-bordeaux-montaigne.fr:340494", "symbol_class": "building", "pixel_x": 4392.3, "pixel_y": 2194.2, "easting": 568038.3, "northing": 262586.5, "epsg_source": 22391}}, {"type": "Feature", "geometry": {"type": "Point", "coordinates": [10.63818, 35.6324]}, "properties": {"record_id": "oai:u-bordeaux-montaigne.fr:340494", "symbol_class": "building", "pixel_x": 4156.2, "pixel_y": 2985.5, "easting": 566790.9, "northing": 259312.6, "epsg_source": 22391}}, {"type": "Feature", "geometry": {"type": "Point", "coordinates": [10.65446, 35.62926]}, "properties": {"record_id": "oai:u-bordeaux-montaigne.fr:340494", "symbol_class": "building", "pixel_x": 4509.2, "pixel_y": 3038.8, "easting": 568267.3, "northing": 258975.7, "epsg_source": 22391}}, {"type": "Feature", "geometry": {"type": "Point", "coordinates": [10.65601, 35.62894]}, "properties": {"record_id": "oai:u-bordeaux-montaigne.fr:340494", "symbol_class": "building", "pixel_x": 4543.0, "pixel_y": 3044.5, "easting": 568408.3, "northing": 258941.2, "epsg_source": 22391}}, {"type": "Feature", "geometry": {"type": "Point", "coordinates": [10.6568, 35.62875]}, "properties": {"record_id": "oai:u-bordeaux-montaigne.fr:340494", "symbol_class": "building", "pixel_x": 4560.0, "pixel_y": 3048.1, "easting": 568479.3, "northing": 258920.6, "epsg_source": 22391}}, {"type": "Feature", "geometry": {"type": "Point", "coordinates": [10.65793, 35.62852]}, "properties": {"record_id": "oai:u-bordeaux-montaigne.fr:340494", "symbol_class": "building", "pixel_x": 4584.6, "pixel_y": 3051.9, "easting": 568581.8, "northing": 258896.7, "epsg_source": 22391}}, {"type": "Feature", "geometry": {"type": "Point", "coordinates": [10.64956, 35.54882]}, "properties": {"record_id": "oai:u-bordeaux-montaigne.fr:340494", "symbol_class": "building", "pixel_x": 4576.8, "pixel_y": 5143.0, "easting": 567891.8, "northing": 250051.3, "epsg_source": 22391}}]}