{"type": "FeatureCollection", "features": [{"type": "Feature", "geometry": {"type": "Point", "coordinates": [9.99042, 35.57927]}, "properties": {"record_id": "oai:u-bordeaux-montaigne.fr:340510", "symbol_class": "building", "pixel_x": 5585.4, "pixel_y": 753.7, "easting": 508142.9, "northing": 253171.2, "epsg_source": 22391}}, {"type": "Feature", "geometry": {"type": "Point", "coordinates": [9.79183, 35.58087]}, "properties": {"record_id": "oai:u-bordeaux-montaigne.fr:340510", "symbol_class": "building", "pixel_x": 1344.8, "pixel_y": 1026.6, "easting": 490149.2, "northing": 253349.4, "epsg_source": 22391}}, {"type": "Feature", "geometry": {"type": "Point", "coordinates": [9.89335, 35.57148]}, "properties": {"record_id": "oai:u-bordeaux-montaigne.fr:340510", "symbol_class": "building", "pixel_x": 3529.3, "pixel_y": 1112.2, "easting": 499347.5, "northing": 252302.8, "epsg_source": 22391}}, {"type": "Feature", "geometry": {"type": "Point", "coordinates": [9.77827, 35.5782]}, "properties": {"record_id": "oai:u-bordeaux-montaigne.fr:340510", "symbol_class": "building", "pixel_x": 1060.5, "pixel_y": 1117.4, "easting": 488920.3, "northing": 253055.5, "epsg_source": 22391}}, {"type": "Feature", "geometry": {"type": "Point", "coordinates": [9.82716, 35.57294]}, "properties": {"record_id": "oai:u-bordeaux-montaigne.fr:340510", "symbol_class": "building", "pixel_x": 2113.9, "pixel_y": 1178.5, "easting": 493349.4, "northing": 252466.9, "epsg_source": 22391}}, {"type": "Feature", "geometry": {"type": "Point", "coordinates": [9.8005, 35.57363]}, "properties": {"record_id": "oai:u-bordeaux-montaigne.fr:340510", "symbol_class": "building", "pixel_x": 1543.5, "pixel_y": 1202.2, "easting": 490933.2, "northing": 252545.7, "epsg_source": 22391}}, {"type": "Feature", "geometry": {"type": "Point", "coordinates": [9.80089, 35.57338]}, "properties": {"record_id": "oai:u-bordeaux-montaigne.fr:340510", "symbol_class": "building", "pixel_x": 1552.4, "pixel_y": 1208.0, "easting": 490969.0, "northing": 252518.7, "epsg_source": 22391}}, {"type": "Feature", "geometry": {"type": "Point", "coordinates": [9.8008, 35.57317]}, "properties": {"record_id": "oai:u-bordeaux-montaigne.fr:340510", "symbol_class": "building", "pixel_x": 1550.9, "pixel_y": 1213.7, "easting": 490961.0, "northing": 252494.8, "epsg_source": 22391}}, {"type": "Feature", "geometry": {"type": "Point", "coordinates": [9.76848, 35.57297]}, "properties": {"record_id": "oai:u-bordeaux-montaigne.fr:340510", "symbol_class": "building", "pixel_x": 861.6, "pixel_y": 1269.4, "easting": 488032.4, "northing": 252476.0, "epsg_source": 22391}}, {"type": "Feature", "geometry": {"type": "Point", "coordinates": [9.78775, 35.57135]}, "properties": {"record_id": "oai:u-bordeaux-montaigne.fr:340510", "symbol_class": "building", "pixel_x": 1275.9, "pixel_y": 1281.5, "easting": 489778.3, "northing": 252294.7, "epsg_source": 22391}}, {"type": "Feature", "geometry": {"type": "Point", "coordinates": [9.76749, 35.57226]}, "properties": {"record_id": "oai:u-bordeaux-montaigne.fr:340510", "symbol_class": "building", "pixel_x": 841.8, "pixel_y": 1289.3, "easting": 487942.6, "northing": 252398.1, "epsg_source": 22391}}, {"type": "Feature", "geometry": {"type": "Point", "coordinates": [9.76689, 35.57215]}, "properties": {"record_id": "oai:u-bordeaux-montaigne.fr:340510", "symbol_class": "building", "pixel_x": 829.1, "pixel_y": 1293.3, "easting": 487887.7, "northing": 252385.3, "epsg_source": 22391}}, {"type": "Feature", "geometry": {"type": "Point", "coordinates": [9.93313, 35.55852]}, "properties": {"record_id": "oai:u-bordeaux-montaigne.fr:340510", "symbol_class": "building", "pixel_x": 4403.3, "pixel_y": 1387.4, "easting": 502952.3, "northing": 250866.3, "epsg_source": 22391}}, {"type": "Feature", "geometry": {"type": "Point", "coordinates": [9.93226, 35.55848]}, "properties": {"record_id": "oai:u-bordeaux-montaigne.fr:340510", "symbol_class": "building", "pixel_x": 4384.9, "pixel_y": 1389.9, "easting": 502873.8, "northing": 250861.9, "epsg_source": 22391}}, {"type": "Feature", "geometry": {"type": "Point", "coordinates": [9.78181, 35.56744]}, "properties": {"record_id": "oai:u-bordeaux-montaigne.fr:340510", "symbol_class": "building", "pixel_x": 1156.5, "pixel_y": 1393.0, "easting": 489239.0, "northing": 251861.6, "epsg_source": 22391}}, {"type": "Feature", "geometry": {"type": "Point", "coordinates": [9.93266, 35.55829]}, "properties": {"record_id": "oai:u-bordeaux-montaigne.fr:340510", "symbol_class": "building", "pixel_x": 4393.9, "pixel_y": 1394.2, "easting": 502910.4, "northing": 250840.7, "epsg_source": 22391}}, {"type": "Feature", "geometry": {"type": "Point", "coordinates": [9.84719, 35.56109]}, "properties": {"record_id": "oai:u-bordeaux-montaigne.fr:340510", "symbol_class": "building", "pixel_x": 2564.2, "pixel_y": 1456.5, "easting": 495163.8, "northing": 251151.9, "epsg_source": 22391}}, {"type": "Feature", "geometry": {"type": "Point", "coordinates": [9.76457, 35.56596]}, "properties": {"record_id": "oai:u-bordeaux-montaigne.fr:340510", "symbol_class": "building", "pixel_x": 791.4, "pixel_y": 1458.7, "easting": 487676.4, "northing": 251698.9, "epsg_source": 22391}}, {"type": "Feature", "geometry": {"type": "Point", "coordinates": [9.76511, 35.56599]}, "properties": {"record_id": "oai:u-bordeaux-montaigne.fr:340510", "symbol_class": "building", "pixel_x": 803.0, "pixel_y": 1457.1, "easting": 487725.9, "northing": 251702.1, "epsg_source": 22391}}, {"type": "Feature", "geometry": {"type": "Point", "coordinates": [9.76451, 35.5655]}, "properties": {"record_id": "oai:u-bordeaux-montaigne.fr:340510", "symbol_class": "building", "pixel_x": 791.1, "pixel_y": 1470.7, "easting": 487671.5, "northing": 251648.4, "epsg_source": 22391}}, {"type": "Feature", "geometry": {"type": "Point", "coordinates": [9.76524, 35.56544]}, "properties": {"record_id": "oai:u-bordeaux-montaigne.fr:340510", "symbol_class": "building", "pixel_x": 806.8, "pixel_y": 1471.2, "easting": 487737.7, "northing": 251641.2, "epsg_source": 22391}}, {"type": "Feature", "geometry": {"type": "Point", "coordinates": [9.76529, 35.56479]}, "properties": {"record_id": "oai:u-bordeaux-montaigne.fr:340510", "symbol_class": "building", "pixel_x": 809.0, "pixel_y": 1488.0, "easting": 487741.5, "northing": 251569.7, "epsg_source": 22391}}, {"type": "Feature", "geometry": {"type": "Point", "coordinates": [9.88451, 35.55269]}, "properties": {"record_id": "oai:u-bordeaux-montaigne.fr:340510", "symbol_class": "building", "pixel_x": 3377.0, "pixel_y": 1617.0, "easting": 498546.0, "northing": 250219.0, "epsg_source": 22391}}, {"type": "Feature", "geometry": {"type": "Point", "coordinates": [9.88375, 35.55176]}, "properties": {"record_id": "oai:u-bordeaux-montaigne.fr:340510", "symbol_class": "building", "pixel_x": 3362.5, "pixel_y": 1642.5, "easting": 498476.8, "northing": 250116.1, "epsg_source": 22391}}, {"type": "Feature", "geometry": {"type": "Point", "coordinates": [9.78703, 35.55663]}, "properties": {"record_id": "oai:u-bordeaux-montaigne.fr:340510", "symbol_class": "building", "pixel_x": 1288.6, "pixel_y": 1667.3, "easting": 489710.9, "northing": 250662.1, "epsg_source": 22391}}, {"type": "Feature", "geometry": {"type": "Point", "coordinates": [9.78675, 35.55621]}, "properties": {"record_id": "oai:u-bordeaux-montaigne.fr:340510", "symbol_class": "building", "pixel_x": 1283.5, "pixel_y": 1678.7, "easting": 489685.6, "northing": 250615.4, "epsg_source": 22391}}, {"type": "Feature", "geometry": {"type": "Point", "coordinates": [9.90094, 35.54905]}, "properties": {"record_id": "oai:u-bordeaux-montaigne.fr:340510", "symbol_class": "building", "pixel_x": 3734.7, "pixel_y": 1686.0, "easting": 500034.8, "northing": 249815.5, "epsg_source": 22391}}, {"type": "Feature", "geometry": {"type": "Point", "coordinates": [9.94679, 35.5462]}, "properties": {"record_id": "oai:u-bordeaux-montaigne.fr:340510", "symbol_class": "building", "pixel_x": 4719.0, "pixel_y": 1687.6, "easting": 504191.2, "northing": 249499.8, "epsg_source": 22391}}, {"type": "Feature", "geometry": {"type": "Point", "coordinates": [9.90135, 35.54889]}, "properties": {"record_id": "oai:u-bordeaux-montaigne.fr:340510", "symbol_class": "building", "pixel_x": 3743.9, "pixel_y": 1689.6, "easting": 500072.5, "northing": 249797.4, "epsg_source": 22391}}, {"type": "Feature", "geometry": {"type": "Point", "coordinates": [9.78705, 35.55576]}, "properties": {"record_id": "oai:u-bordeaux-montaigne.fr:340510", "symbol_class": "building", "pixel_x": 1290.7, "pixel_y": 1690.1, "easting": 489712.5, "northing": 250564.9, "epsg_source": 22391}}, {"type": "Feature", "geometry": {"type": "Point", "coordinates": [9.78637, 35.5559]}, "properties": {"record_id": "oai:u-bordeaux-montaigne.fr:340510", "symbol_class": "building", "pixel_x": 1276.0, "pixel_y": 1687.5, "easting": 489651.2, "northing": 250580.7, "epsg_source": 22391}}, {"type": "Feature", "geometry": {"type": "Point", "coordinates": [9.94694, 35.54567]}, "properties": {"record_id": "oai:u-bordeaux-montaigne.fr:340510", "symbol_class": "building", "pixel_x": 4723.3, "pixel_y": 1701.1, "easting": 504205.0, "northing": 249441.6, "epsg_source": 22391}}, {"type": "Feature", "geometry": {"type": "Point", "coordinates": [9.9064, 35.54719]}, "properties": {"record_id": "oai:u-bordeaux-montaigne.fr:340510", "symbol_class": "building", "pixel_x": 3854.9, "pixel_y": 1726.1, "easting": 500530.0, "northing": 249608.4, "epsg_source": 22391}}, {"type": "Feature", "geometry": {"type": "Point", "coordinates": [9.94304, 35.54443]}, "properties": {"record_id": "oai:u-bordeaux-montaigne.fr:340510", "symbol_class": "building", "pixel_x": 4642.3, "pixel_y": 1739.8, "easting": 503851.0, "northing": 249303.6, "epsg_source": 22391}}, {"type": "Feature", "geometry": {"type": "Point", "coordinates": [9.88005, 35.54737]}, "properties": {"record_id": "oai:u-bordeaux-montaigne.fr:340510", "symbol_class": "building", "pixel_x": 3292.0, "pixel_y": 1763.0, "easting": 498141.2, "northing": 249629.4, "epsg_source": 22391}}, {"type": "Feature", "geometry": {"type": "Point", "coordinates": [9.87995, 35.54706]}, "properties": {"record_id": "oai:u-bordeaux-montaigne.fr:340510", "symbol_class": "building", "pixel_x": 3290.5, "pixel_y": 1771.5, "easting": 498132.1, "northing": 249594.2, "epsg_source": 22391}}, {"type": "Feature", "geometry": {"type": "Point", "coordinates": [9.92486, 35.54414]}, "properties": {"record_id": "oai:u-bordeaux-montaigne.fr:340510", "symbol_class": "building", "pixel_x": 4255.0, "pixel_y": 1776.2, "easting": 502203.8, "northing": 249271.5, "epsg_source": 22391}}, {"type": "Feature", "geometry": {"type": "Point", "coordinates": [9.91731, 35.54404]}, "properties": {"record_id": "oai:u-bordeaux-montaigne.fr:340510", "symbol_class": "building", "pixel_x": 4094.0, "pixel_y": 1790.9, "easting": 501519.4, "northing": 249260.2, "epsg_source": 22391}}, {"type": "Feature", "geometry": {"type": "Point", "coordinates": [9.91785, 35.54401]}, "properties": {"record_id": "oai:u-bordeaux-montaigne.fr:340510", "symbol_class": "building", "pixel_x": 4105.5, "pixel_y": 1791.0, "easting": 501567.9, "northing": 249256.1, "epsg_source": 22391}}, {"type": "Feature", "geometry": {"type": "Point", "coordinates": [9.8882, 35.54436]}, "properties": {"record_id": "oai:u-bordeaux-montaigne.fr:340510", "symbol_class": "building", "pixel_x": 3471.9, "pixel_y": 1828.7, "easting": 498880.5, "northing": 249295.6, "epsg_source": 22391}}, {"type": "Feature", "geometry": {"type": "Point", "coordinates": [9.90004, 35.53987]}, "properties": {"record_id": "oai:u-bordeaux-montaigne.fr:340510", "symbol_class": "building", "pixel_x": 3733.4, "pixel_y": 1927.2, "easting": 499953.8, "northing": 248797.6, "epsg_source": 22391}}, {"type": "Feature", "geometry": {"type": "Point", "coordinates": [9.89997, 35.53954]}, "properties": {"record_id": "oai:u-bordeaux-montaigne.fr:340510", "symbol_class": "building", "pixel_x": 3732.5, "pixel_y": 1936.2, "easting": 499947.0, "northing": 248760.1, "epsg_source": 22391}}, {"type": "Feature", "geometry": {"type": "Point", "coordinates": [9.89986, 35.53785]}, "properties": {"record_id": "oai:u-bordeaux-montaigne.fr:340510", "symbol_class": "building", "pixel_x": 3733.4, "pixel_y": 1980.3, "easting": 499936.9, "northing": 248573.4, "epsg_source": 22391}}, {"type": "Feature", "geometry": {"type": "Point", "coordinates": [9.88601, 35.53899]}, "properties": {"record_id": "oai:u-bordeaux-montaigne.fr:340510", "symbol_class": "building", "pixel_x": 3435.5, "pixel_y": 1972.5, "easting": 498681.7, "northing": 248699.8, "epsg_source": 22391}}, {"type": "Feature", "geometry": {"type": "Point", "coordinates": [9.80311, 35.54383]}, "properties": {"record_id": "oai:u-bordeaux-montaigne.fr:340510", "symbol_class": "building", "pixel_x": 1656.4, "pixel_y": 1976.7, "easting": 491167.0, "northing": 249240.3, "epsg_source": 22391}}, {"type": "Feature", "geometry": {"type": "Point", "coordinates": [9.89863, 35.53795]}, "properties": {"record_id": "oai:u-bordeaux-montaigne.fr:340510", "symbol_class": "building", "pixel_x": 3707.0, "pixel_y": 1979.7, "easting": 499825.6, "northing": 248584.2, "epsg_source": 22391}}, {"type": "Feature", "geometry": {"type": "Point", "coordinates": [9.80431, 35.54323]}, "properties": {"record_id": "oai:u-bordeaux-montaigne.fr:340510", "symbol_class": "building", "pixel_x": 1683.1, "pixel_y": 1990.3, "easting": 491275.6, "northing": 249174.3, "epsg_source": 22391}}, {"type": "Feature", "geometry": {"type": "Point", "coordinates": [9.80409, 35.54267]}, "properties": {"record_id": "oai:u-bordeaux-montaigne.fr:340510", "symbol_class": "building", "pixel_x": 1679.6, "pixel_y": 2005.4, "easting": 491256.0, "northing": 249111.7, "epsg_source": 22391}}, {"type": "Feature", "geometry": {"type": "Point", "coordinates": [9.80293, 35.54238]}, "properties": {"record_id": "oai:u-bordeaux-montaigne.fr:340510", "symbol_class": "building", "pixel_x": 1655.4, "pixel_y": 2014.9, "easting": 491150.5, "northing": 249079.4, "epsg_source": 22391}}, {"type": "Feature", "geometry": {"type": "Point", "coordinates": [9.8908, 35.53574]}, "properties": {"record_id": "oai:u-bordeaux-montaigne.fr:340510", "symbol_class": "building", "pixel_x": 3544.0, "pixel_y": 2049.9, "easting": 499115.4, "northing": 248339.1, "epsg_source": 22391}}, {"type": "Feature", "geometry": {"type": "Point", "coordinates": [9.82301, 35.53916]}, "properties": {"record_id": "oai:u-bordeaux-montaigne.fr:340510", "symbol_class": "building", "pixel_x": 2090.1, "pixel_y": 2067.6, "easting": 492970.0, "northing": 248720.7, "epsg_source": 22391}}, {"type": "Feature", "geometry": {"type": "Point", "coordinates": [9.89889, 35.53451]}, "properties": {"record_id": "oai:u-bordeaux-montaigne.fr:340510", "symbol_class": "building", "pixel_x": 3719.3, "pixel_y": 2069.1, "easting": 499849.6, "northing": 248202.7, "epsg_source": 22391}}, {"type": "Feature", "geometry": {"type": "Point", "coordinates": [9.93176, 35.53241]}, "properties": {"record_id": "oai:u-bordeaux-montaigne.fr:340510", "symbol_class": "building", "pixel_x": 4425.0, "pixel_y": 2071.9, "easting": 502829.0, "northing": 247969.6, "epsg_source": 22391}}, {"type": "Feature", "geometry": {"type": "Point", "coordinates": [9.93216, 35.53227]}, "properties": {"record_id": "oai:u-bordeaux-montaigne.fr:340510", "symbol_class": "building", "pixel_x": 4433.8, "pixel_y": 2074.7, "easting": 502865.3, "northing": 247955.1, "epsg_source": 22391}}, {"type": "Feature", "geometry": {"type": "Point", "coordinates": [9.85377, 35.53563]}, "properties": {"record_id": "oai:u-bordeaux-montaigne.fr:340510", "symbol_class": "building", "pixel_x": 2753.6, "pixel_y": 2111.2, "easting": 495758.3, "northing": 248328.2, "epsg_source": 22391}}, {"type": "Feature", "geometry": {"type": "Point", "coordinates": [9.90816, 35.53239]}, "properties": {"record_id": "oai:u-bordeaux-montaigne.fr:340510", "symbol_class": "building", "pixel_x": 3921.2, "pixel_y": 2110.0, "easting": 500689.3, "northing": 247966.9, "epsg_source": 22391}}, {"type": "Feature", "geometry": {"type": "Point", "coordinates": [9.82433, 35.53659]}, "properties": {"record_id": "oai:u-bordeaux-montaigne.fr:340510", "symbol_class": "building", "pixel_x": 2123.2, "pixel_y": 2132.5, "easting": 493089.5, "northing": 248436.1, "epsg_source": 22391}}, {"type": "Feature", "geometry": {"type": "Point", "coordinates": [9.82395, 35.53661]}, "properties": {"record_id": "oai:u-bordeaux-montaigne.fr:340510", "symbol_class": "building", "pixel_x": 2115.2, "pixel_y": 2132.7, "easting": 493055.4, "northing": 248437.8, "epsg_source": 22391}}, {"type": "Feature", "geometry": {"type": "Point", "coordinates": [9.82504, 35.5363]}, "properties": {"record_id": "oai:u-bordeaux-montaigne.fr:340510", "symbol_class": "building", "pixel_x": 2139.0, "pixel_y": 2138.9, "easting": 493154.2, "northing": 248404.2, "epsg_source": 22391}}, {"type": "Feature", "geometry": {"type": "Point", "coordinates": [9.8249, 35.53608]}, "properties": {"record_id": "oai:u-bordeaux-montaigne.fr:340510", "symbol_class": "building", "pixel_x": 2136.5, "pixel_y": 2144.9, "easting": 493141.7, "northing": 248379.5, "epsg_source": 22391}}, {"type": "Feature", "geometry": {"type": "Point", "coordinates": [9.82528, 35.53603]}, "properties": {"record_id": "oai:u-bordeaux-montaigne.fr:340510", "symbol_class": "building", "pixel_x": 2144.7, "pixel_y": 2145.7, "easting": 493176.0, "northing": 248373.4, "epsg_source": 22391}}, {"type": "Feature", "geometry": {"type": "Point", "coordinates": [9.85228, 35.53424]}, "properties": {"record_id": "oai:u-bordeaux-montaigne.fr:340510", "symbol_class": "building", "pixel_x": 2724.7, "pixel_y": 2150.0, "easting": 495623.9, "northing": 248173.5, "epsg_source": 22391}}, {"type": "Feature", "geometry": {"type": "Point", "coordinates": [9.89848, 35.52876]}, "properties": {"record_id": "oai:u-bordeaux-montaigne.fr:340510", "symbol_class": "building", "pixel_x": 3721.6, "pixel_y": 2220.1, "easting": 499811.8, "northing": 247564.7, "epsg_source": 22391}}, {"type": "Feature", "geometry": {"type": "Point", "coordinates": [10.01548, 35.52156]}, "properties": {"record_id": "oai:u-bordeaux-montaigne.fr:340510", "symbol_class": "building", "pixel_x": 6233.9, "pixel_y": 2221.0, "easting": 510421.4, "northing": 246772.8, "epsg_source": 22391}}, {"type": "Feature", "geometry": {"type": "Point", "coordinates": [9.77622, 35.53585]}, "properties": {"record_id": "oai:u-bordeaux-montaigne.fr:340510", "symbol_class": "building", "pixel_x": 1097.5, "pixel_y": 2227.1, "easting": 488728.2, "northing": 248358.4, "epsg_source": 22391}}, {"type": "Feature", "geometry": {"type": "Point", "coordinates": [9.89806, 35.52862]}, "properties": {"record_id": "oai:u-bordeaux-montaigne.fr:340510", "symbol_class": "building", "pixel_x": 3713.0, "pixel_y": 2224.4, "easting": 499774.3, "northing": 247549.2, "epsg_source": 22391}}, {"type": "Feature", "geometry": {"type": "Point", "coordinates": [9.77572, 35.53583]}, "properties": {"record_id": "oai:u-bordeaux-montaigne.fr:340510", "symbol_class": "building", "pixel_x": 1086.8, "pixel_y": 2228.5, "easting": 488682.6, "northing": 248355.7, "epsg_source": 22391}}, {"type": "Feature", "geometry": {"type": "Point", "coordinates": [9.89858, 35.52839]}, "properties": {"record_id": "oai:u-bordeaux-montaigne.fr:340510", "symbol_class": "building", "pixel_x": 3724.4, "pixel_y": 2229.5, "easting": 499820.7, "northing": 247523.9, "epsg_source": 22391}}, {"type": "Feature", "geometry": {"type": "Point", "coordinates": [9.77515, 35.53575]}, "properties": {"record_id": "oai:u-bordeaux-montaigne.fr:340510", "symbol_class": "building", "pixel_x": 1074.9, "pixel_y": 2231.3, "easting": 488631.4, "northing": 248347.6, "epsg_source": 22391}}, {"type": "Feature", "geometry": {"type": "Point", "coordinates": [9.77518, 35.53541]}, "properties": {"record_id": "oai:u-bordeaux-montaigne.fr:340510", "symbol_class": "building", "pixel_x": 1076.2, "pixel_y": 2240.3, "easting": 488633.8, "northing": 248309.3, "epsg_source": 22391}}, {"type": "Feature", "geometry": {"type": "Point", "coordinates": [9.77418, 35.53495]}, "properties": {"record_id": "oai:u-bordeaux-montaigne.fr:340510", "symbol_class": "building", "pixel_x": 1055.6, "pixel_y": 2253.7, "easting": 488542.7, "northing": 248259.2, "epsg_source": 22391}}, {"type": "Feature", "geometry": {"type": "Point", "coordinates": [9.77464, 35.53469]}, "properties": {"record_id": "oai:u-bordeaux-montaigne.fr:340510", "symbol_class": "building", "pixel_x": 1065.9, "pixel_y": 2259.8, "easting": 488584.5, "northing": 248230.2, "epsg_source": 22391}}, {"type": "Feature", "geometry": {"type": "Point", "coordinates": [9.81196, 35.53008]}, "properties": {"record_id": "oai:u-bordeaux-montaigne.fr:340510", "symbol_class": "building", "pixel_x": 1871.8, "pixel_y": 2321.9, "easting": 491968.0, "northing": 247715.1, "epsg_source": 22391}}, {"type": "Feature", "geometry": {"type": "Point", "coordinates": [9.81107, 35.52984]}, "properties": {"record_id": "oai:u-bordeaux-montaigne.fr:340510", "symbol_class": "building", "pixel_x": 1853.2, "pixel_y": 2329.6, "easting": 491887.4, "northing": 247688.6, "epsg_source": 22391}}, {"type": "Feature", "geometry": {"type": "Point", "coordinates": [9.77338, 35.53185]}, "properties": {"record_id": "oai:u-bordeaux-montaigne.fr:340510", "symbol_class": "building", "pixel_x": 1044.5, "pixel_y": 2336.0, "easting": 488470.1, "northing": 247915.3, "epsg_source": 22391}}, {"type": "Feature", "geometry": {"type": "Point", "coordinates": [9.77267, 35.53181]}, "properties": {"record_id": "oai:u-bordeaux-montaigne.fr:340510", "symbol_class": "building", "pixel_x": 1029.5, "pixel_y": 2338.3, "easting": 488405.9, "northing": 247910.3, "epsg_source": 22391}}, {"type": "Feature", "geometry": {"type": "Point", "coordinates": [9.81107, 35.52926]}, "properties": {"record_id": "oai:u-bordeaux-montaigne.fr:340510", "symbol_class": "building", "pixel_x": 1854.3, "pixel_y": 2344.8, "easting": 491887.2, "northing": 247624.0, "epsg_source": 22391}}, {"type": "Feature", "geometry": {"type": "Point", "coordinates": [9.77334, 35.53164]}, "properties": {"record_id": "oai:u-bordeaux-montaigne.fr:340510", "symbol_class": "building", "pixel_x": 1044.1, "pixel_y": 2341.6, "easting": 488466.6, "northing": 247891.9, "epsg_source": 22391}}, {"type": "Feature", "geometry": {"type": "Point", "coordinates": [9.77468, 35.53154]}, "properties": {"record_id": "oai:u-bordeaux-montaigne.fr:340510", "symbol_class": "building", "pixel_x": 1072.9, "pixel_y": 2342.1, "easting": 488588.2, "northing": 247880.7, "epsg_source": 22391}}, {"type": "Feature", "geometry": {"type": "Point", "coordinates": [9.77264, 35.53165]}, "properties": {"record_id": "oai:u-bordeaux-montaigne.fr:340510", "symbol_class": "building", "pixel_x": 1029.0, "pixel_y": 2342.5, "easting": 488402.8, "northing": 247892.5, "epsg_source": 22391}}, {"type": "Feature", "geometry": {"type": "Point", "coordinates": [9.7773, 35.53116]}, "properties": {"record_id": "oai:u-bordeaux-montaigne.fr:340510", "symbol_class": "building", "pixel_x": 1129.6, "pixel_y": 2348.1, "easting": 488825.8, "northing": 247837.5, "epsg_source": 22391}}, {"type": "Feature", "geometry": {"type": "Point", "coordinates": [9.77468, 35.53131]}, "properties": {"record_id": "oai:u-bordeaux-montaigne.fr:340510", "symbol_class": "building", "pixel_x": 1073.4, "pixel_y": 2348.2, "easting": 488588.2, "northing": 247854.8, "epsg_source": 22391}}, {"type": "Feature", "geometry": {"type": "Point", "coordinates": [9.7762, 35.53109]}, "properties": {"record_id": "oai:u-bordeaux-montaigne.fr:340510", "symbol_class": "building", "pixel_x": 1106.1, "pixel_y": 2351.5, "easting": 488725.4, "northing": 247830.5, "epsg_source": 22391}}, {"type": "Feature", "geometry": {"type": "Point", "coordinates": [9.77545, 35.53109]}, "properties": {"record_id": "oai:u-bordeaux-montaigne.fr:340510", "symbol_class": "building", "pixel_x": 1090.2, "pixel_y": 2352.8, "easting": 488657.9, "northing": 247830.1, "epsg_source": 22391}}, {"type": "Feature", "geometry": {"type": "Point", "coordinates": [10.0653, 35.51327]}, "properties": {"record_id": "oai:u-bordeaux-montaigne.fr:340510", "symbol_class": "building", "pixel_x": 7314.1, "pixel_y": 2357.1, "easting": 514940.2, "northing": 245859.3, "epsg_source": 22391}}, {"type": "Feature", "geometry": {"type": "Point", "coordinates": [9.76574, 35.53116]}, "properties": {"record_id": "oai:u-bordeaux-montaigne.fr:340510", "symbol_class": "building", "pixel_x": 882.6, "pixel_y": 2366.0, "easting": 487777.1, "northing": 247839.4, "epsg_source": 22391}}, {"type": "Feature", "geometry": {"type": "Point", "coordinates": [9.91885, 35.52106]}, "properties": {"record_id": "oai:u-bordeaux-montaigne.fr:340510", "symbol_class": "building", "pixel_x": 4171.6, "pixel_y": 2388.7, "easting": 501659.4, "northing": 246711.5, "epsg_source": 22391}}, {"type": "Feature", "geometry": {"type": "Point", "coordinates": [10.04836, 35.5131]}, "properties": {"record_id": "oai:u-bordeaux-montaigne.fr:340510", "symbol_class": "building", "pixel_x": 6952.5, "pixel_y": 2388.9, "easting": 513403.5, "northing": 245838.4, "epsg_source": 22391}}, {"type": "Feature", "geometry": {"type": "Point", "coordinates": [9.7665, 35.52958]}, "properties": {"record_id": "oai:u-bordeaux-montaigne.fr:340510", "symbol_class": "building", "pixel_x": 901.9, "pixel_y": 2406.0, "easting": 487845.7, "northing": 247664.5, "epsg_source": 22391}}, {"type": "Feature", "geometry": {"type": "Point", "coordinates": [9.78999, 35.52775]}, "properties": {"record_id": "oai:u-bordeaux-montaigne.fr:340510", "symbol_class": "building", "pixel_x": 1407.1, "pixel_y": 2417.2, "easting": 489975.7, "northing": 247458.7, "epsg_source": 22391}}, {"type": "Feature", "geometry": {"type": "Point", "coordinates": [9.76952, 35.52875]}, "properties": {"record_id": "oai:u-bordeaux-montaigne.fr:340510", "symbol_class": "building", "pixel_x": 967.9, "pixel_y": 2423.1, "easting": 488119.3, "northing": 247571.6, "epsg_source": 22391}}, {"type": "Feature", "geometry": {"type": "Point", "coordinates": [9.76739, 35.52884]}, "properties": {"record_id": "oai:u-bordeaux-montaigne.fr:340510", "symbol_class": "building", "pixel_x": 922.3, "pixel_y": 2424.1, "easting": 487926.4, "northing": 247581.6, "epsg_source": 22391}}, {"type": "Feature", "geometry": {"type": "Point", "coordinates": [9.92811, 35.51887]}, "properties": {"record_id": "oai:u-bordeaux-montaigne.fr:340510", "symbol_class": "building", "pixel_x": 4373.6, "pixel_y": 2431.4, "easting": 502499.1, "northing": 246467.8, "epsg_source": 22391}}, {"type": "Feature", "geometry": {"type": "Point", "coordinates": [9.92784, 35.51846]}, "properties": {"record_id": "oai:u-bordeaux-montaigne.fr:340510", "symbol_class": "building", "pixel_x": 4368.5, "pixel_y": 2442.6, "easting": 502474.0, "northing": 246422.3, "epsg_source": 22391}}, {"type": "Feature", "geometry": {"type": "Point", "coordinates": [9.92336, 35.51668]}, "properties": {"record_id": "oai:u-bordeaux-montaigne.fr:340510", "symbol_class": "building", "pixel_x": 4276.4, "pixel_y": 2496.2, "easting": 502068.5, "northing": 246225.0, "epsg_source": 22391}}, {"type": "Feature", "geometry": {"type": "Point", "coordinates": [9.86892, 35.51739]}, "properties": {"record_id": "oai:u-bordeaux-montaigne.fr:340510", "symbol_class": "building", "pixel_x": 3112.4, "pixel_y": 2563.8, "easting": 497131.5, "northing": 246304.6, "epsg_source": 22391}}, {"type": "Feature", "geometry": {"type": "Point", "coordinates": [9.9517, 35.50645]}, "properties": {"record_id": "oai:u-bordeaux-montaigne.fr:340510", "symbol_class": "building", "pixel_x": 4901.4, "pixel_y": 2718.1, "easting": 504638.2, "northing": 245091.8, "epsg_source": 22391}}, {"type": "Feature", "geometry": {"type": "Point", "coordinates": [9.95237, 35.506]}, "properties": {"record_id": "oai:u-bordeaux-montaigne.fr:340510", "symbol_class": "building", "pixel_x": 4916.7, "pixel_y": 2728.9, "easting": 504699.4, "northing": 245041.6, "epsg_source": 22391}}, {"type": "Feature", "geometry": {"type": "Point", "coordinates": [9.91121, 35.50765]}, "properties": {"record_id": "oai:u-bordeaux-montaigne.fr:340510", "symbol_class": "building", "pixel_x": 4034.4, "pixel_y": 2751.3, "easting": 500966.4, "northing": 245223.9, "epsg_source": 22391}}, {"type": "Feature", "geometry": {"type": "Point", "coordinates": [10.06537, 35.48792]}, "properties": {"record_id": "oai:u-bordeaux-montaigne.fr:340510", "symbol_class": "building", "pixel_x": 7365.8, "pixel_y": 3019.2, "easting": 514951.0, "northing": 243047.5, "epsg_source": 22391}}, {"type": "Feature", "geometry": {"type": "Point", "coordinates": [9.78588, 35.5044]}, "properties": {"record_id": "oai:u-bordeaux-montaigne.fr:340510", "symbol_class": "building", "pixel_x": 1363.9, "pixel_y": 3033.7, "easting": 489600.1, "northing": 244869.1, "epsg_source": 22391}}, {"type": "Feature", "geometry": {"type": "Point", "coordinates": [9.90283, 35.49706]}, "properties": {"record_id": "oai:u-bordeaux-montaigne.fr:340510", "symbol_class": "building", "pixel_x": 3876.2, "pixel_y": 3041.5, "easting": 500206.9, "northing": 244048.3, "epsg_source": 22391}}, {"type": "Feature", "geometry": {"type": "Point", "coordinates": [10.04943, 35.48693]}, "properties": {"record_id": "oai:u-bordeaux-montaigne.fr:340510", "symbol_class": "building", "pixel_x": 7027.4, "pixel_y": 3070.7, "easting": 513505.7, "northing": 242936.2, "epsg_source": 22391}}, {"type": "Feature", "geometry": {"type": "Point", "coordinates": [9.83401, 35.49994]}, "properties": {"record_id": "oai:u-bordeaux-montaigne.fr:340510", "symbol_class": "building", "pixel_x": 2400.5, "pixel_y": 3074.8, "easting": 493964.9, "northing": 244370.6, "epsg_source": 22391}}, {"type": "Feature", "geometry": {"type": "Point", "coordinates": [9.95851, 35.49194]}, "properties": {"record_id": "oai:u-bordeaux-montaigne.fr:340510", "symbol_class": "building", "pixel_x": 5075.4, "pixel_y": 3086.2, "easting": 505257.5, "northing": 243483.0, "epsg_source": 22391}}, {"type": "Feature", "geometry": {"type": "Point", "coordinates": [9.83398, 35.49925]}, "properties": {"record_id": "oai:u-bordeaux-montaigne.fr:340510", "symbol_class": "building", "pixel_x": 2401.2, "pixel_y": 3092.9, "easting": 493962.1, "northing": 244293.8, "epsg_source": 22391}}, {"type": "Feature", "geometry": {"type": "Point", "coordinates": [9.95807, 35.49167]}, "properties": {"record_id": "oai:u-bordeaux-montaigne.fr:340510", "symbol_class": "building", "pixel_x": 5066.6, "pixel_y": 3094.1, "easting": 505217.7, "northing": 243452.4, "epsg_source": 22391}}, {"type": "Feature", "geometry": {"type": "Point", "coordinates": [9.95894, 35.49141]}, "properties": {"record_id": "oai:u-bordeaux-montaigne.fr:340510", "symbol_class": "building", "pixel_x": 5085.6, "pixel_y": 3099.4, "easting": 505296.4, "northing": 243424.0, "epsg_source": 22391}}, {"type": "Feature", "geometry": {"type": "Point", "coordinates": [9.79203, 35.50129]}, "properties": {"record_id": "oai:u-bordeaux-montaigne.fr:340510", "symbol_class": "building", "pixel_x": 1501.1, "pixel_y": 3105.5, "easting": 490156.8, "northing": 244522.9, "epsg_source": 22391}}, {"type": "Feature", "geometry": {"type": "Point", "coordinates": [9.80407, 35.50038]}, "properties": {"record_id": "oai:u-bordeaux-montaigne.fr:340510", "symbol_class": "building", "pixel_x": 1760.2, "pixel_y": 3110.4, "easting": 491249.3, "northing": 244421.0, "epsg_source": 22391}}, {"type": "Feature", "geometry": {"type": "Point", "coordinates": [9.81998, 35.4977]}, "properties": {"record_id": "oai:u-bordeaux-montaigne.fr:340510", "symbol_class": "building", "pixel_x": 2105.1, "pixel_y": 3155.5, "easting": 492691.9, "northing": 244122.7, "epsg_source": 22391}}, {"type": "Feature", "geometry": {"type": "Point", "coordinates": [10.06254, 35.48249]}, "properties": {"record_id": "oai:u-bordeaux-montaigne.fr:340510", "symbol_class": "building", "pixel_x": 7316.2, "pixel_y": 3165.6, "easting": 514695.4, "northing": 242444.7, "epsg_source": 22391}}, {"type": "Feature", "geometry": {"type": "Point", "coordinates": [10.02227, 35.4847]}, "properties": {"record_id": "oai:u-bordeaux-montaigne.fr:340510", "symbol_class": "building", "pixel_x": 6451.6, "pixel_y": 3172.9, "easting": 511041.9, "northing": 242685.1, "epsg_source": 22391}}, {"type": "Feature", "geometry": {"type": "Point", "coordinates": [9.84977, 35.49332]}, "properties": {"record_id": "oai:u-bordeaux-montaigne.fr:340510", "symbol_class": "building", "pixel_x": 2750.0, "pixel_y": 3223.0, "easting": 495393.9, "northing": 243635.0, "epsg_source": 22391}}, {"type": "Feature", "geometry": {"type": "Point", "coordinates": [10.01664, 35.48166]}, "properties": {"record_id": "oai:u-bordeaux-montaigne.fr:340510", "symbol_class": "building", "pixel_x": 6337.3, "pixel_y": 3261.4, "easting": 510531.5, "northing": 242347.3, "epsg_source": 22391}}, {"type": "Feature", "geometry": {"type": "Point", "coordinates": [10.01635, 35.48149]}, "properties": {"record_id": "oai:u-bordeaux-montaigne.fr:340510", "symbol_class": "building", "pixel_x": 6331.4, "pixel_y": 3266.5, "easting": 510504.9, "northing": 242327.7, "epsg_source": 22391}}, {"type": "Feature", "geometry": {"type": "Point", "coordinates": [9.87945, 35.48965]}, "properties": {"record_id": "oai:u-bordeaux-montaigne.fr:340510", "symbol_class": "building", "pixel_x": 3391.0, "pixel_y": 3272.1, "easting": 498085.5, "northing": 243226.7, "epsg_source": 22391}}, {"type": "Feature", "geometry": {"type": "Point", "coordinates": [9.87915, 35.4896]}, "properties": {"record_id": "oai:u-bordeaux-montaigne.fr:340510", "symbol_class": "building", "pixel_x": 3384.7, "pixel_y": 3273.9, "easting": 498058.6, "northing": 243221.1, "epsg_source": 22391}}, {"type": "Feature", "geometry": {"type": "Point", "coordinates": [10.01691, 35.48103]}, "properties": {"record_id": "oai:u-bordeaux-montaigne.fr:340510", "symbol_class": "building", "pixel_x": 6344.4, "pixel_y": 3277.4, "easting": 510556.5, "northing": 242277.6, "epsg_source": 22391}}, {"type": "Feature", "geometry": {"type": "Point", "coordinates": [10.07567, 35.47706]}, "properties": {"record_id": "oai:u-bordeaux-montaigne.fr:340510", "symbol_class": "building", "pixel_x": 7607.5, "pixel_y": 3286.1, "easting": 515887.7, "northing": 241844.5, "epsg_source": 22391}}, {"type": "Feature", "geometry": {"type": "Point", "coordinates": [10.01824, 35.47978]}, "properties": {"record_id": "oai:u-bordeaux-montaigne.fr:340510", "symbol_class": "building", "pixel_x": 6375.2, "pixel_y": 3308.0, "easting": 510676.8, "northing": 242138.9, "epsg_source": 22391}}, {"type": "Feature", "geometry": {"type": "Point", "coordinates": [10.01792, 35.47958]}, "properties": {"record_id": "oai:u-bordeaux-montaigne.fr:340510", "symbol_class": "building", "pixel_x": 6368.7, "pixel_y": 3313.9, "easting": 510647.6, "northing": 242116.1, "epsg_source": 22391}}, {"type": "Feature", "geometry": {"type": "Point", "coordinates": [9.82639, 35.48978]}, "properties": {"record_id": "oai:u-bordeaux-montaigne.fr:340510", "symbol_class": "building", "pixel_x": 2257.2, "pixel_y": 3352.4, "easting": 493272.3, "northing": 243243.7, "epsg_source": 22391}}, {"type": "Feature", "geometry": {"type": "Point", "coordinates": [9.80678, 35.49062]}, "properties": {"record_id": "oai:u-bordeaux-montaigne.fr:340510", "symbol_class": "building", "pixel_x": 1836.6, "pixel_y": 3361.0, "easting": 491493.5, "northing": 243339.0, "epsg_source": 22391}}, {"type": "Feature", "geometry": {"type": "Point", "coordinates": [9.82682, 35.48964]}, "properties": {"record_id": "oai:u-bordeaux-montaigne.fr:340510", "symbol_class": "building", "pixel_x": 2266.7, "pixel_y": 3355.3, "easting": 493311.5, "northing": 243228.1, "epsg_source": 22391}}, {"type": "Feature", "geometry": {"type": "Point", "coordinates": [9.80712, 35.49058]}, "properties": {"record_id": "oai:u-bordeaux-montaigne.fr:340510", "symbol_class": "building", "pixel_x": 1844.1, "pixel_y": 3361.7, "easting": 491524.9, "northing": 243333.9, "epsg_source": 22391}}, {"type": "Feature", "geometry": {"type": "Point", "coordinates": [9.78374, 35.49191]}, "properties": {"record_id": "oai:u-bordeaux-montaigne.fr:340510", "symbol_class": "building", "pixel_x": 1341.9, "pixel_y": 3363.5, "easting": 489403.7, "northing": 243483.7, "epsg_source": 22391}}, {"type": "Feature", "geometry": {"type": "Point", "coordinates": [9.8348, 35.48845]}, "properties": {"record_id": "oai:u-bordeaux-montaigne.fr:340510", "symbol_class": "building", "pixel_x": 2439.6, "pixel_y": 3373.9, "easting": 494035.7, "northing": 243095.4, "epsg_source": 22391}}, {"type": "Feature", "geometry": {"type": "Point", "coordinates": [9.92374, 35.48258]}, "properties": {"record_id": "oai:u-bordeaux-montaigne.fr:340510", "symbol_class": "building", "pixel_x": 4350.8, "pixel_y": 3386.5, "easting": 502103.2, "northing": 242442.6, "epsg_source": 22391}}, {"type": "Feature", "geometry": {"type": "Point", "coordinates": [9.92411, 35.48221]}, "properties": {"record_id": "oai:u-bordeaux-montaigne.fr:340510", "symbol_class": "building", "pixel_x": 4359.5, "pixel_y": 3395.5, "easting": 502137.0, "northing": 242401.9, "epsg_source": 22391}}, {"type": "Feature", "geometry": {"type": "Point", "coordinates": [9.91951, 35.48209]}, "properties": {"record_id": "oai:u-bordeaux-montaigne.fr:340510", "symbol_class": "building", "pixel_x": 4261.5, "pixel_y": 3405.9, "easting": 501720.0, "northing": 242388.6, "epsg_source": 22391}}, {"type": "Feature", "geometry": {"type": "Point", "coordinates": [9.92164, 35.48195]}, "properties": {"record_id": "oai:u-bordeaux-montaigne.fr:340510", "symbol_class": "building", "pixel_x": 4307.2, "pixel_y": 3406.1, "easting": 501912.7, "northing": 242373.4, "epsg_source": 22391}}, {"type": "Feature", "geometry": {"type": "Point", "coordinates": [9.80728, 35.48874]}, "properties": {"record_id": "oai:u-bordeaux-montaigne.fr:340510", "symbol_class": "building", "pixel_x": 1851.0, "pixel_y": 3409.4, "easting": 491539.3, "northing": 243130.2, "epsg_source": 22391}}, {"type": "Feature", "geometry": {"type": "Point", "coordinates": [9.80762, 35.48849]}, "properties": {"record_id": "oai:u-bordeaux-montaigne.fr:340510", "symbol_class": "building", "pixel_x": 1858.8, "pixel_y": 3415.5, "easting": 491570.1, "northing": 243102.0, "epsg_source": 22391}}, {"type": "Feature", "geometry": {"type": "Point", "coordinates": [9.91989, 35.48182]}, "properties": {"record_id": "oai:u-bordeaux-montaigne.fr:340510", "symbol_class": "building", "pixel_x": 4270.0, "pixel_y": 3412.3, "easting": 501753.9, "northing": 242358.8, "epsg_source": 22391}}, {"type": "Feature", "geometry": {"type": "Point", "coordinates": [9.80728, 35.48845]}, "properties": {"record_id": "oai:u-bordeaux-montaigne.fr:340510", "symbol_class": "building", "pixel_x": 1851.5, "pixel_y": 3416.9, "easting": 491538.7, "northing": 243098.4, "epsg_source": 22391}}, {"type": "Feature", "geometry": {"type": "Point", "coordinates": [9.82571, 35.48714]}, "properties": {"record_id": "oai:u-bordeaux-montaigne.fr:340510", "symbol_class": "building", "pixel_x": 2247.7, "pixel_y": 3422.4, "easting": 493210.5, "northing": 242950.9, "epsg_source": 22391}}, {"type": "Feature", "geometry": {"type": "Point", "coordinates": [9.91798, 35.48135]}, "properties": {"record_id": "oai:u-bordeaux-montaigne.fr:340510", "symbol_class": "building", "pixel_x": 4230.2, "pixel_y": 3427.7, "easting": 501580.7, "northing": 242306.7, "epsg_source": 22391}}, {"type": "Feature", "geometry": {"type": "Point", "coordinates": [9.82529, 35.48691]}, "properties": {"record_id": "oai:u-bordeaux-montaigne.fr:340510", "symbol_class": "building", "pixel_x": 2239.2, "pixel_y": 3429.1, "easting": 493172.5, "northing": 242925.4, "epsg_source": 22391}}, {"type": "Feature", "geometry": {"type": "Point", "coordinates": [9.91835, 35.48113]}, "properties": {"record_id": "oai:u-bordeaux-montaigne.fr:340510", "symbol_class": "building", "pixel_x": 4238.5, "pixel_y": 3432.9, "easting": 501614.3, "northing": 242281.9, "epsg_source": 22391}}, {"type": "Feature", "geometry": {"type": "Point", "coordinates": [10.06858, 35.47082]}, "properties": {"record_id": "oai:u-bordeaux-montaigne.fr:340510", "symbol_class": "building", "pixel_x": 7468.3, "pixel_y": 3460.7, "easting": 515245.2, "northing": 241151.3, "epsg_source": 22391}}, {"type": "Feature", "geometry": {"type": "Point", "coordinates": [9.93958, 35.47823]}, "properties": {"record_id": "oai:u-bordeaux-montaigne.fr:340510", "symbol_class": "building", "pixel_x": 4697.8, "pixel_y": 3474.8, "easting": 503540.8, "northing": 241960.9, "epsg_source": 22391}}, {"type": "Feature", "geometry": {"type": "Point", "coordinates": [9.94081, 35.47787]}, "properties": {"record_id": "oai:u-bordeaux-montaigne.fr:340510", "symbol_class": "building", "pixel_x": 4724.8, "pixel_y": 3482.2, "easting": 503652.5, "northing": 241921.3, "epsg_source": 22391}}, {"type": "Feature", "geometry": {"type": "Point", "coordinates": [9.95926, 35.47671]}, "properties": {"record_id": "oai:u-bordeaux-montaigne.fr:340510", "symbol_class": "building", "pixel_x": 5121.2, "pixel_y": 3483.0, "easting": 505326.4, "northing": 241793.3, "epsg_source": 22391}}, {"type": "Feature", "geometry": {"type": "Point", "coordinates": [10.07339, 35.46916]}, "properties": {"record_id": "oai:u-bordeaux-montaigne.fr:340510", "symbol_class": "building", "pixel_x": 7574.5, "pixel_y": 3496.2, "easting": 515682.7, "northing": 240968.2, "epsg_source": 22391}}, {"type": "Feature", "geometry": {"type": "Point", "coordinates": [9.92464, 35.47667]}, "properties": {"record_id": "oai:u-bordeaux-montaigne.fr:340510", "symbol_class": "building", "pixel_x": 4381.6, "pixel_y": 3539.3, "easting": 502185.3, "northing": 241787.7, "epsg_source": 22391}}, {"type": "Feature", "geometry": {"type": "Point", "coordinates": [9.93212, 35.47595]}, "properties": {"record_id": "oai:u-bordeaux-montaigne.fr:340510", "symbol_class": "building", "pixel_x": 4542.9, "pixel_y": 3546.2, "easting": 502864.2, "northing": 241707.9, "epsg_source": 22391}}, {"type": "Feature", "geometry": {"type": "Point", "coordinates": [9.93314, 35.47564]}, "properties": {"record_id": "oai:u-bordeaux-montaigne.fr:340510", "symbol_class": "building", "pixel_x": 4565.2, "pixel_y": 3552.7, "easting": 502956.3, "northing": 241673.5, "epsg_source": 22391}}, {"type": "Feature", "geometry": {"type": "Point", "coordinates": [9.85818, 35.4793]}, "properties": {"record_id": "oai:u-bordeaux-montaigne.fr:340510", "symbol_class": "building", "pixel_x": 2956.5, "pixel_y": 3576.1, "easting": 496155.5, "northing": 242079.5, "epsg_source": 22391}}, {"type": "Feature", "geometry": {"type": "Point", "coordinates": [9.91926, 35.47513]}, "properties": {"record_id": "oai:u-bordeaux-montaigne.fr:340510", "symbol_class": "building", "pixel_x": 4269.6, "pixel_y": 3588.2, "easting": 501697.0, "northing": 241616.5, "epsg_source": 22391}}, {"type": "Feature", "geometry": {"type": "Point", "coordinates": [9.93435, 35.47405]}, "properties": {"record_id": "oai:u-bordeaux-montaigne.fr:340510", "symbol_class": "building", "pixel_x": 4594.2, "pixel_y": 3592.4, "easting": 503066.4, "northing": 241497.0, "epsg_source": 22391}}, {"type": "Feature", "geometry": {"type": "Point", "coordinates": [9.78266, 35.48238]}, "properties": {"record_id": "oai:u-bordeaux-montaigne.fr:340510", "symbol_class": "building", "pixel_x": 1337.1, "pixel_y": 3614.2, "easting": 489304.5, "northing": 242426.8, "epsg_source": 22391}}, {"type": "Feature", "geometry": {"type": "Point", "coordinates": [9.78304, 35.48231]}, "properties": {"record_id": "oai:u-bordeaux-montaigne.fr:340510", "symbol_class": "building", "pixel_x": 1345.5, "pixel_y": 3615.4, "easting": 489339.7, "northing": 242419.0, "epsg_source": 22391}}, {"type": "Feature", "geometry": {"type": "Point", "coordinates": [9.85431, 35.47721]}, "properties": {"record_id": "oai:u-bordeaux-montaigne.fr:340510", "symbol_class": "building", "pixel_x": 2878.0, "pixel_y": 3636.8, "easting": 495805.0, "northing": 241847.8, "epsg_source": 22391}}, {"type": "Feature", "geometry": {"type": "Point", "coordinates": [10.07517, 35.46332]}, "properties": {"record_id": "oai:u-bordeaux-montaigne.fr:340510", "symbol_class": "building", "pixel_x": 7624.1, "pixel_y": 3645.9, "easting": 515845.1, "northing": 240320.5, "epsg_source": 22391}}, {"type": "Feature", "geometry": {"type": "Point", "coordinates": [10.00099, 35.46697]}, "properties": {"record_id": "oai:u-bordeaux-montaigne.fr:340510", "symbol_class": "building", "pixel_x": 6032.0, "pixel_y": 3670.4, "easting": 509113.7, "northing": 240716.4, "epsg_source": 22391}}, {"type": "Feature", "geometry": {"type": "Point", "coordinates": [9.76869, 35.4809]}, "properties": {"record_id": "oai:u-bordeaux-montaigne.fr:340510", "symbol_class": "building", "pixel_x": 1041.4, "pixel_y": 3674.7, "easting": 488037.0, "northing": 242264.1, "epsg_source": 22391}}, {"type": "Feature", "geometry": {"type": "Point", "coordinates": [9.89699, 35.47285]}, "properties": {"record_id": "oai:u-bordeaux-montaigne.fr:340510", "symbol_class": "building", "pixel_x": 3798.4, "pixel_y": 3683.0, "easting": 499677.1, "northing": 241364.0, "epsg_source": 22391}}, {"type": "Feature", "geometry": {"type": "Point", "coordinates": [9.8475, 35.47395]}, "properties": {"record_id": "oai:u-bordeaux-montaigne.fr:340510", "symbol_class": "building", "pixel_x": 2738.8, "pixel_y": 3732.7, "easting": 495186.8, "northing": 241486.5, "epsg_source": 22391}}, {"type": "Feature", "geometry": {"type": "Point", "coordinates": [9.83392, 35.47342]}, "properties": {"record_id": "oai:u-bordeaux-montaigne.fr:340510", "symbol_class": "building", "pixel_x": 2449.5, "pixel_y": 3767.8, "easting": 493954.1, "northing": 241429.4, "epsg_source": 22391}}, {"type": "Feature", "geometry": {"type": "Point", "coordinates": [9.77531, 35.47265]}, "properties": {"record_id": "oai:u-bordeaux-montaigne.fr:340510", "symbol_class": "building", "pixel_x": 1198.7, "pixel_y": 3879.9, "easting": 488636.5, "northing": 241348.2, "epsg_source": 22391}}, {"type": "Feature", "geometry": {"type": "Point", "coordinates": [9.79188, 35.47081]}, "properties": {"record_id": "oai:u-bordeaux-montaigne.fr:340510", "symbol_class": "building", "pixel_x": 1556.3, "pixel_y": 3902.0, "easting": 490140.0, "northing": 241142.9, "epsg_source": 22391}}, {"type": "Feature", "geometry": {"type": "Point", "coordinates": [9.79734, 35.47038]}, "properties": {"record_id": "oai:u-bordeaux-montaigne.fr:340510", "symbol_class": "building", "pixel_x": 1673.8, "pixel_y": 3904.6, "easting": 490635.3, "northing": 241094.9, "epsg_source": 22391}}, {"type": "Feature", "geometry": {"type": "Point", "coordinates": [9.79557, 35.47053]}, "properties": {"record_id": "oai:u-bordeaux-montaigne.fr:340510", "symbol_class": "building", "pixel_x": 1635.7, "pixel_y": 3903.5, "easting": 490474.9, "northing": 241111.5, "epsg_source": 22391}}, {"type": "Feature", "geometry": {"type": "Point", "coordinates": [9.77633, 35.47159]}, "properties": {"record_id": "oai:u-bordeaux-montaigne.fr:340510", "symbol_class": "building", "pixel_x": 1222.5, "pixel_y": 3905.8, "easting": 488729.2, "northing": 241231.5, "epsg_source": 22391}}, {"type": "Feature", "geometry": {"type": "Point", "coordinates": [9.97997, 35.45906]}, "properties": {"record_id": "oai:u-bordeaux-montaigne.fr:340510", "symbol_class": "building", "pixel_x": 5598.4, "pixel_y": 3911.0, "easting": 507207.2, "northing": 239836.7, "epsg_source": 22391}}, {"type": "Feature", "geometry": {"type": "Point", "coordinates": [9.77363, 35.47067]}, "properties": {"record_id": "oai:u-bordeaux-montaigne.fr:340510", "symbol_class": "building", "pixel_x": 1166.6, "pixel_y": 3934.2, "easting": 488484.3, "northing": 241129.1, "epsg_source": 22391}}, {"type": "Feature", "geometry": {"type": "Point", "coordinates": [9.8811, 35.46419]}, "properties": {"record_id": "oai:u-bordeaux-montaigne.fr:340510", "symbol_class": "building", "pixel_x": 3475.6, "pixel_y": 3934.6, "easting": 498235.0, "northing": 240402.9, "epsg_source": 22391}}, {"type": "Feature", "geometry": {"type": "Point", "coordinates": [9.88151, 35.46387]}, "properties": {"record_id": "oai:u-bordeaux-montaigne.fr:340510", "symbol_class": "building", "pixel_x": 3484.9, "pixel_y": 3942.3, "easting": 498272.0, "northing": 240367.5, "epsg_source": 22391}}, {"type": "Feature", "geometry": {"type": "Point", "coordinates": [9.77238, 35.47051]}, "properties": {"record_id": "oai:u-bordeaux-montaigne.fr:340510", "symbol_class": "building", "pixel_x": 1140.2, "pixel_y": 3940.4, "easting": 488370.6, "northing": 241111.3, "epsg_source": 22391}}, {"type": "Feature", "geometry": {"type": "Point", "coordinates": [9.88091, 35.46373]}, "properties": {"record_id": "oai:u-bordeaux-montaigne.fr:340510", "symbol_class": "building", "pixel_x": 3472.5, "pixel_y": 3946.9, "easting": 498217.9, "northing": 240351.9, "epsg_source": 22391}}, {"type": "Feature", "geometry": {"type": "Point", "coordinates": [9.77159, 35.47041]}, "properties": {"record_id": "oai:u-bordeaux-montaigne.fr:340510", "symbol_class": "building", "pixel_x": 1123.5, "pixel_y": 3944.1, "easting": 488299.2, "northing": 241101.0, "epsg_source": 22391}}, {"type": "Feature", "geometry": {"type": "Point", "coordinates": [9.77199, 35.47005]}, "properties": {"record_id": "oai:u-bordeaux-montaigne.fr:340510", "symbol_class": "building", "pixel_x": 1132.7, "pixel_y": 3952.8, "easting": 488335.2, "northing": 241061.2, "epsg_source": 22391}}, {"type": "Feature", "geometry": {"type": "Point", "coordinates": [9.83182, 35.46559]}, "properties": {"record_id": "oai:u-bordeaux-montaigne.fr:340510", "symbol_class": "building", "pixel_x": 2419.8, "pixel_y": 3975.8, "easting": 493763.2, "northing": 240560.2, "epsg_source": 22391}}, {"type": "Feature", "geometry": {"type": "Point", "coordinates": [9.91426, 35.46032]}, "properties": {"record_id": "oai:u-bordeaux-montaigne.fr:340510", "symbol_class": "building", "pixel_x": 4191.6, "pixel_y": 3983.1, "easting": 501243.7, "northing": 239973.8, "epsg_source": 22391}}, {"type": "Feature", "geometry": {"type": "Point", "coordinates": [9.98694, 35.45475]}, "properties": {"record_id": "oai:u-bordeaux-montaigne.fr:340510", "symbol_class": "building", "pixel_x": 5755.8, "pixel_y": 4012.2, "easting": 507840.0, "northing": 239360.1, "epsg_source": 22391}}, {"type": "Feature", "geometry": {"type": "Point", "coordinates": [9.98634, 35.45443]}, "properties": {"record_id": "oai:u-bordeaux-montaigne.fr:340510", "symbol_class": "building", "pixel_x": 5743.6, "pixel_y": 4021.6, "easting": 507785.6, "northing": 239324.3, "epsg_source": 22391}}, {"type": "Feature", "geometry": {"type": "Point", "coordinates": [9.98723, 35.45342]}, "properties": {"record_id": "oai:u-bordeaux-montaigne.fr:340510", "symbol_class": "building", "pixel_x": 5764.4, "pixel_y": 4046.5, "easting": 507865.8, "northing": 239212.7, "epsg_source": 22391}}, {"type": "Feature", "geometry": {"type": "Point", "coordinates": [9.96845, 35.45448]}, "properties": {"record_id": "oai:u-bordeaux-montaigne.fr:340510", "symbol_class": "building", "pixel_x": 5361.1, "pixel_y": 4049.0, "easting": 506161.9, "northing": 239328.3, "epsg_source": 22391}}, {"type": "Feature", "geometry": {"type": "Point", "coordinates": [9.96938, 35.45427]}, "properties": {"record_id": "oai:u-bordeaux-montaigne.fr:340510", "symbol_class": "building", "pixel_x": 5381.5, "pixel_y": 4052.9, "easting": 506246.4, "northing": 239305.7, "epsg_source": 22391}}, {"type": "Feature", "geometry": {"type": "Point", "coordinates": [10.03046, 35.44755]}, "properties": {"record_id": "oai:u-bordeaux-montaigne.fr:340510", "symbol_class": "building", "pixel_x": 6700.0, "pixel_y": 4130.3, "easting": 511790.6, "northing": 238565.1, "epsg_source": 22391}}, {"type": "Feature", "geometry": {"type": "Point", "coordinates": [10.03072, 35.44727]}, "properties": {"record_id": "oai:u-bordeaux-montaigne.fr:340510", "symbol_class": "building", "pixel_x": 6706.1, "pixel_y": 4137.1, "easting": 511813.9, "northing": 238534.3, "epsg_source": 22391}}, {"type": "Feature", "geometry": {"type": "Point", "coordinates": [9.84476, 35.458]}, "properties": {"record_id": "oai:u-bordeaux-montaigne.fr:340510", "symbol_class": "building", "pixel_x": 2711.0, "pixel_y": 4153.7, "easting": 494937.3, "northing": 239717.8, "epsg_source": 22391}}, {"type": "Feature", "geometry": {"type": "Point", "coordinates": [9.84466, 35.45757]}, "properties": {"record_id": "oai:u-bordeaux-montaigne.fr:340510", "symbol_class": "building", "pixel_x": 2709.6, "pixel_y": 4165.2, "easting": 494927.9, "northing": 239669.9, "epsg_source": 22391}}, {"type": "Feature", "geometry": {"type": "Point", "coordinates": [9.84502, 35.45757]}, "properties": {"record_id": "oai:u-bordeaux-montaigne.fr:340510", "symbol_class": "building", "pixel_x": 2717.2, "pixel_y": 4164.4, "easting": 494960.1, "northing": 239670.9, "epsg_source": 22391}}, {"type": "Feature", "geometry": {"type": "Point", "coordinates": [10.01972, 35.44579]}, "properties": {"record_id": "oai:u-bordeaux-montaigne.fr:340510", "symbol_class": "building", "pixel_x": 6474.0, "pixel_y": 4193.6, "easting": 510816.1, "northing": 238368.7, "epsg_source": 22391}}, {"type": "Feature", "geometry": {"type": "Point", "coordinates": [10.01995, 35.44537]}, "properties": {"record_id": "oai:u-bordeaux-montaigne.fr:340510", "symbol_class": "building", "pixel_x": 6479.7, "pixel_y": 4204.2, "easting": 510837.1, "northing": 238322.2, "epsg_source": 22391}}, {"type": "Feature", "geometry": {"type": "Point", "coordinates": [9.96155, 35.44764]}, "properties": {"record_id": "oai:u-bordeaux-montaigne.fr:340510", "symbol_class": "building", "pixel_x": 5227.0, "pixel_y": 4238.7, "easting": 505535.8, "northing": 238569.8, "epsg_source": 22391}}, {"type": "Feature", "geometry": {"type": "Point", "coordinates": [9.84381, 35.4536]}, "properties": {"record_id": "oai:u-bordeaux-montaigne.fr:340510", "symbol_class": "building", "pixel_x": 2699.1, "pixel_y": 4270.1, "easting": 494850.4, "northing": 239230.2, "epsg_source": 22391}}, {"type": "Feature", "geometry": {"type": "Point", "coordinates": [9.96343, 35.44553]}, "properties": {"record_id": "oai:u-bordeaux-montaigne.fr:340510", "symbol_class": "building", "pixel_x": 5271.4, "pixel_y": 4291.0, "easting": 505706.8, "northing": 238334.9, "epsg_source": 22391}}, {"type": "Feature", "geometry": {"type": "Point", "coordinates": [9.8422, 35.45278]}, "properties": {"record_id": "oai:u-bordeaux-montaigne.fr:340510", "symbol_class": "building", "pixel_x": 2666.3, "pixel_y": 4294.0, "easting": 494704.7, "northing": 239139.4, "epsg_source": 22391}}, {"type": "Feature", "geometry": {"type": "Point", "coordinates": [9.84255, 35.4526]}, "properties": {"record_id": "oai:u-bordeaux-montaigne.fr:340510", "symbol_class": "building", "pixel_x": 2674.1, "pixel_y": 4298.1, "easting": 494736.3, "northing": 239119.7, "epsg_source": 22391}}, {"type": "Feature", "geometry": {"type": "Point", "coordinates": [9.81456, 35.45401]}, "properties": {"record_id": "oai:u-bordeaux-montaigne.fr:340510", "symbol_class": "building", "pixel_x": 2073.1, "pixel_y": 4305.4, "easting": 492195.7, "northing": 239277.5, "epsg_source": 22391}}, {"type": "Feature", "geometry": {"type": "Point", "coordinates": [9.84203, 35.45238]}, "properties": {"record_id": "oai:u-bordeaux-montaigne.fr:340510", "symbol_class": "building", "pixel_x": 2663.5, "pixel_y": 4304.7, "easting": 494689.2, "northing": 239095.3, "epsg_source": 22391}}, {"type": "Feature", "geometry": {"type": "Point", "coordinates": [9.8138, 35.45397]}, "properties": {"record_id": "oai:u-bordeaux-montaigne.fr:340510", "symbol_class": "building", "pixel_x": 2057.0, "pixel_y": 4307.7, "easting": 492127.3, "northing": 239272.7, "epsg_source": 22391}}, {"type": "Feature", "geometry": {"type": "Point", "coordinates": [9.81492, 35.45352]}, "properties": {"record_id": "oai:u-bordeaux-montaigne.fr:340510", "symbol_class": "building", "pixel_x": 2081.8, "pixel_y": 4317.8, "easting": 492228.8, "northing": 239222.7, "epsg_source": 22391}}, {"type": "Feature", "geometry": {"type": "Point", "coordinates": [10.08858, 35.4361]}, "properties": {"record_id": "oai:u-bordeaux-montaigne.fr:340510", "symbol_class": "building", "pixel_x": 7964.9, "pixel_y": 4334.9, "easting": 517068.0, "northing": 237304.4, "epsg_source": 22391}}, {"type": "Feature", "geometry": {"type": "Point", "coordinates": [9.88773, 35.44828]}, "properties": {"record_id": "oai:u-bordeaux-montaigne.fr:340510", "symbol_class": "building", "pixel_x": 3648.1, "pixel_y": 4339.6, "easting": 498836.4, "northing": 238639.0, "epsg_source": 22391}}, {"type": "Feature", "geometry": {"type": "Point", "coordinates": [9.81483, 35.4527]}, "properties": {"record_id": "oai:u-bordeaux-montaigne.fr:340510", "symbol_class": "building", "pixel_x": 2081.5, "pixel_y": 4339.3, "easting": 492220.7, "northing": 239131.9, "epsg_source": 22391}}, {"type": "Feature", "geometry": {"type": "Point", "coordinates": [10.08822, 35.43603]}, "properties": {"record_id": "oai:u-bordeaux-montaigne.fr:340510", "symbol_class": "building", "pixel_x": 7957.2, "pixel_y": 4337.3, "easting": 517034.7, "northing": 237296.5, "epsg_source": 22391}}, {"type": "Feature", "geometry": {"type": "Point", "coordinates": [9.92599, 35.44585]}, "properties": {"record_id": "oai:u-bordeaux-montaigne.fr:340510", "symbol_class": "building", "pixel_x": 4470.6, "pixel_y": 4342.4, "easting": 502308.8, "northing": 238369.3, "epsg_source": 22391}}, {"type": "Feature", "geometry": {"type": "Point", "coordinates": [9.81486, 35.45231]}, "properties": {"record_id": "oai:u-bordeaux-montaigne.fr:340510", "symbol_class": "building", "pixel_x": 2082.8, "pixel_y": 4349.4, "easting": 492223.2, "northing": 239088.6, "epsg_source": 22391}}, {"type": "Feature", "geometry": {"type": "Point", "coordinates": [9.81562, 35.45225]}, "properties": {"record_id": "oai:u-bordeaux-montaigne.fr:340510", "symbol_class": "building", "pixel_x": 2099.2, "pixel_y": 4349.8, "easting": 492292.2, "northing": 239082.0, "epsg_source": 22391}}, {"type": "Feature", "geometry": {"type": "Point", "coordinates": [9.92739, 35.44533]}, "properties": {"record_id": "oai:u-bordeaux-montaigne.fr:340510", "symbol_class": "building", "pixel_x": 4501.4, "pixel_y": 4353.7, "easting": 502435.5, "northing": 238311.9, "epsg_source": 22391}}, {"type": "Feature", "geometry": {"type": "Point", "coordinates": [9.81192, 35.45242]}, "properties": {"record_id": "oai:u-bordeaux-montaigne.fr:340510", "symbol_class": "building", "pixel_x": 2019.8, "pixel_y": 4351.1, "easting": 491956.5, "northing": 239101.5, "epsg_source": 22391}}, {"type": "Feature", "geometry": {"type": "Point", "coordinates": [9.81645, 35.45206]}, "properties": {"record_id": "oai:u-bordeaux-montaigne.fr:340510", "symbol_class": "building", "pixel_x": 2117.3, "pixel_y": 4353.3, "easting": 492367.6, "northing": 239061.5, "epsg_source": 22391}}, {"type": "Feature", "geometry": {"type": "Point", "coordinates": [9.81211, 35.45208]}, "properties": {"record_id": "oai:u-bordeaux-montaigne.fr:340510", "symbol_class": "building", "pixel_x": 2024.5, "pixel_y": 4359.7, "easting": 491973.8, "northing": 239063.5, "epsg_source": 22391}}, {"type": "Feature", "geometry": {"type": "Point", "coordinates": [9.81562, 35.45202]}, "properties": {"record_id": "oai:u-bordeaux-montaigne.fr:340510", "symbol_class": "building", "pixel_x": 2099.7, "pixel_y": 4355.7, "easting": 492292.3, "northing": 239057.0, "epsg_source": 22391}}, {"type": "Feature", "geometry": {"type": "Point", "coordinates": [9.81499, 35.45181]}, "properties": {"record_id": "oai:u-bordeaux-montaigne.fr:340510", "symbol_class": "building", "pixel_x": 2086.5, "pixel_y": 4362.1, "easting": 492234.6, "northing": 239033.8, "epsg_source": 22391}}, {"type": "Feature", "geometry": {"type": "Point", "coordinates": [9.81632, 35.45082]}, "properties": {"record_id": "oai:u-bordeaux-montaigne.fr:340510", "symbol_class": "building", "pixel_x": 2117.0, "pixel_y": 4386.1, "easting": 492355.8, "northing": 238923.2, "epsg_source": 22391}}, {"type": "Feature", "geometry": {"type": "Point", "coordinates": [10.08872, 35.43377]}, "properties": {"record_id": "oai:u-bordeaux-montaigne.fr:340510", "symbol_class": "building", "pixel_x": 7972.5, "pixel_y": 4395.5, "easting": 517080.9, "northing": 237046.2, "epsg_source": 22391}}, {"type": "Feature", "geometry": {"type": "Point", "coordinates": [9.76869, 35.45284]}, "properties": {"record_id": "oai:u-bordeaux-montaigne.fr:340510", "symbol_class": "building", "pixel_x": 1095.0, "pixel_y": 4407.7, "easting": 488033.1, "northing": 239152.7, "epsg_source": 22391}}, {"type": "Feature", "geometry": {"type": "Point", "coordinates": [10.03949, 35.43561]}, "properties": {"record_id": "oai:u-bordeaux-montaigne.fr:340510", "symbol_class": "building", "pixel_x": 6916.5, "pixel_y": 4427.5, "easting": 512611.6, "northing": 237242.2, "epsg_source": 22391}}, {"type": "Feature", "geometry": {"type": "Point", "coordinates": [9.90911, 35.43963]}, "properties": {"record_id": "oai:u-bordeaux-montaigne.fr:340510", "symbol_class": "building", "pixel_x": 4121.7, "pixel_y": 4531.6, "easting": 500776.3, "northing": 237679.7, "epsg_source": 22391}}, {"type": "Feature", "geometry": {"type": "Point", "coordinates": [9.81144, 35.44541]}, "properties": {"record_id": "oai:u-bordeaux-montaigne.fr:340510", "symbol_class": "building", "pixel_x": 2022.9, "pixel_y": 4535.1, "easting": 491911.8, "northing": 238323.5, "epsg_source": 22391}}, {"type": "Feature", "geometry": {"type": "Point", "coordinates": [9.95795, 35.43635]}, "properties": {"record_id": "oai:u-bordeaux-montaigne.fr:340510", "symbol_class": "building", "pixel_x": 5172.1, "pixel_y": 4539.6, "easting": 505209.7, "northing": 237316.5, "epsg_source": 22391}}, {"type": "Feature", "geometry": {"type": "Point", "coordinates": [9.87814, 35.44095]}, "properties": {"record_id": "oai:u-bordeaux-montaigne.fr:340510", "symbol_class": "building", "pixel_x": 3457.3, "pixel_y": 4546.5, "easting": 497965.8, "northing": 237825.3, "epsg_source": 22391}}, {"type": "Feature", "geometry": {"type": "Point", "coordinates": [9.87922, 35.44076]}, "properties": {"record_id": "oai:u-bordeaux-montaigne.fr:340510", "symbol_class": "building", "pixel_x": 3480.8, "pixel_y": 4549.6, "easting": 498064.0, "northing": 237804.7, "epsg_source": 22391}}, {"type": "Feature", "geometry": {"type": "Point", "coordinates": [9.93234, 35.43728]}, "properties": {"record_id": "oai:u-bordeaux-montaigne.fr:340510", "symbol_class": "building", "pixel_x": 4623.0, "pixel_y": 4556.2, "easting": 502885.6, "northing": 237418.7, "epsg_source": 22391}}, {"type": "Feature", "geometry": {"type": "Point", "coordinates": [9.93321, 35.43715]}, "properties": {"record_id": "oai:u-bordeaux-montaigne.fr:340510", "symbol_class": "building", "pixel_x": 4641.8, "pixel_y": 4558.2, "easting": 502964.1, "northing": 237404.2, "epsg_source": 22391}}, {"type": "Feature", "geometry": {"type": "Point", "coordinates": [9.8108, 35.44437]}, "properties": {"record_id": "oai:u-bordeaux-montaigne.fr:340510", "symbol_class": "building", "pixel_x": 2011.2, "pixel_y": 4563.2, "easting": 491853.6, "northing": 238208.3, "epsg_source": 22391}}, {"type": "Feature", "geometry": {"type": "Point", "coordinates": [9.81036, 35.44387]}, "properties": {"record_id": "oai:u-bordeaux-montaigne.fr:340510", "symbol_class": "building", "pixel_x": 2002.9, "pixel_y": 4576.9, "easting": 491814.0, "northing": 238153.2, "epsg_source": 22391}}, {"type": "Feature", "geometry": {"type": "Point", "coordinates": [9.80401, 35.44296]}, "properties": {"record_id": "oai:u-bordeaux-montaigne.fr:340510", "symbol_class": "building", "pixel_x": 1868.9, "pixel_y": 4610.6, "easting": 491237.8, "northing": 238053.1, "epsg_source": 22391}}, {"type": "Feature", "geometry": {"type": "Point", "coordinates": [9.81069, 35.4421]}, "properties": {"record_id": "oai:u-bordeaux-montaigne.fr:340510", "symbol_class": "building", "pixel_x": 2013.3, "pixel_y": 4622.6, "easting": 491844.0, "northing": 237957.1, "epsg_source": 22391}}, {"type": "Feature", "geometry": {"type": "Point", "coordinates": [9.8493, 35.43971]}, "properties": {"record_id": "oai:u-bordeaux-montaigne.fr:340510", "symbol_class": "building", "pixel_x": 2843.2, "pixel_y": 4624.3, "easting": 495348.1, "northing": 237689.5, "epsg_source": 22391}}, {"type": "Feature", "geometry": {"type": "Point", "coordinates": [9.80997, 35.44185]}, "properties": {"record_id": "oai:u-bordeaux-montaigne.fr:340510", "symbol_class": "building", "pixel_x": 1998.4, "pixel_y": 4630.2, "easting": 491778.5, "northing": 237929.5, "epsg_source": 22391}}, {"type": "Feature", "geometry": {"type": "Point", "coordinates": [9.8103, 35.44176]}, "properties": {"record_id": "oai:u-bordeaux-montaigne.fr:340510", "symbol_class": "building", "pixel_x": 2005.6, "pixel_y": 4632.2, "easting": 491808.2, "northing": 237918.8, "epsg_source": 22391}}, {"type": "Feature", "geometry": {"type": "Point", "coordinates": [9.84932, 35.4395]}, "properties": {"record_id": "oai:u-bordeaux-montaigne.fr:340510", "symbol_class": "building", "pixel_x": 2844.0, "pixel_y": 4629.8, "easting": 495349.6, "northing": 237666.1, "epsg_source": 22391}}, {"type": "Feature", "geometry": {"type": "Point", "coordinates": [9.84879, 35.439]}, "properties": {"record_id": "oai:u-bordeaux-montaigne.fr:340510", "symbol_class": "building", "pixel_x": 2833.6, "pixel_y": 4643.9, "easting": 495301.2, "northing": 237609.9, "epsg_source": 22391}}, {"type": "Feature", "geometry": {"type": "Point", "coordinates": [9.81082, 35.44129]}, "properties": {"record_id": "oai:u-bordeaux-montaigne.fr:340510", "symbol_class": "building", "pixel_x": 2017.6, "pixel_y": 4643.5, "easting": 491855.4, "northing": 237867.3, "epsg_source": 22391}}, {"type": "Feature", "geometry": {"type": "Point", "coordinates": [9.8112, 35.44148]}, "properties": {"record_id": "oai:u-bordeaux-montaigne.fr:340510", "symbol_class": "building", "pixel_x": 2025.3, "pixel_y": 4638.1, "easting": 491889.6, "northing": 237887.8, "epsg_source": 22391}}, {"type": "Feature", "geometry": {"type": "Point", "coordinates": [9.80989, 35.44109]}, "properties": {"record_id": "oai:u-bordeaux-montaigne.fr:340510", "symbol_class": "building", "pixel_x": 1998.0, "pixel_y": 4650.3, "easting": 491770.6, "northing": 237844.8, "epsg_source": 22391}}, {"type": "Feature", "geometry": {"type": "Point", "coordinates": [9.8103, 35.44105]}, "properties": {"record_id": "oai:u-bordeaux-montaigne.fr:340510", "symbol_class": "building", "pixel_x": 2007.0, "pixel_y": 4650.8, "easting": 491808.2, "northing": 237840.2, "epsg_source": 22391}}, {"type": "Feature", "geometry": {"type": "Point", "coordinates": [9.8116, 35.44071]}, "properties": {"record_id": "oai:u-bordeaux-montaigne.fr:340510", "symbol_class": "building", "pixel_x": 2035.5, "pixel_y": 4657.6, "easting": 491926.4, "northing": 237802.1, "epsg_source": 22391}}, {"type": "Feature", "geometry": {"type": "Point", "coordinates": [9.84919, 35.43835]}, "properties": {"record_id": "oai:u-bordeaux-montaigne.fr:340510", "symbol_class": "building", "pixel_x": 2843.6, "pixel_y": 4660.0, "easting": 495338.2, "northing": 237538.5, "epsg_source": 22391}}, {"type": "Feature", "geometry": {"type": "Point", "coordinates": [9.81193, 35.44051]}, "properties": {"record_id": "oai:u-bordeaux-montaigne.fr:340510", "symbol_class": "building", "pixel_x": 2042.8, "pixel_y": 4662.4, "easting": 491956.0, "northing": 237780.0, "epsg_source": 22391}}, {"type": "Feature", "geometry": {"type": "Point", "coordinates": [9.8098, 35.44072]}, "properties": {"record_id": "oai:u-bordeaux-montaigne.fr:340510", "symbol_class": "building", "pixel_x": 1996.8, "pixel_y": 4660.0, "easting": 491762.4, "northing": 237804.3, "epsg_source": 22391}}, {"type": "Feature", "geometry": {"type": "Point", "coordinates": [9.84965, 35.43834]}, "properties": {"record_id": "oai:u-bordeaux-montaigne.fr:340510", "symbol_class": "building", "pixel_x": 2853.4, "pixel_y": 4659.6, "easting": 495379.8, "northing": 237537.1, "epsg_source": 22391}}, {"type": "Feature", "geometry": {"type": "Point", "coordinates": [9.81093, 35.44039]}, "properties": {"record_id": "oai:u-bordeaux-montaigne.fr:340510", "symbol_class": "building", "pixel_x": 2021.6, "pixel_y": 4667.0, "easting": 491865.0, "northing": 237766.8, "epsg_source": 22391}}, {"type": "Feature", "geometry": {"type": "Point", "coordinates": [9.8098, 35.44028]}, "properties": {"record_id": "oai:u-bordeaux-montaigne.fr:340510", "symbol_class": "building", "pixel_x": 1997.7, "pixel_y": 4671.7, "easting": 491762.5, "northing": 237754.7, "epsg_source": 22391}}, {"type": "Feature", "geometry": {"type": "Point", "coordinates": [9.81022, 35.44001]}, "properties": {"record_id": "oai:u-bordeaux-montaigne.fr:340510", "symbol_class": "building", "pixel_x": 2007.3, "pixel_y": 4678.0, "easting": 491801.2, "northing": 237724.9, "epsg_source": 22391}}, {"type": "Feature", "geometry": {"type": "Point", "coordinates": [9.84946, 35.43762]}, "properties": {"record_id": "oai:u-bordeaux-montaigne.fr:340510", "symbol_class": "building", "pixel_x": 2850.6, "pixel_y": 4678.7, "easting": 495362.1, "northing": 237457.5, "epsg_source": 22391}}, {"type": "Feature", "geometry": {"type": "Point", "coordinates": [9.84982, 35.43756]}, "properties": {"record_id": "oai:u-bordeaux-montaigne.fr:340510", "symbol_class": "building", "pixel_x": 2858.4, "pixel_y": 4679.6, "easting": 495394.7, "northing": 237451.0, "epsg_source": 22391}}, {"type": "Feature", "geometry": {"type": "Point", "coordinates": [9.80976, 35.4399]}, "properties": {"record_id": "oai:u-bordeaux-montaigne.fr:340510", "symbol_class": "building", "pixel_x": 1997.5, "pixel_y": 4681.6, "easting": 491758.7, "northing": 237713.0, "epsg_source": 22391}}, {"type": "Feature", "geometry": {"type": "Point", "coordinates": [9.81047, 35.43941]}, "properties": {"record_id": "oai:u-bordeaux-montaigne.fr:340510", "symbol_class": "building", "pixel_x": 2013.7, "pixel_y": 4693.3, "easting": 491823.5, "northing": 237658.5, "epsg_source": 22391}}, {"type": "Feature", "geometry": {"type": "Point", "coordinates": [9.81083, 35.43938]}, "properties": {"record_id": "oai:u-bordeaux-montaigne.fr:340510", "symbol_class": "building", "pixel_x": 2021.4, "pixel_y": 4693.5, "easting": 491855.8, "northing": 237655.0, "epsg_source": 22391}}, {"type": "Feature", "geometry": {"type": "Point", "coordinates": [9.81009, 35.43887]}, "properties": {"record_id": "oai:u-bordeaux-montaigne.fr:340510", "symbol_class": "building", "pixel_x": 2006.7, "pixel_y": 4708.0, "easting": 491789.0, "northing": 237598.6, "epsg_source": 22391}}, {"type": "Feature", "geometry": {"type": "Point", "coordinates": [9.8099, 35.43858]}, "properties": {"record_id": "oai:u-bordeaux-montaigne.fr:340510", "symbol_class": "building", "pixel_x": 2003.1, "pixel_y": 4715.9, "easting": 491771.4, "northing": 237566.3, "epsg_source": 22391}}, {"type": "Feature", "geometry": {"type": "Point", "coordinates": [9.77017, 35.44049]}, "properties": {"record_id": "oai:u-bordeaux-montaigne.fr:340510", "symbol_class": "building", "pixel_x": 1150.2, "pixel_y": 4728.2, "easting": 488165.7, "northing": 237782.0, "epsg_source": 22391}}, {"type": "Feature", "geometry": {"type": "Point", "coordinates": [9.83879, 35.4362]}, "properties": {"record_id": "oai:u-bordeaux-montaigne.fr:340510", "symbol_class": "building", "pixel_x": 2625.3, "pixel_y": 4732.6, "easting": 494393.7, "northing": 237300.4, "epsg_source": 22391}}, {"type": "Feature", "geometry": {"type": "Point", "coordinates": [9.8656, 35.43439]}, "properties": {"record_id": "oai:u-bordeaux-montaigne.fr:340510", "symbol_class": "building", "pixel_x": 3201.9, "pixel_y": 4737.7, "easting": 496827.2, "northing": 237098.0, "epsg_source": 22391}}, {"type": "Feature", "geometry": {"type": "Point", "coordinates": [9.99843, 35.42539]}, "properties": {"record_id": "oai:u-bordeaux-montaigne.fr:340510", "symbol_class": "building", "pixel_x": 6059.1, "pixel_y": 4760.7, "easting": 508886.2, "northing": 236104.6, "epsg_source": 22391}}, {"type": "Feature", "geometry": {"type": "Point", "coordinates": [9.90643, 35.431]}, "properties": {"record_id": "oai:u-bordeaux-montaigne.fr:340510", "symbol_class": "building", "pixel_x": 4081.3, "pixel_y": 4761.4, "easting": 500533.7, "northing": 236722.2, "epsg_source": 22391}}, {"type": "Feature", "geometry": {"type": "Point", "coordinates": [9.99914, 35.42512]}, "properties": {"record_id": "oai:u-bordeaux-montaigne.fr:340510", "symbol_class": "building", "pixel_x": 6074.7, "pixel_y": 4766.8, "easting": 508950.0, "northing": 236073.9, "epsg_source": 22391}}, {"type": "Feature", "geometry": {"type": "Point", "coordinates": [9.9986, 35.42493]}, "properties": {"record_id": "oai:u-bordeaux-montaigne.fr:340510", "symbol_class": "building", "pixel_x": 6063.5, "pixel_y": 4772.6, "easting": 508900.9, "northing": 236052.8, "epsg_source": 22391}}, {"type": "Feature", "geometry": {"type": "Point", "coordinates": [9.77299, 35.4383]}, "properties": {"record_id": "oai:u-bordeaux-montaigne.fr:340510", "symbol_class": "building", "pixel_x": 1214.7, "pixel_y": 4781.0, "easting": 488421.5, "northing": 237539.0, "epsg_source": 22391}}, {"type": "Feature", "geometry": {"type": "Point", "coordinates": [9.77213, 35.43832]}, "properties": {"record_id": "oai:u-bordeaux-montaigne.fr:340510", "symbol_class": "building", "pixel_x": 1196.3, "pixel_y": 4781.8, "easting": 488343.6, "northing": 237541.4, "epsg_source": 22391}}, {"type": "Feature", "geometry": {"type": "Point", "coordinates": [9.91259, 35.42953]}, "properties": {"record_id": "oai:u-bordeaux-montaigne.fr:340510", "symbol_class": "building", "pixel_x": 4215.9, "pixel_y": 4790.0, "easting": 501092.9, "northing": 236559.0, "epsg_source": 22391}}, {"type": "Feature", "geometry": {"type": "Point", "coordinates": [9.91076, 35.42964]}, "properties": {"record_id": "oai:u-bordeaux-montaigne.fr:340510", "symbol_class": "building", "pixel_x": 4176.6, "pixel_y": 4790.2, "easting": 500926.9, "northing": 236570.7, "epsg_source": 22391}}, {"type": "Feature", "geometry": {"type": "Point", "coordinates": [9.91131, 35.4293]}, "properties": {"record_id": "oai:u-bordeaux-montaigne.fr:340510", "symbol_class": "building", "pixel_x": 4189.0, "pixel_y": 4798.2, "easting": 500976.6, "northing": 236533.0, "epsg_source": 22391}}, {"type": "Feature", "geometry": {"type": "Point", "coordinates": [9.76664, 35.43804]}, "properties": {"record_id": "oai:u-bordeaux-montaigne.fr:340510", "symbol_class": "building", "pixel_x": 1079.4, "pixel_y": 4797.7, "easting": 487844.7, "northing": 237510.8, "epsg_source": 22391}}, {"type": "Feature", "geometry": {"type": "Point", "coordinates": [9.99919, 35.42305]}, "properties": {"record_id": "oai:u-bordeaux-montaigne.fr:340510", "symbol_class": "building", "pixel_x": 6079.9, "pixel_y": 4820.8, "easting": 508955.0, "northing": 235844.2, "epsg_source": 22391}}, {"type": "Feature", "geometry": {"type": "Point", "coordinates": [9.77203, 35.43643]}, "properties": {"record_id": "oai:u-bordeaux-montaigne.fr:340510", "symbol_class": "building", "pixel_x": 1197.7, "pixel_y": 4831.2, "easting": 488333.8, "northing": 237332.3, "epsg_source": 22391}}, {"type": "Feature", "geometry": {"type": "Point", "coordinates": [9.77233, 35.43632]}, "properties": {"record_id": "oai:u-bordeaux-montaigne.fr:340510", "symbol_class": "building", "pixel_x": 1204.2, "pixel_y": 4833.8, "easting": 488360.6, "northing": 237319.2, "epsg_source": 22391}}, {"type": "Feature", "geometry": {"type": "Point", "coordinates": [9.77277, 35.43618]}, "properties": {"record_id": "oai:u-bordeaux-montaigne.fr:340510", "symbol_class": "building", "pixel_x": 1214.0, "pixel_y": 4836.8, "easting": 488400.9, "northing": 237303.5, "epsg_source": 22391}}, {"type": "Feature", "geometry": {"type": "Point", "coordinates": [9.99739, 35.42253]}, "properties": {"record_id": "oai:u-bordeaux-montaigne.fr:340510", "symbol_class": "building", "pixel_x": 6042.4, "pixel_y": 4837.2, "easting": 508791.4, "northing": 235786.9, "epsg_source": 22391}}, {"type": "Feature", "geometry": {"type": "Point", "coordinates": [9.99902, 35.42208]}, "properties": {"record_id": "oai:u-bordeaux-montaigne.fr:340510", "symbol_class": "building", "pixel_x": 6078.2, "pixel_y": 4846.2, "easting": 508940.1, "northing": 235737.6, "epsg_source": 22391}}, {"type": "Feature", "geometry": {"type": "Point", "coordinates": [9.7718, 35.43598]}, "properties": {"record_id": "oai:u-bordeaux-montaigne.fr:340510", "symbol_class": "building", "pixel_x": 1193.6, "pixel_y": 4843.3, "easting": 488313.0, "northing": 237282.4, "epsg_source": 22391}}, {"type": "Feature", "geometry": {"type": "Point", "coordinates": [9.77301, 35.43579]}, "properties": {"record_id": "oai:u-bordeaux-montaigne.fr:340510", "symbol_class": "building", "pixel_x": 1219.8, "pixel_y": 4846.5, "easting": 488422.4, "northing": 237260.8, "epsg_source": 22391}}, {"type": "Feature", "geometry": {"type": "Point", "coordinates": [9.77251, 35.43558]}, "properties": {"record_id": "oai:u-bordeaux-montaigne.fr:340510", "symbol_class": "building", "pixel_x": 1209.4, "pixel_y": 4852.6, "easting": 488376.9, "northing": 237238.0, "epsg_source": 22391}}, {"type": "Feature", "geometry": {"type": "Point", "coordinates": [9.77203, 35.43573]}, "properties": {"record_id": "oai:u-bordeaux-montaigne.fr:340510", "symbol_class": "building", "pixel_x": 1199.1, "pixel_y": 4849.6, "easting": 488334.1, "northing": 237254.1, "epsg_source": 22391}}, {"type": "Feature", "geometry": {"type": "Point", "coordinates": [9.9993, 35.42168]}, "properties": {"record_id": "oai:u-bordeaux-montaigne.fr:340510", "symbol_class": "building", "pixel_x": 6084.9, "pixel_y": 4856.3, "easting": 508965.2, "northing": 235692.9, "epsg_source": 22391}}, {"type": "Feature", "geometry": {"type": "Point", "coordinates": [9.81387, 35.43166]}, "properties": {"record_id": "oai:u-bordeaux-montaigne.fr:340510", "symbol_class": "building", "pixel_x": 2101.2, "pixel_y": 4890.4, "easting": 492131.0, "northing": 236798.7, "epsg_source": 22391}}, {"type": "Feature", "geometry": {"type": "Point", "coordinates": [9.81426, 35.43157]}, "properties": {"record_id": "oai:u-bordeaux-montaigne.fr:340510", "symbol_class": "building", "pixel_x": 2109.8, "pixel_y": 4892.2, "easting": 492166.7, "northing": 236788.6, "epsg_source": 22391}}, {"type": "Feature", "geometry": {"type": "Point", "coordinates": [9.8423, 35.43004]}, "properties": {"record_id": "oai:u-bordeaux-montaigne.fr:340510", "symbol_class": "building", "pixel_x": 2712.2, "pixel_y": 4888.0, "easting": 494712.1, "northing": 236617.2, "epsg_source": 22391}}, {"type": "Feature", "geometry": {"type": "Point", "coordinates": [9.84284, 35.4299]}, "properties": {"record_id": "oai:u-bordeaux-montaigne.fr:340510", "symbol_class": "building", "pixel_x": 2724.0, "pixel_y": 4890.8, "easting": 494760.7, "northing": 236601.7, "epsg_source": 22391}}, {"type": "Feature", "geometry": {"type": "Point", "coordinates": [9.8412, 35.42979]}, "properties": {"record_id": "oai:u-bordeaux-montaigne.fr:340510", "symbol_class": "building", "pixel_x": 2689.1, "pixel_y": 4896.2, "easting": 494612.0, "northing": 236589.8, "epsg_source": 22391}}, {"type": "Feature", "geometry": {"type": "Point", "coordinates": [9.84146, 35.42963]}, "properties": {"record_id": "oai:u-bordeaux-montaigne.fr:340510", "symbol_class": "building", "pixel_x": 2695.1, "pixel_y": 4900.1, "easting": 494636.1, "northing": 236571.3, "epsg_source": 22391}}, {"type": "Feature", "geometry": {"type": "Point", "coordinates": [9.84224, 35.42942]}, "properties": {"record_id": "oai:u-bordeaux-montaigne.fr:340510", "symbol_class": "building", "pixel_x": 2712.1, "pixel_y": 4904.4, "easting": 494706.4, "northing": 236548.1, "epsg_source": 22391}}, {"type": "Feature", "geometry": {"type": "Point", "coordinates": [9.85486, 35.42865]}, "properties": {"record_id": "oai:u-bordeaux-montaigne.fr:340510", "symbol_class": "building", "pixel_x": 2983.4, "pixel_y": 4904.5, "easting": 495852.1, "northing": 236462.5, "epsg_source": 22391}}, {"type": "Feature", "geometry": {"type": "Point", "coordinates": [9.84275, 35.42912]}, "properties": {"record_id": "oai:u-bordeaux-montaigne.fr:340510", "symbol_class": "building", "pixel_x": 2723.6, "pixel_y": 4911.3, "easting": 494752.6, "northing": 236515.4, "epsg_source": 22391}}, {"type": "Feature", "geometry": {"type": "Point", "coordinates": [9.84116, 35.42901]}, "properties": {"record_id": "oai:u-bordeaux-montaigne.fr:340510", "symbol_class": "building", "pixel_x": 2689.8, "pixel_y": 4916.8, "easting": 494608.5, "northing": 236502.7, "epsg_source": 22391}}, {"type": "Feature", "geometry": {"type": "Point", "coordinates": [9.82144, 35.43009]}, "properties": {"record_id": "oai:u-bordeaux-montaigne.fr:340510", "symbol_class": "building", "pixel_x": 2266.2, "pixel_y": 4919.5, "easting": 492818.6, "northing": 236624.1, "epsg_source": 22391}}, {"type": "Feature", "geometry": {"type": "Point", "coordinates": [9.84076, 35.429]}, "properties": {"record_id": "oai:u-bordeaux-montaigne.fr:340510", "symbol_class": "building", "pixel_x": 2681.4, "pixel_y": 4917.6, "easting": 494572.4, "northing": 236501.8, "epsg_source": 22391}}, {"type": "Feature", "geometry": {"type": "Point", "coordinates": [9.85419, 35.4282]}, "properties": {"record_id": "oai:u-bordeaux-montaigne.fr:340510", "symbol_class": "building", "pixel_x": 2969.8, "pixel_y": 4917.4, "easting": 495790.8, "northing": 236412.4, "epsg_source": 22391}}, {"type": "Feature", "geometry": {"type": "Point", "coordinates": [9.84022, 35.42848]}, "properties": {"record_id": "oai:u-bordeaux-montaigne.fr:340510", "symbol_class": "building", "pixel_x": 2670.7, "pixel_y": 4932.0, "easting": 494522.8, "northing": 236444.3, "epsg_source": 22391}}, {"type": "Feature", "geometry": {"type": "Point", "coordinates": [9.84062, 35.42839]}, "properties": {"record_id": "oai:u-bordeaux-montaigne.fr:340510", "symbol_class": "building", "pixel_x": 2679.4, "pixel_y": 4933.8, "easting": 494559.3, "northing": 236434.3, "epsg_source": 22391}}, {"type": "Feature", "geometry": {"type": "Point", "coordinates": [9.8201, 35.42919]}, "properties": {"record_id": "oai:u-bordeaux-montaigne.fr:340510", "symbol_class": "building", "pixel_x": 2239.3, "pixel_y": 4945.1, "easting": 492697.0, "northing": 236524.4, "epsg_source": 22391}}, {"type": "Feature", "geometry": {"type": "Point", "coordinates": [9.9632, 35.4198]}, "properties": {"record_id": "oai:u-bordeaux-montaigne.fr:340510", "symbol_class": "building", "pixel_x": 5316.9, "pixel_y": 4963.5, "easting": 505687.9, "northing": 235481.0, "epsg_source": 22391}}, {"type": "Feature", "geometry": {"type": "Point", "coordinates": [9.93912, 35.41904]}, "properties": {"record_id": "oai:u-bordeaux-montaigne.fr:340510", "symbol_class": "building", "pixel_x": 4803.4, "pixel_y": 5021.7, "easting": 503501.5, "northing": 235396.6, "epsg_source": 22391}}, {"type": "Feature", "geometry": {"type": "Point", "coordinates": [9.93989, 35.41808]}, "properties": {"record_id": "oai:u-bordeaux-montaigne.fr:340510", "symbol_class": "building", "pixel_x": 4821.8, "pixel_y": 5045.6, "easting": 503571.4, "northing": 235289.7, "epsg_source": 22391}}, {"type": "Feature", "geometry": {"type": "Point", "coordinates": [9.79632, 35.4267]}, "properties": {"record_id": "oai:u-bordeaux-montaigne.fr:340510", "symbol_class": "building", "pixel_x": 1735.5, "pixel_y": 5047.5, "easting": 490537.3, "northing": 236250.2, "epsg_source": 22391}}, {"type": "Feature", "geometry": {"type": "Point", "coordinates": [9.94023, 35.41775]}, "properties": {"record_id": "oai:u-bordeaux-montaigne.fr:340510", "symbol_class": "building", "pixel_x": 4829.8, "pixel_y": 5053.7, "easting": 503602.9, "northing": 235253.0, "epsg_source": 22391}}, {"type": "Feature", "geometry": {"type": "Point", "coordinates": [9.9387, 35.41738]}, "properties": {"record_id": "oai:u-bordeaux-montaigne.fr:340510", "symbol_class": "building", "pixel_x": 4797.8, "pixel_y": 5065.7, "easting": 503463.7, "northing": 235212.5, "epsg_source": 22391}}, {"type": "Feature", "geometry": {"type": "Point", "coordinates": [9.93907, 35.41706]}, "properties": {"record_id": "oai:u-bordeaux-montaigne.fr:340510", "symbol_class": "building", "pixel_x": 4806.2, "pixel_y": 5073.6, "easting": 503496.8, "northing": 235176.7, "epsg_source": 22391}}, {"type": "Feature", "geometry": {"type": "Point", "coordinates": [10.05676, 35.40861]}, "properties": {"record_id": "oai:u-bordeaux-montaigne.fr:340510", "symbol_class": "building", "pixel_x": 7339.3, "pixel_y": 5104.7, "easting": 514184.7, "northing": 234250.5, "epsg_source": 22391}}, {"type": "Feature", "geometry": {"type": "Point", "coordinates": [9.9218, 35.41631]}, "properties": {"record_id": "oai:u-bordeaux-montaigne.fr:340510", "symbol_class": "building", "pixel_x": 4438.5, "pixel_y": 5120.7, "easting": 501929.4, "northing": 235093.0, "epsg_source": 22391}}, {"type": "Feature", "geometry": {"type": "Point", "coordinates": [9.7672, 35.4254]}, "properties": {"record_id": "oai:u-bordeaux-montaigne.fr:340510", "symbol_class": "building", "pixel_x": 1115.5, "pixel_y": 5127.0, "easting": 487894.1, "northing": 236109.0, "epsg_source": 22391}}, {"type": "Feature", "geometry": {"type": "Point", "coordinates": [9.76674, 35.42519]}, "properties": {"record_id": "oai:u-bordeaux-montaigne.fr:340510", "symbol_class": "building", "pixel_x": 1106.1, "pixel_y": 5133.2, "easting": 487852.2, "northing": 236085.7, "epsg_source": 22391}}, {"type": "Feature", "geometry": {"type": "Point", "coordinates": [9.76743, 35.42505]}, "properties": {"record_id": "oai:u-bordeaux-montaigne.fr:340510", "symbol_class": "building", "pixel_x": 1120.9, "pixel_y": 5135.9, "easting": 487914.2, "northing": 236069.9, "epsg_source": 22391}}, {"type": "Feature", "geometry": {"type": "Point", "coordinates": [9.76785, 35.42511]}, "properties": {"record_id": "oai:u-bordeaux-montaigne.fr:340510", "symbol_class": "building", "pixel_x": 1129.8, "pixel_y": 5133.5, "easting": 487952.5, "northing": 236077.1, "epsg_source": 22391}}, {"type": "Feature", "geometry": {"type": "Point", "coordinates": [9.9529, 35.41293]}, "properties": {"record_id": "oai:u-bordeaux-montaigne.fr:340510", "symbol_class": "building", "pixel_x": 5110.1, "pixel_y": 5159.3, "easting": 504753.1, "northing": 234719.3, "epsg_source": 22391}}, {"type": "Feature", "geometry": {"type": "Point", "coordinates": [9.76364, 35.42379]}, "properties": {"record_id": "oai:u-bordeaux-montaigne.fr:340510", "symbol_class": "building", "pixel_x": 1042.5, "pixel_y": 5174.7, "easting": 487570.7, "northing": 235930.8, "epsg_source": 22391}}, {"type": "Feature", "geometry": {"type": "Point", "coordinates": [9.76396, 35.42395]}, "properties": {"record_id": "oai:u-bordeaux-montaigne.fr:340510", "symbol_class": "building", "pixel_x": 1049.0, "pixel_y": 5170.0, "easting": 487599.7, "northing": 235948.4, "epsg_source": 22391}}, {"type": "Feature", "geometry": {"type": "Point", "coordinates": [9.76406, 35.42374]}, "properties": {"record_id": "oai:u-bordeaux-montaigne.fr:340510", "symbol_class": "building", "pixel_x": 1051.4, "pixel_y": 5175.4, "easting": 487608.3, "northing": 235924.9, "epsg_source": 22391}}, {"type": "Feature", "geometry": {"type": "Point", "coordinates": [9.99059, 35.40982]}, "properties": {"record_id": "oai:u-bordeaux-montaigne.fr:340510", "symbol_class": "building", "pixel_x": 5922.1, "pixel_y": 5180.2, "easting": 508175.7, "northing": 234376.4, "epsg_source": 22391}}, {"type": "Feature", "geometry": {"type": "Point", "coordinates": [9.955, 35.41106]}, "properties": {"record_id": "oai:u-bordeaux-montaigne.fr:340510", "symbol_class": "building", "pixel_x": 5158.7, "pixel_y": 5204.8, "easting": 504944.1, "northing": 234512.2, "epsg_source": 22391}}, {"type": "Feature", "geometry": {"type": "Point", "coordinates": [9.81959, 35.41892]}, "properties": {"record_id": "oai:u-bordeaux-montaigne.fr:340510", "symbol_class": "building", "pixel_x": 2247.9, "pixel_y": 5214.3, "easting": 492648.9, "northing": 235385.1, "epsg_source": 22391}}, {"type": "Feature", "geometry": {"type": "Point", "coordinates": [9.81881, 35.41808]}, "properties": {"record_id": "oai:u-bordeaux-montaigne.fr:340510", "symbol_class": "building", "pixel_x": 2233.0, "pixel_y": 5237.6, "easting": 492578.7, "northing": 235291.6, "epsg_source": 22391}}, {"type": "Feature", "geometry": {"type": "Point", "coordinates": [9.85563, 35.41586]}, "properties": {"record_id": "oai:u-bordeaux-montaigne.fr:340510", "symbol_class": "building", "pixel_x": 3024.5, "pixel_y": 5237.5, "easting": 495921.2, "northing": 235043.6, "epsg_source": 22391}}, {"type": "Feature", "geometry": {"type": "Point", "coordinates": [9.99165, 35.40721]}, "properties": {"record_id": "oai:u-bordeaux-montaigne.fr:340510", "symbol_class": "building", "pixel_x": 5949.8, "pixel_y": 5246.5, "easting": 508271.9, "northing": 234087.7, "epsg_source": 22391}}, {"type": "Feature", "geometry": {"type": "Point", "coordinates": [9.97026, 35.40745]}, "properties": {"record_id": "oai:u-bordeaux-montaigne.fr:340510", "symbol_class": "building", "pixel_x": 5491.9, "pixel_y": 5274.8, "easting": 506329.5, "northing": 234111.9, "epsg_source": 22391}}, {"type": "Feature", "geometry": {"type": "Point", "coordinates": [9.82862, 35.41496]}, "properties": {"record_id": "oai:u-bordeaux-montaigne.fr:340510", "symbol_class": "building", "pixel_x": 2448.7, "pixel_y": 5303.5, "easting": 493468.9, "northing": 234945.6, "epsg_source": 22391}}, {"type": "Feature", "geometry": {"type": "Point", "coordinates": [9.93043, 35.4084]}, "properties": {"record_id": "oai:u-bordeaux-montaigne.fr:340510", "symbol_class": "building", "pixel_x": 4638.5, "pixel_y": 5313.6, "easting": 502713.4, "northing": 234215.7, "epsg_source": 22391}}, {"type": "Feature", "geometry": {"type": "Point", "coordinates": [9.89677, 35.41036]}, "properties": {"record_id": "oai:u-bordeaux-montaigne.fr:340510", "symbol_class": "building", "pixel_x": 3914.9, "pixel_y": 5316.2, "easting": 499656.6, "northing": 234432.2, "epsg_source": 22391}}, {"type": "Feature", "geometry": {"type": "Point", "coordinates": [9.82793, 35.41464]}, "properties": {"record_id": "oai:u-bordeaux-montaigne.fr:340510", "symbol_class": "building", "pixel_x": 2434.6, "pixel_y": 5312.9, "easting": 493406.1, "northing": 234910.2, "epsg_source": 22391}}, {"type": "Feature", "geometry": {"type": "Point", "coordinates": [9.93875, 35.40726]}, "properties": {"record_id": "oai:u-bordeaux-montaigne.fr:340510", "symbol_class": "building", "pixel_x": 4818.7, "pixel_y": 5330.2, "easting": 503469.0, "northing": 234089.4, "epsg_source": 22391}}, {"type": "Feature", "geometry": {"type": "Point", "coordinates": [9.96035, 35.40522]}, "properties": {"record_id": "oai:u-bordeaux-montaigne.fr:340510", "symbol_class": "building", "pixel_x": 5284.5, "pixel_y": 5348.9, "easting": 505430.4, "northing": 233864.1, "epsg_source": 22391}}, {"type": "Feature", "geometry": {"type": "Point", "coordinates": [9.91617, 35.40782]}, "properties": {"record_id": "oai:u-bordeaux-montaigne.fr:340510", "symbol_class": "building", "pixel_x": 4334.6, "pixel_y": 5351.5, "easting": 501418.1, "northing": 234151.0, "epsg_source": 22391}}, {"type": "Feature", "geometry": {"type": "Point", "coordinates": [9.98168, 35.40325]}, "properties": {"record_id": "oai:u-bordeaux-montaigne.fr:340510", "symbol_class": "building", "pixel_x": 5744.5, "pixel_y": 5366.0, "easting": 507367.6, "northing": 233647.8, "epsg_source": 22391}}, {"type": "Feature", "geometry": {"type": "Point", "coordinates": [9.9184, 35.40699]}, "properties": {"record_id": "oai:u-bordeaux-montaigne.fr:340510", "symbol_class": "building", "pixel_x": 4383.9, "pixel_y": 5369.6, "easting": 501620.4, "northing": 234059.3, "epsg_source": 22391}}, {"type": "Feature", "geometry": {"type": "Point", "coordinates": [9.98204, 35.40287]}, "properties": {"record_id": "oai:u-bordeaux-montaigne.fr:340510", "symbol_class": "building", "pixel_x": 5752.9, "pixel_y": 5375.3, "easting": 507399.9, "northing": 233605.6, "epsg_source": 22391}}, {"type": "Feature", "geometry": {"type": "Point", "coordinates": [9.85588, 35.41038]}, "properties": {"record_id": "oai:u-bordeaux-montaigne.fr:340510", "symbol_class": "building", "pixel_x": 3040.5, "pixel_y": 5380.3, "easting": 495944.0, "northing": 234435.8, "epsg_source": 22391}}, {"type": "Feature", "geometry": {"type": "Point", "coordinates": [9.84644, 35.40402]}, "properties": {"record_id": "oai:u-bordeaux-montaigne.fr:340510", "symbol_class": "building", "pixel_x": 2850.9, "pixel_y": 5561.4, "easting": 495086.5, "northing": 233730.4, "epsg_source": 22391}}, {"type": "Feature", "geometry": {"type": "Point", "coordinates": [9.8458, 35.40367]}, "properties": {"record_id": "oai:u-bordeaux-montaigne.fr:340510", "symbol_class": "building", "pixel_x": 2837.9, "pixel_y": 5571.4, "easting": 495028.3, "northing": 233692.5, "epsg_source": 22391}}, {"type": "Feature", "geometry": {"type": "Point", "coordinates": [9.83482, 35.40438]}, "properties": {"record_id": "oai:u-bordeaux-montaigne.fr:340510", "symbol_class": "building", "pixel_x": 2601.7, "pixel_y": 5570.1, "easting": 494031.4, "northing": 233771.8, "epsg_source": 22391}}, {"type": "Feature", "geometry": {"type": "Point", "coordinates": [9.83539, 35.40421]}, "properties": {"record_id": "oai:u-bordeaux-montaigne.fr:340510", "symbol_class": "building", "pixel_x": 2614.2, "pixel_y": 5573.7, "easting": 494083.1, "northing": 233752.7, "epsg_source": 22391}}, {"type": "Feature", "geometry": {"type": "Point", "coordinates": [9.86835, 35.40243]}, "properties": {"record_id": "oai:u-bordeaux-montaigne.fr:340510", "symbol_class": "building", "pixel_x": 3322.4, "pixel_y": 5568.3, "easting": 497075.5, "northing": 233553.4, "epsg_source": 22391}}, {"type": "Feature", "geometry": {"type": "Point", "coordinates": [9.86788, 35.40214]}, "properties": {"record_id": "oai:u-bordeaux-montaigne.fr:340510", "symbol_class": "building", "pixel_x": 3313.0, "pixel_y": 5576.7, "easting": 497033.1, "northing": 233521.1, "epsg_source": 22391}}, {"type": "Feature", "geometry": {"type": "Point", "coordinates": [9.86662, 35.40206]}, "properties": {"record_id": "oai:u-bordeaux-montaigne.fr:340510", "symbol_class": "building", "pixel_x": 3286.2, "pixel_y": 5580.6, "easting": 496918.7, "northing": 233512.9, "epsg_source": 22391}}, {"type": "Feature", "geometry": {"type": "Point", "coordinates": [9.82392, 35.40441]}, "properties": {"record_id": "oai:u-bordeaux-montaigne.fr:340510", "symbol_class": "building", "pixel_x": 2368.5, "pixel_y": 5586.7, "easting": 493041.4, "northing": 233775.2, "epsg_source": 22391}}, {"type": "Feature", "geometry": {"type": "Point", "coordinates": [9.7691, 35.40703]}, "properties": {"record_id": "oai:u-bordeaux-montaigne.fr:340510", "symbol_class": "building", "pixel_x": 1191.1, "pixel_y": 5604.0, "easting": 488063.5, "northing": 234071.4, "epsg_source": 22391}}, {"type": "Feature", "geometry": {"type": "Point", "coordinates": [9.80218, 35.40489]}, "properties": {"record_id": "oai:u-bordeaux-montaigne.fr:340510", "symbol_class": "building", "pixel_x": 1902.6, "pixel_y": 5608.3, "easting": 491066.8, "northing": 233830.3, "epsg_source": 22391}}, {"type": "Feature", "geometry": {"type": "Point", "coordinates": [9.79018, 35.4058]}, "properties": {"record_id": "oai:u-bordeaux-montaigne.fr:340510", "symbol_class": "building", "pixel_x": 1644.2, "pixel_y": 5603.1, "easting": 489977.5, "northing": 233932.9, "epsg_source": 22391}}, {"type": "Feature", "geometry": {"type": "Point", "coordinates": [9.80073, 35.40492]}, "properties": {"record_id": "oai:u-bordeaux-montaigne.fr:340510", "symbol_class": "building", "pixel_x": 1871.6, "pixel_y": 5609.7, "easting": 490935.5, "northing": 233833.8, "epsg_source": 22391}}, {"type": "Feature", "geometry": {"type": "Point", "coordinates": [9.7785, 35.40656]}, "properties": {"record_id": "oai:u-bordeaux-montaigne.fr:340510", "symbol_class": "building", "pixel_x": 1393.0, "pixel_y": 5601.6, "easting": 488917.1, "northing": 234018.1, "epsg_source": 22391}}, {"type": "Feature", "geometry": {"type": "Point", "coordinates": [9.779, 35.40654]}, "properties": {"record_id": "oai:u-bordeaux-montaigne.fr:340510", "symbol_class": "building", "pixel_x": 1403.8, "pixel_y": 5601.5, "easting": 488962.6, "northing": 234015.4, "epsg_source": 22391}}, {"type": "Feature", "geometry": {"type": "Point", "coordinates": [9.77982, 35.40652]}, "properties": {"record_id": "oai:u-bordeaux-montaigne.fr:340510", "symbol_class": "building", "pixel_x": 1421.3, "pixel_y": 5600.5, "easting": 489036.8, "northing": 234014.0, "epsg_source": 22391}}, {"type": "Feature", "geometry": {"type": "Point", "coordinates": [9.78949, 35.40595]}, "properties": {"record_id": "oai:u-bordeaux-montaigne.fr:340510", "symbol_class": "building", "pixel_x": 1629.2, "pixel_y": 5600.4, "easting": 489914.7, "northing": 233949.1, "epsg_source": 22391}}, {"type": "Feature", "geometry": {"type": "Point", "coordinates": [9.81304, 35.40442]}, "properties": {"record_id": "oai:u-bordeaux-montaigne.fr:340510", "symbol_class": "building", "pixel_x": 2135.8, "pixel_y": 5603.5, "easting": 492053.1, "northing": 233777.3, "epsg_source": 22391}}, {"type": "Feature", "geometry": {"type": "Point", "coordinates": [9.80119, 35.40504]}, "properties": {"record_id": "oai:u-bordeaux-montaigne.fr:340510", "symbol_class": "building", "pixel_x": 1881.1, "pixel_y": 5605.7, "easting": 490976.8, "northing": 233847.6, "epsg_source": 22391}}, {"type": "Feature", "geometry": {"type": "Point", "coordinates": [9.812, 35.40424]}, "properties": {"record_id": "oai:u-bordeaux-montaigne.fr:340510", "symbol_class": "building", "pixel_x": 2114.0, "pixel_y": 5609.8, "easting": 491959.1, "northing": 233757.3, "epsg_source": 22391}}, {"type": "Feature", "geometry": {"type": "Point", "coordinates": [9.81293, 35.4039]}, "properties": {"record_id": "oai:u-bordeaux-montaigne.fr:340510", "symbol_class": "building", "pixel_x": 2134.5, "pixel_y": 5617.3, "easting": 492043.3, "northing": 233719.5, "epsg_source": 22391}}, {"type": "Feature", "geometry": {"type": "Point", "coordinates": [9.80119, 35.40458]}, "properties": {"record_id": "oai:u-bordeaux-montaigne.fr:340510", "symbol_class": "building", "pixel_x": 1882.0, "pixel_y": 5617.8, "easting": 490977.0, "northing": 233796.6, "epsg_source": 22391}}]}